{"version": 0.6, "generator": "Overpass API 0.7.61.5 4133829e", "osm3s": {"timestamp_osm_base": "2023-12-06T14:07:59Z", "copyright": "The data included in this document is from www.openstreetmap.org. The data is made available under ODbL."}, "elements": [{"type": "node", "id": 21322160, "lat": -28.2206973, "lon": 152.0341423, "tags": {"highway": "traffic_signals"}}, {"type": "node", "id": 313290005, "lat": -28.2185881, "lon": 152.0345019}, {"type": "node", "id": 313290472, "lat": -28.2205549, "lon": 152.0338092}, {"type": "node", "id": 503976922, "lat": -28.2176263, "lon": 152.0346794}, {"type": "node", "id": 826031148, "lat": -28.2195238, "lon": 152.0411582}, {"type": "node", "id": 826031153, "lat": -28.2200041, "lon": 152.0405139}, {"type": "node", "id": 1288967786, "lat": -28.2206029, "lon": 152.0341653, "tags": {"highway": "traffic_signals"}}, {"type": "node", "id": 1288967806, "lat": -28.220711, "lon": 152.0342302, "tags": {"highway": "traffic_signals"}}, {"type": "node", "id": 1288967834, "lat": -28.2206156, "lon": 152.0342487, "tags": {"highway": "traffic_signals"}}, {"type": "node", "id": 1288967835, "lat": -28.2186019, "lon": 152.0346187}, {"type": "node", "id": 1288967837, "lat": -28.2205205, "lon": 152.0340421}, {"type": "node", "id": 1288967842, "lat": -28.2176575, "lon": 152.0347847}, {"type": "node", "id": 1288967850, "lat": -28.2203589, "lon": 152.0341926}, {"type": "node", "id": 1760773039, "lat": -28.2209022, "lon": 152.0403476}, {"type": "node", "id": 1760773086, "lat": -28.2231403, "lon": 152.0399153}, {"type": "node", "id": 1760773266, "lat": -28.2220679, "lon": 152.0401182}, {"type": "node", "id": 1867550455, "lat": -28.2189687, "lon": 152.0371855}, {"type": "node", "id": 1929856685, "lat": -28.2205254, "lon": 152.0329812}, {"type": "node", "id": 1929856719, "lat": -28.2187689, "lon": 152.0358025}, {"type": "node", "id": 1929856739, "lat": -28.2204431, "lon": 152.0329953}, {"type": "node", "id": 1969425888, "lat": -28.2236721, "lon": 152.0397702}, {"type": "node", "id": 1969425929, "lat": -28.2273297, "lon": 152.0391268}, {"type": "node", "id": 1969425989, "lat": -28.22563, "lon": 152.039318}, {"type": "node", "id": 1969426033, "lat": -28.2246876, "lon": 152.0394562}, {"type": "node", "id": 1969426079, "lat": -28.2250907, "lon": 152.0393625}, {"type": "node", "id": 1969426095, "lat": -28.2259318, "lon": 152.0392849}, {"type": "node", "id": 2019456592, "lat": -28.2203776, "lon": 152.0319154}, {"type": "node", "id": 2085622601, "lat": -28.2191882, "lon": 152.0395346}, {"type": "node", "id": 2085622603, "lat": -28.2191898, "lon": 152.0395046}, {"type": "node", "id": 2085622605, "lat": -28.2191943, "lon": 152.0395639}, {"type": "node", "id": 2085622606, "lat": -28.2192037, "lon": 152.0394679}, {"type": "node", "id": 2085622609, "lat": -28.2192479, "lon": 152.0394293}, {"type": "node", "id": 2085622611, "lat": -28.219227, "lon": 152.0396103}, {"type": "node", "id": 2085622614, "lat": -28.2192594, "lon": 152.0396261}, {"type": "node", "id": 2085622620, "lat": -28.2192757, "lon": 152.0394235}, {"type": "node", "id": 2085622622, "lat": -28.2192862, "lon": 152.0396279}, {"type": "node", "id": 2085622624, "lat": -28.2193037, "lon": 152.0394277}, {"type": "node", "id": 2085622626, "lat": -28.2193122, "lon": 152.0396207}, {"type": "node", "id": 2085622628, "lat": -28.2193292, "lon": 152.0394414}, {"type": "node", "id": 2085622630, "lat": -28.2193538, "lon": 152.0394701}, {"type": "node", "id": 2085622632, "lat": -28.2193525, "lon": 152.0395839}, {"type": "node", "id": 2085622633, "lat": -28.2193641, "lon": 152.0395569}, {"type": "node", "id": 2085622636, "lat": -28.2193683, "lon": 152.0395272}, {"type": "node", "id": 2088413989, "lat": -28.2204466, "lon": 152.0341291}, {"type": "node", "id": 2088413990, "lat": -28.2205397, "lon": 152.033957}, {"type": "node", "id": 4888703809, "lat": -28.2186102, "lon": 152.0346769, "tags": {"direction": "backward", "highway": "stop"}}, {"type": "node", "id": 6698586459, "lat": -28.2192046, "lon": 152.0391589}, {"type": "node", "id": 6698586460, "lat": -28.2196394, "lon": 152.0410445}, {"type": "node", "id": 6698586461, "lat": -28.2192992, "lon": 152.0397222}, {"type": "node", "id": 6698586464, "lat": -28.2196465, "lon": 152.0408568}, {"type": "node", "id": 6698586466, "lat": -28.2196489, "lon": 152.040948}, {"type": "node", "id": 6698586468, "lat": -28.219207, "lon": 152.0393494}, {"type": "node", "id": 6698586473, "lat": -28.2198356, "lon": 152.0405537}, {"type": "node", "id": 6698586475, "lat": -28.219332, "lon": 152.0397537}, {"type": "node", "id": 6698586478, "lat": -28.219337, "lon": 152.0399099}, {"type": "node", "id": 6698586482, "lat": -28.2192665, "lon": 152.0392584, "tags": {"crossing": "unmarked", "crossing:markings": "no", "highway": "crossing"}}, {"type": "node", "id": 6698586483, "lat": -28.2196985, "lon": 152.0406636}, {"type": "node", "id": 6698659985, "lat": -28.2191952, "lon": 152.0389578}, {"type": "node", "id": 6698659989, "lat": -28.2196654, "lon": 152.0407414}, {"type": "node", "id": 6698659993, "lat": -28.2195945, "lon": 152.0411277, "tags": {"direction": "forward", "highway": "give_way"}}, {"type": "node", "id": 6698659995, "lat": -28.2193353, "lon": 152.0396051}, {"type": "node", "id": 6698659996, "lat": -28.2196253, "lon": 152.0410955}, {"type": "node", "id": 6698659997, "lat": -28.2197647, "lon": 152.0405939}, {"type": "node", "id": 7118316075, "lat": -28.2196436, "lon": 152.0344325}, {"type": "node", "id": 7341661309, "lat": -28.2192097, "lon": 152.0343879}, {"type": "node", "id": 7341661332, "lat": -28.2190854, "lon": 152.0344107}, {"type": "node", "id": 7341661364, "lat": -28.2205712, "lon": 152.0332894}, {"type": "node", "id": 10208989719, "lat": -28.2192425, "lon": 152.03962}, {"type": "node", "id": 10208989720, "lat": -28.2193648, "lon": 152.0394974}, {"type": "node", "id": 10208989721, "lat": -28.2193427, "lon": 152.0394544}, {"type": "node", "id": 10208989722, "lat": -28.2192231, "lon": 152.0394446}, {"type": "node", "id": 10208989723, "lat": -28.2191952, "lon": 152.0394855}, {"type": "node", "id": 10208989724, "lat": -28.2192076, "lon": 152.0395898}, {"type": "node", "id": 11254477970, "lat": -28.2186135, "lon": 152.034701, "tags": {"crossing": "unmarked", "crossing:markings": "no", "highway": "crossing"}}, {"type": "node", "id": 11254477976, "lat": -28.2205902, "lon": 152.0340712, "tags": {"crossing": "traffic_signals", "highway": "crossing"}}, {"type": "node", "id": 11254477977, "lat": -28.2206841, "lon": 152.0340527, "tags": {"crossing": "traffic_signals", "highway": "crossing"}}, {"type": "node", "id": 11254477979, "lat": -28.2205485, "lon": 152.0341714, "tags": {"crossing": "traffic_signals", "highway": "crossing"}}, {"type": "node", "id": 11254477982, "lat": -28.2205591, "lon": 152.0342594, "tags": {"crossing": "traffic_signals", "highway": "crossing"}}, {"type": "node", "id": 11254477986, "lat": -28.2205074, "lon": 152.0340573, "tags": {"crossing": "uncontrolled", "highway": "crossing"}}, {"type": "node", "id": 11273374126, "lat": -28.2181362, "lon": 152.0347006}, {"type": "node", "id": 11273374130, "lat": -28.218659, "lon": 152.035021}, {"type": "node", "id": 11273374134, "lat": -28.2186934, "lon": 152.0352534}, {"type": "node", "id": 11280524897, "lat": -28.2229402, "lon": 152.0399499}, {"type": "node", "id": 11282335771, "lat": -28.2184539, "lon": 152.0345264, "tags": {"crossing": "unmarked", "crossing:markings": "no", "highway": "crossing"}}, {"type": "node", "id": 11282335772, "lat": -28.2184787, "lon": 152.0346417, "tags": {"crossing": "unmarked", "crossing:markings": "no", "highway": "crossing"}}, {"type": "node", "id": 11282335775, "lat": -28.2186997, "lon": 152.0344823, "tags": {"crossing": "unmarked", "crossing:markings": "no", "highway": "crossing"}}, {"type": "node", "id": 11282335776, "lat": -28.2187195, "lon": 152.0345973, "tags": {"crossing": "unmarked", "crossing:markings": "no", "highway": "crossing"}}, {"type": "node", "id": 11301494836, "lat": -28.2171116, "lon": 152.0347716}, {"type": "node", "id": 11301494837, "lat": -28.2171549, "lon": 152.0348813}, {"type": "node", "id": 11301494838, "lat": -28.2180467, "lon": 152.0346017}, {"type": "node", "id": 11393140375, "lat": -28.2202038, "lon": 152.0404754}, {"type": "node", "id": 11393140378, "lat": -28.2204259, "lon": 152.0404348}, {"type": "node", "id": 11393140381, "lat": -28.2207782, "lon": 152.0403703}, {"type": "node", "id": 11393140384, "lat": -28.2212883, "lon": 152.0402716}, {"type": "node", "id": 11393140388, "lat": -28.2216178, "lon": 152.0402068}, {"type": "node", "id": 11393140393, "lat": -28.221376, "lon": 152.0402544}, {"type": "node", "id": 11393140397, "lat": -28.2218626, "lon": 152.0401586}, {"type": "node", "id": 11393140404, "lat": -28.2217154, "lon": 152.0401876}, {"type": "node", "id": 11393140406, "lat": -28.2219664, "lon": 152.0401382}, {"type": "node", "id": 11393140409, "lat": -28.2222072, "lon": 152.0400913}, {"type": "node", "id": 11393140418, "lat": -28.2224009, "lon": 152.040054}, {"type": "node", "id": 11393140436, "lat": -28.2201328, "lon": 152.0404884}, {"type": "node", "id": 11393140438, "lat": -28.2203556, "lon": 152.0404476}, {"type": "node", "id": 11393140440, "lat": -28.2203937, "lon": 152.0404407}, {"type": "node", "id": 11393140442, "lat": -28.2205305, "lon": 152.0404156}, {"type": "node", "id": 11393140475, "lat": -28.2203722, "lon": 152.0404446}, {"type": "node", "id": 11393140583, "lat": -28.2195152, "lon": 152.0411006}, {"type": "node", "id": 11393140588, "lat": -28.2192057, "lon": 152.0392685, "tags": {"crossing": "unmarked", "crossing:markings": "no", "highway": "crossing"}}, {"type": "way", "id": 4020714, "nodes": [21322160, 11254477977, 7341661364], "tags": {"alt_name": "Cunningham Highway", "foot": "yes", "highway": "trunk", "lanes": "3", "maxspeed": "60", "name": "Wood Street", "network": "AU:QLD", "oneway": "yes", "ref": "A15", "surface": "asphalt", "turn:lanes": "left||"}}, {"type": "way", "id": 28521225, "nodes": [11273374130, 11273374134, 1929856719, 1867550455, 6698659985], "tags": {"alt_name": "Warwick - Killarney Road", "highway": "primary", "lanes": "2", "maxspeed": "60", "name": "Percy Street", "surface": "asphalt"}}, {"type": "way", "id": 113696779, "nodes": [313290472, 11254477976, 1288967786], "tags": {"alt_name": "Cunningham Highway", "highway": "trunk", "lanes": "1", "maxspeed": "60", "name": "Wood Street", "network": "AU:QLD", "oneway": "yes", "ref": "A15", "surface": "asphalt", "turn:lanes": "through;right"}}, {"type": "way", "id": 113696780, "nodes": [313290472, 2088413990, 1288967837, 11254477986, 2088413989, 1288967850], "tags": {"highway": "trunk", "lanes": "1", "maxspeed": "60", "name": "Cunningham Highway", "network": "AU:QLD", "oneway": "yes", "ref": "A15", "surface": "asphalt"}}, {"type": "way", "id": 186256364, "nodes": [1969425929, 1969426095], "tags": {"alt_name": "Warwick - Killarney Road", "highway": "primary", "maxspeed": "60", "maxspeed:source": "default residential speed limit in Australia", "name": "McEvoy Street", "source": "survey", "surface": "paved"}}, {"type": "way", "id": 186256378, "nodes": [1760773086, 11280524897, 11393140418, 11393140409, 1760773266, 11393140406, 11393140397, 11393140404, 11393140388, 11393140393, 11393140384, 1760773039], "tags": {"alt_name": "Warwick - Killarney Road", "highway": "primary", "maxspeed": "50", "maxspeed:source": "default residential speed limit in Australia", "name": "McEvoy Street", "source": "survey", "surface": "paved"}}, {"type": "way", "id": 186256381, "nodes": [1969426095, 1969425989], "tags": {"alt_name": "Warwick - Killarney Road", "bridge": "yes", "highway": "primary", "layer": "1", "maxspeed": "60", "maxspeed:source": "default residential speed limit in Australia", "name": "McEvoy Street", "source": "survey", "surface": "paved"}}, {"type": "way", "id": 198433084, "nodes": [6698586478, 6698586475, 6698659995], "tags": {"alt_name": "Warwick - Killarney Road", "highway": "primary", "lanes": "1", "maxspeed": "60", "name": "Percy Street", "oneway": "yes", "surface": "paved"}}, {"type": "way", "id": 198433094, "nodes": [2085622614, 2085622622, 2085622626, 6698659995, 2085622632, 2085622633, 2085622636, 10208989720, 2085622630, 10208989721, 2085622628, 2085622624, 2085622620, 2085622609, 10208989722, 2085622606, 10208989723, 2085622603, 2085622601, 2085622605, 10208989724, 2085622611], "tags": {"direction": "clockwise", "highway": "primary", "junction": "roundabout", "surface": "paved"}}, {"type": "way", "id": 301772451, "nodes": [21322160, 1288967786], "tags": {"alt_name": "Cunningham Highway", "highway": "trunk", "lanes": "2", "maxspeed": "60", "name": "Albion Street", "network": "AU:QLD", "oneway": "yes", "ref": "A15", "surface": "asphalt"}}, {"type": "way", "id": 574825697, "nodes": [1288967834, 1288967806], "tags": {"alt_name": "Cunningham Highway", "foot": "yes", "highway": "trunk", "lanes": "2", "maxspeed": "60", "name": "Albion Street", "network": "AU:QLD", "oneway": "yes", "ref": "A15", "surface": "asphalt"}}, {"type": "way", "id": 574825698, "nodes": [1288967806, 21322160], "tags": {"alt_name": "Cunningham Highway", "foot": "yes", "highway": "trunk", "lanes": "2", "maxspeed": "60", "name": "Wood Street", "network": "AU:QLD", "oneway": "yes", "ref": "A15", "surface": "asphalt"}}, {"type": "way", "id": 574825700, "nodes": [1288967786, 1288967834], "tags": {"alt_name": "Cunningham Highway", "highway": "trunk", "lanes": "1", "maxspeed": "60", "name": "Wood Street", "network": "AU:QLD", "oneway": "yes", "ref": "A15", "surface": "asphalt"}}, {"type": "way", "id": 574825702, "nodes": [1288967786, 11254477979, 1288967850], "tags": {"alt_name": "Cunningham Highway", "highway": "trunk", "lanes": "1", "maxspeed": "60", "name": "Albion Street", "network": "AU:QLD", "oneway": "yes", "ref": "A15", "surface": "asphalt"}}, {"type": "way", "id": 712459357, "nodes": [6698586478, 11393140583, 826031148], "tags": {"alt_name": "Warwick - Killarney Road", "highway": "primary", "maxspeed": "60", "name": "Percy Street", "surface": "paved"}}, {"type": "way", "id": 712459359, "nodes": [2085622614, 6698586461, 6698586478], "tags": {"alt_name": "Warwick - Killarney Road", "highway": "primary", "lanes": "1", "maxspeed": "60", "name": "Percy Street", "oneway": "yes", "surface": "paved"}}, {"type": "way", "id": 712459360, "nodes": [6698659985, 6698586459, 11393140588, 6698586468, 2085622606], "tags": {"alt_name": "Warwick - Killarney Road", "highway": "primary", "lanes": "1", "maxspeed": "60", "name": "Percy Street", "oneway": "yes", "surface": "asphalt"}}, {"type": "way", "id": 712459364, "nodes": [2085622628, 6698586482, 6698659985], "tags": {"alt_name": "Warwick - Killarney Road", "highway": "primary", "lanes": "1", "maxspeed": "60", "name": "Percy Street", "oneway": "yes", "surface": "asphalt"}}, {"type": "way", "id": 761873273, "nodes": [1929856739, 313290472], "tags": {"alt_name": "Cunningham Highway", "destination:lanes": "Toowoomba;Brisbane|", "foot": "yes", "highway": "trunk", "lanes": "2", "maxspeed": "60", "name": "Wood Street", "network": "AU:QLD", "oneway": "yes", "ref": "A15", "surface": "asphalt", "turn:lanes": "left|through;right"}}, {"type": "way", "id": 761873274, "nodes": [7118316075, 11254477982, 1288967834], "tags": {"alt_name": "Cunningham Highway", "destination:lanes": "Showgrounds|Stanthorpe;Sydney;Inglewood;Goondiwindi", "foot": "yes", "highway": "trunk", "lanes": "2", "maxspeed": "60", "name": "Albion Street", "network": "AU:QLD", "oneway": "yes", "ref": "A15", "surface": "asphalt", "turn:lanes": "left;through;right|right"}}, {"type": "way", "id": 795278746, "nodes": [1288967850, 7341661309], "tags": {"alt_name": "Cunningham Highway", "foot": "yes", "highway": "trunk", "lanes": "2", "maxspeed": "60", "name": "Albion Street", "network": "AU:QLD", "oneway": "yes", "ref": "A15", "surface": "asphalt"}}, {"type": "way", "id": 795278750, "nodes": [7341661364, 1929856685, 2019456592], "tags": {"alt_name": "Cunningham Highway", "foot": "yes", "highway": "trunk", "lanes": "2", "maxspeed": "60", "name": "Wood Street", "network": "AU:QLD", "oneway": "yes", "ref": "A15", "surface": "asphalt"}}, {"type": "way", "id": 1116199220, "nodes": [7341661332, 11282335775, 313290005], "tags": {"alt_name": "Cunningham Highway", "foot": "yes", "highway": "trunk", "lanes": "3", "maxspeed": "60", "name": "Albion Street", "network": "AU:QLD", "oneway": "yes", "ref": "A15", "surface": "asphalt", "turn:lanes": "||right"}}, {"type": "way", "id": 1116199222, "nodes": [2085622611, 10208989719, 2085622614], "tags": {"direction": "clockwise", "highway": "primary", "junction": "roundabout", "surface": "paved"}}, {"type": "way", "id": 1116199229, "nodes": [1969425989, 1969426079, 1969426033, 1969425888, 1760773086], "tags": {"alt_name": "Warwick - Killarney Road", "highway": "primary", "maxspeed": "60", "maxspeed:source": "default residential speed limit in Australia", "name": "McEvoy Street", "source": "survey", "surface": "paved"}}, {"type": "way", "id": 1116199230, "nodes": [1760773039, 11393140381, 11393140442, 11393140378, 11393140440, 11393140475, 11393140438, 11393140375, 11393140436, 826031153, 6698586473, 6698659997, 6698586483, 6698659989, 6698586464, 6698586466, 6698586460, 6698659996, 6698659993, 826031148], "tags": {"alt_name": "Warwick - Killarney Road", "highway": "primary", "maxspeed": "50", "maxspeed:source": "default residential speed limit in Australia", "name": "McEvoy Street", "source": "survey", "surface": "paved"}}, {"type": "way", "id": 1219675126, "nodes": [503976922, 11301494836], "tags": {"alt_name": "Cunningham Highway", "foot": "yes", "highway": "trunk", "lanes": "2", "maxspeed": "60", "name": "Albion Street", "network": "AU:QLD", "oneway": "yes", "ref": "A15", "surface": "asphalt"}}, {"type": "way", "id": 1219675127, "nodes": [1288967842, 11273374126], "tags": {"alt_name": "Cunningham Highway", "foot": "yes", "highway": "trunk", "lanes": "2", "maxspeed": "60", "name": "Albion Street", "network": "AU:QLD", "oneway": "yes", "ref": "A15", "surface": "asphalt"}}, {"type": "way", "id": 1219675128, "nodes": [11301494838, 503976922], "tags": {"alt_name": "Cunningham Highway", "foot": "yes", "highway": "trunk", "lanes": "3", "maxspeed": "60", "name": "Albion Street", "network": "AU:QLD", "oneway": "yes", "ref": "A15", "surface": "asphalt", "turn:lanes": "||right"}}, {"type": "way", "id": 1219675129, "nodes": [11301494837, 1288967842], "tags": {"alt_name": "Cunningham Highway", "foot": "yes", "highway": "trunk", "lanes": "3", "maxspeed": "60", "name": "Albion Street", "network": "AU:QLD", "oneway": "yes", "ref": "A15", "surface": "asphalt", "turn:lanes": "||right"}}, {"type": "way", "id": 1219675130, "nodes": [313290005, 11282335771, 11301494838], "tags": {"alt_name": "Cunningham Highway", "foot": "yes", "highway": "trunk", "lanes": "2", "maxspeed": "60", "name": "Albion Street", "network": "AU:QLD", "oneway": "yes", "ref": "A15", "surface": "asphalt"}}, {"type": "way", "id": 1219675131, "nodes": [1288967835, 11282335776, 7118316075], "tags": {"alt_name": "Cunningham Highway", "foot": "yes", "highway": "trunk", "lanes": "2", "maxspeed": "60", "name": "Albion Street", "network": "AU:QLD", "oneway": "yes", "ref": "A15", "surface": "asphalt"}}, {"type": "way", "id": 1219675132, "nodes": [11273374126, 11282335772, 1288967835], "tags": {"alt_name": "Cunningham Highway", "foot": "yes", "highway": "trunk", "lanes": "3", "maxspeed": "60", "name": "Albion Street", "network": "AU:QLD", "oneway": "yes", "ref": "A15", "surface": "asphalt", "turn:lanes": "||right"}}, {"type": "way", "id": 1219675133, "nodes": [7341661309, 7341661332], "tags": {"alt_name": "Cunningham Highway", "foot": "yes", "highway": "trunk", "lanes": "2", "maxspeed": "60", "name": "Albion Street", "network": "AU:QLD", "oneway": "yes", "ref": "A15", "surface": "asphalt"}}, {"type": "way", "id": 1229052386, "nodes": [1288967835, 4888703809, 11254477970, 11273374130], "tags": {"alt_name": "Warwick - Killarney Road", "highway": "primary", "lanes": "3", "lanes:backward": "2", "lanes:forward": "1", "maxspeed": "60", "name": "Percy Street", "surface": "asphalt", "turn:lanes:backward": "|right"}}, {"type": "way", "id": 1229052387, "nodes": [313290005, 1288967835], "tags": {"alt_name": "Warwick - Killarney Road", "highway": "primary", "maxspeed": "60", "name": "Percy Street", "surface": "asphalt"}}]}