{"version": 0.6, "generator": "Overpass API 0.7.61.5 4133829e", "osm3s": {"timestamp_osm_base": "2023-12-06T11:44:32Z", "copyright": "The data included in this document is from www.openstreetmap.org. The data is made available under ODbL."}, "elements": [{"type": "node", "id": 28947068, "lat": -33.7331703, "lon": 151.0029994}, {"type": "node", "id": 60288877, "lat": -33.7312477, "lon": 151.0098753}, {"type": "node", "id": 60288878, "lat": -33.7312204, "lon": 151.0100244}, {"type": "node", "id": 60288879, "lat": -33.7311195, "lon": 151.0111302}, {"type": "node", "id": 60288880, "lat": -33.7311458, "lon": 151.0118416}, {"type": "node", "id": 60288881, "lat": -33.7312632, "lon": 151.0121374}, {"type": "node", "id": 60288893, "lat": -33.7312131, "lon": 151.0117746}, {"type": "node", "id": 60288894, "lat": -33.7312257, "lon": 151.0110096}, {"type": "node", "id": 60288895, "lat": -33.7313247, "lon": 151.0100475}, {"type": "node", "id": 60288896, "lat": -33.7313485, "lon": 151.0098994}, {"type": "node", "id": 151363074, "lat": -33.7330381, "lon": 151.0027493}, {"type": "node", "id": 151363103, "lat": -33.7329967, "lon": 151.0026773}, {"type": "node", "id": 151363636, "lat": -33.7332862, "lon": 151.0032081}, {"type": "node", "id": 254299642, "lat": -33.7314582, "lon": 151.0093159}, {"type": "node", "id": 294666575, "lat": -33.7314424, "lon": 151.0125842, "tags": {"crossing": "traffic_signals", "highway": "traffic_signals"}}, {"type": "node", "id": 332151187, "lat": -33.7323671, "lon": 151.0015519}, {"type": "node", "id": 332151188, "lat": -33.7321818, "lon": 151.0012216}, {"type": "node", "id": 332151630, "lat": -33.7324553, "lon": 151.0014545}, {"type": "node", "id": 332151631, "lat": -33.73292, "lon": 151.0022861}, {"type": "node", "id": 332151632, "lat": -33.7327408, "lon": 151.0022197}, {"type": "node", "id": 332151633, "lat": -33.7334238, "lon": 151.0032131}, {"type": "node", "id": 332151634, "lat": -33.7331322, "lon": 151.0026737}, {"type": "node", "id": 332151715, "lat": -33.73362, "lon": 151.0035945}, {"type": "node", "id": 332314906, "lat": -33.7340747, "lon": 151.0037462}, {"type": "node", "id": 332315986, "lat": -33.7313769, "lon": 151.0092683}, {"type": "node", "id": 549764797, "lat": -33.731203, "lon": 151.010216}, {"type": "node", "id": 600387190, "lat": -33.7352928, "lon": 151.0042544}, {"type": "node", "id": 600387196, "lat": -33.7344082, "lon": 151.003473}, {"type": "node", "id": 600387206, "lat": -33.7337695, "lon": 151.0040015, "tags": {"ref": "0865", "start_date": "1974-12-12"}}, {"type": "node", "id": 600387207, "lat": -33.7337333, "lon": 151.0038123}, {"type": "node", "id": 600387212, "lat": -33.7351607, "lon": 151.0046265}, {"type": "node", "id": 600387215, "lat": -33.7352572, "lon": 151.0043628}, {"type": "node", "id": 600387216, "lat": -33.7351493, "lon": 151.0045272}, {"type": "node", "id": 600387217, "lat": -33.7350103, "lon": 151.0046356}, {"type": "node", "id": 600387220, "lat": -33.7347385, "lon": 151.0049896}, {"type": "node", "id": 600387224, "lat": -33.7346711, "lon": 151.0049138}, {"type": "node", "id": 600387227, "lat": -33.7343772, "lon": 151.0053208, "tags": {"crossing": "traffic_signals", "highway": "traffic_signals", "tactile_paving": "no", "traffic_signals:direction": "forward"}}, {"type": "node", "id": 600387229, "lat": -33.7343098, "lon": 151.0052183, "tags": {"check_date:crossing": "2022-10-07", "crossing": "traffic_signals", "highway": "crossing", "tactile_paving": "no"}}, {"type": "node", "id": 600387231, "lat": -33.7343798, "lon": 151.0051547}, {"type": "node", "id": 600387232, "lat": -33.7344429, "lon": 151.0052599}, {"type": "node", "id": 600387236, "lat": -33.7340684, "lon": 151.0056202}, {"type": "node", "id": 600387237, "lat": -33.7340631, "lon": 151.0054503}, {"type": "node", "id": 600387238, "lat": -33.7338785, "lon": 151.0056729}, {"type": "node", "id": 600387248, "lat": -33.7337378, "lon": 151.0060339}, {"type": "node", "id": 600387249, "lat": -33.7338821, "lon": 151.005837}, {"type": "node", "id": 600387250, "lat": -33.7337125, "lon": 151.0058845}, {"type": "node", "id": 600387251, "lat": -33.7335397, "lon": 151.00609}, {"type": "node", "id": 600387260, "lat": -33.7328969, "lon": 151.0069811}, {"type": "node", "id": 600387261, "lat": -33.7332329, "lon": 151.0065992}, {"type": "node", "id": 600387262, "lat": -33.732902, "lon": 151.0068021, "tags": {"crossing": "traffic_signals", "highway": "traffic_signals"}}, {"type": "node", "id": 600387263, "lat": -33.7329653, "lon": 151.0069016, "tags": {"crossing": "traffic_signals", "highway": "crossing"}}, {"type": "node", "id": 600387265, "lat": -33.732807, "lon": 151.0070806, "tags": {"crossing": "traffic_signals", "highway": "traffic_signals"}}, {"type": "node", "id": 600387266, "lat": -33.7328349, "lon": 151.0068808}, {"type": "node", "id": 600387270, "lat": -33.7323089, "lon": 151.0076401}, {"type": "node", "id": 600387271, "lat": -33.7316637, "lon": 151.0084981}, {"type": "node", "id": 600387272, "lat": -33.7318364, "lon": 151.0081912}, {"type": "node", "id": 600387273, "lat": -33.731989, "lon": 151.0078205}, {"type": "node", "id": 600387275, "lat": -33.7316113, "lon": 151.0086598}, {"type": "node", "id": 708522944, "lat": -33.7317527, "lon": 151.0081114}, {"type": "node", "id": 708523049, "lat": -33.7315838, "lon": 151.0084025}, {"type": "node", "id": 793835914, "lat": -33.7318532, "lon": 151.0079846}, {"type": "node", "id": 1042079836, "lat": -33.7319822, "lon": 151.0079966}, {"type": "node", "id": 1836877065, "lat": -33.7311067, "lon": 151.0115034}, {"type": "node", "id": 1836877067, "lat": -33.7311576, "lon": 151.0107477}, {"type": "node", "id": 1836877069, "lat": -33.7313118, "lon": 151.0101534, "tags": {"crossing": "traffic_signals", "highway": "traffic_signals", "traffic_signals:direction": "forward"}}, {"type": "node", "id": 1836877073, "lat": -33.731659, "lon": 151.0082583}, {"type": "node", "id": 1836978378, "lat": -33.7312441, "lon": 151.0120363}, {"type": "node", "id": 2278288180, "lat": -33.7329472, "lon": 151.0025956, "tags": {"highway": "traffic_signals", "traffic_signals:direction": "forward"}}, {"type": "node", "id": 2278288182, "lat": -33.73321, "lon": 151.0028157, "tags": {"highway": "traffic_signals", "traffic_signals:direction": "forward"}}, {"type": "node", "id": 2432274088, "lat": -33.7320597, "lon": 151.0079069}, {"type": "node", "id": 2459183891, "lat": -33.7314793, "lon": 151.0087554}, {"type": "node", "id": 2459183892, "lat": -33.7315539, "lon": 151.0088978}, {"type": "node", "id": 2610720020, "lat": -33.733091, "lon": 151.0025951}, {"type": "node", "id": 2869700738, "lat": -33.7342503, "lon": 151.0054339}, {"type": "node", "id": 3343155073, "lat": -33.7311157, "lon": 151.0116693}, {"type": "node", "id": 5276474516, "lat": -33.7334116, "lon": 151.0034161}, {"type": "node", "id": 5278933437, "lat": -33.7342195, "lon": 151.0054641}, {"type": "node", "id": 5278933453, "lat": -33.7341926, "lon": 151.0054923}, {"type": "node", "id": 5415425491, "lat": -33.7352123, "lon": 151.0044587}, {"type": "node", "id": 6223845194, "lat": -33.7317381, "lon": 151.0083442}, {"type": "node", "id": 6223971314, "lat": -33.7315262, "lon": 151.0085738}, {"type": "node", "id": 6389856498, "lat": -33.7338061, "lon": 151.0059435}, {"type": "node", "id": 6389856499, "lat": -33.7336689, "lon": 151.0061208}, {"type": "node", "id": 6389856500, "lat": -33.7339648, "lon": 151.0057347}, {"type": "node", "id": 6389955754, "lat": -33.7312092, "lon": 151.0112966}, {"type": "node", "id": 6389955755, "lat": -33.7312034, "lon": 151.0115279, "tags": {"traffic_sign": "AU:W3-3,AU:W8-27", "traffic_sign:direction": "forward"}}, {"type": "node", "id": 6503817292, "lat": -33.7314372, "lon": 151.0089665}, {"type": "node", "id": 6745653628, "lat": -33.7318223, "lon": 151.0005656}, {"type": "node", "id": 7099505380, "lat": -33.7312472, "lon": 151.0106585, "tags": {"maxspeed": "60", "traffic_sign": "maxspeed", "traffic_sign:direction": "forward"}}, {"type": "node", "id": 7099505381, "lat": -33.7311696, "lon": 151.0106305, "tags": {"traffic_sign": "AU:R4-230", "traffic_sign:direction": "forward"}}, {"type": "node", "id": 7099505383, "lat": -33.7315408, "lon": 151.00896, "tags": {"traffic_sign": "AU:R2-6,AU:R7-2", "traffic_sign:direction": "forward"}}, {"type": "node", "id": 7099576560, "lat": -33.7323541, "lon": 151.001274, "tags": {"traffic_sign": "variable_message", "traffic_sign:direction": "forward"}}, {"type": "node", "id": 7099584985, "lat": -33.7322085, "lon": 151.0077475, "tags": {"maxspeed": "60", "traffic_sign": "maxspeed", "traffic_sign:direction": "forward"}}, {"type": "node", "id": 7099584987, "lat": -33.7344953, "lon": 151.0050592, "tags": {"highway": "traffic_signals", "traffic_signals": "signal", "traffic_signals:direction": "forward"}}, {"type": "node", "id": 7099584988, "lat": -33.7346898, "lon": 151.0050342, "tags": {"traffic_sign": "AU:W1-3,AU:W8-2[45]", "traffic_sign:direction": "forward"}}, {"type": "node", "id": 7099584989, "lat": -33.7350056, "lon": 151.0047599, "tags": {"traffic_sign": "AU:W2-9", "traffic_sign:direction": "forward"}}, {"type": "node", "id": 7354466117, "lat": -33.7312257, "lon": 151.0118977}, {"type": "node", "id": 9036820037, "lat": -33.7336459, "lon": 151.006146}, {"type": "node", "id": 9036820040, "lat": -33.7331229, "lon": 151.0067228}, {"type": "node", "id": 9036820041, "lat": -33.7333779, "lon": 151.0064401}, {"type": "node", "id": 9710403691, "lat": -33.7319466, "lon": 151.0078715, "tags": {"crossing": "traffic_signals", "highway": "crossing"}}, {"type": "node", "id": 9710403701, "lat": -33.7320002, "lon": 151.0079764, "tags": {"crossing": "traffic_signals", "highway": "traffic_signals", "traffic_signals:direction": "forward"}}, {"type": "node", "id": 9942503871, "lat": -33.7314161, "lon": 151.0095296}, {"type": "node", "id": 9942503872, "lat": -33.7314316, "lon": 151.0092953}, {"type": "node", "id": 9942503873, "lat": -33.7314056, "lon": 151.0092812}, {"type": "node", "id": 9942550362, "lat": -33.7338137, "lon": 151.0039664}, {"type": "node", "id": 9942550363, "lat": -33.7335559, "lon": 151.0036394}, {"type": "node", "id": 9942550364, "lat": -33.7336081, "lon": 151.0037254}, {"type": "node", "id": 9942550370, "lat": -33.7330401, "lon": 151.0024987}, {"type": "node", "id": 9942550371, "lat": -33.7328092, "lon": 151.0020883}, {"type": "node", "id": 9942550372, "lat": -33.7320309, "lon": 151.0006851}, {"type": "node", "id": 10744968134, "lat": -33.7320956, "lon": 151.0008031, "tags": {"crossing": "traffic_signals", "highway": "crossing"}}, {"type": "node", "id": 10744997614, "lat": -33.7319958, "lon": 151.0008822, "tags": {"crossing": "traffic_signals", "highway": "crossing"}}, {"type": "node", "id": 10744997615, "lat": -33.7321142, "lon": 151.0008369, "tags": {"highway": "traffic_signals", "traffic_signals:direction": "forward"}}, {"type": "node", "id": 10797270609, "lat": -33.7314912, "lon": 151.0127102}, {"type": "node", "id": 10797270611, "lat": -33.7312104, "lon": 151.0101341, "tags": {"crossing": "traffic_signals", "highway": "crossing"}}, {"type": "node", "id": 10797270636, "lat": -33.7312749, "lon": 151.0097276, "tags": {"highway": "traffic_signals", "traffic_signals": "signal", "traffic_signals:direction": "forward"}}, {"type": "node", "id": 10797270699, "lat": -33.732098, "lon": 151.0077016, "tags": {"highway": "traffic_signals", "traffic_signals": "signal", "traffic_signals:direction": "forward"}}, {"type": "node", "id": 11388746051, "lat": -33.7338999, "lon": 151.0038937, "tags": {"highway": "traffic_signals", "traffic_signals": "signal", "traffic_signals:direction": "forward"}}, {"type": "node", "id": 11388746066, "lat": -33.7337153, "lon": 151.0039087, "tags": {"crossing": "traffic_signals", "highway": "crossing"}}, {"type": "node", "id": 11388746067, "lat": -33.7337633, "lon": 151.0038698, "tags": {"crossing": "traffic_signals", "highway": "crossing"}}, {"type": "node", "id": 11388872569, "lat": -33.7337014, "lon": 151.0038849, "tags": {"highway": "traffic_signals", "traffic_signals": "signal", "traffic_signals:direction": "forward"}}, {"type": "way", "id": 8063197, "nodes": [6223971314, 2459183891, 6503817292], "tags": {"cycleway:left": "no", "highway": "primary", "lanes": "3", "maxspeed": "60", "name": "Old Northern Road", "oneway": "yes", "shoulder": "no", "source": "survey", "surface": "asphalt", "turn:lanes": "none|none|right"}}, {"type": "way", "id": 8063211, "nodes": [60288881, 294666575, 10797270609], "tags": {"foot": "yes", "highway": "primary", "lanes": "4", "lit": "yes", "maxspeed": "60", "maxspeed:conditional": "40 @ (Mo-Fr 08:00-09:30,14:30-16:00; PH off; SH off)", "name": "Old Northern Road", "source": "survey", "surface": "asphalt"}}, {"type": "way", "id": 8113029, "nodes": [600387260, 600387266], "tags": {"cycleway:both": "no", "highway": "primary", "maxspeed": "50", "name": "Crane Road", "surface": "asphalt"}}, {"type": "way", "id": 15276210, "nodes": [2610720020, 151363103], "tags": {"highway": "primary", "maxspeed": "60", "oneway": "yes", "surface": "asphalt"}}, {"type": "way", "id": 30141733, "nodes": [6745653628, 10744997614, 332151188, 332151187, 332151632], "tags": {"highway": "primary", "maxspeed": "60", "name": "Showground Road", "oneway": "yes", "surface": "asphalt"}}, {"type": "way", "id": 30141734, "nodes": [151363074, 332151634], "tags": {"highway": "primary", "oneway": "yes", "surface": "asphalt"}}, {"type": "way", "id": 30156517, "nodes": [2432274088, 600387273], "tags": {"access": "no", "bus": "designated", "foot": "yes", "highway": "primary", "maxspeed": "40", "name": "Old Northern Road", "oneway": "no", "sidewalk": "left", "surface": "asphalt"}}, {"type": "way", "id": 47074792, "nodes": [9942550362, 11388746067, 600387207, 332151715], "tags": {"cycleway:left": "no", "highway": "primary", "lanes": "2", "maxspeed": "60", "name": "Showground Road", "oneway": "yes", "surface": "asphalt"}}, {"type": "way", "id": 47074793, "nodes": [600387266, 10797270699, 600387273], "tags": {"highway": "primary", "lanes": "2", "maxspeed": "60", "name": "Terminus Street", "oneway": "yes", "shoulder": "no", "surface": "asphalt"}}, {"type": "way", "id": 47074795, "nodes": [600387190, 600387215, 5415425491, 600387216, 600387217, 600387224, 7099584987, 600387231, 600387229, 600387237, 600387238, 600387250, 600387251, 600387262, 600387266], "tags": {"cycleway:left": "no", "highway": "primary", "lanes": "2", "maxspeed": "60", "name": "Terminus Street", "oneway": "yes", "shoulder": "no", "surface": "asphalt"}}, {"type": "way", "id": 56651869, "nodes": [600387272, 1042079836, 9710403701, 2432274088], "tags": {"highway": "primary", "lanes": "2", "maxspeed": "60", "name": "Terminus Street", "oneway": "yes", "surface": "asphalt"}}, {"type": "way", "id": 56651870, "nodes": [600387196, 332314906], "tags": {"cycleway:both": "no", "highway": "primary", "maxspeed": "60", "name": "Old Northern Road", "source": "yahoo", "surface": "asphalt"}}, {"type": "way", "id": 80220337, "nodes": [2610720020, 9942550370, 332151631, 9942550371, 332151630, 7099576560, 10744997615, 10744968134, 9942550372], "tags": {"highway": "primary", "maxspeed": "60", "name": "Showground Road", "oneway": "yes", "surface": "asphalt"}}, {"type": "way", "id": 80220338, "nodes": [151363074, 28947068, 151363636, 5276474516, 9942550363, 9942550364, 11388872569, 11388746066, 600387206], "tags": {"highway": "primary", "lanes": "2", "maxspeed": "60", "name": "Showground Road", "oneway": "yes", "surface": "asphalt"}}, {"type": "way", "id": 235142116, "nodes": [600387260, 600387263, 9036820040, 600387261, 9036820041, 9036820037, 6389856499, 600387248, 6389856498, 600387249, 6389856500, 600387236, 5278933453, 5278933437, 2869700738, 600387227, 600387232, 7099584988, 600387220, 7099584989, 600387212], "tags": {"cycleway:left": "no", "highway": "primary", "lanes": "2", "maxspeed": "60", "name": "Terminus Street", "oneway": "yes", "shoulder": "no", "surface": "asphalt"}}, {"type": "way", "id": 235142118, "nodes": [2432274088, 7099584985, 600387270, 600387265, 600387260], "tags": {"highway": "primary", "lanes": "2", "maxspeed": "60", "name": "Terminus Street", "oneway": "yes", "shoulder": "no", "surface": "asphalt"}}, {"type": "way", "id": 235283593, "nodes": [332151632, 2278288180, 151363103], "tags": {"highway": "primary", "maxspeed": "60", "name": "Showground Road", "oneway": "yes", "surface": "asphalt"}}, {"type": "way", "id": 235552644, "nodes": [60288878, 10797270611, 549764797, 7099505381, 1836877067, 60288879, 1836877065, 3343155073, 60288880, 60288881], "tags": {"highway": "primary", "lanes": "2", "lit": "yes", "maxspeed": "60", "maxspeed:conditional": "40 @ (Mo-Fr 08:00-09:30,14:30-16:00; PH off; SH off)", "name": "Old Northern Road", "oneway": "yes", "source": "survey", "surface": "asphalt"}}, {"type": "way", "id": 235552645, "nodes": [60288878, 60288895], "tags": {"cycleway:left": "no", "highway": "primary", "lanes": "2", "maxspeed": "60", "name": "McMullen Avenue", "oneway": "yes", "shoulder": "no", "surface": "asphalt"}}, {"type": "way", "id": 570559044, "nodes": [332315986, 9942503873, 9942503872, 254299642], "tags": {"highway": "primary", "sidewalk": "no", "surface": "asphalt"}}, {"type": "way", "id": 575710921, "nodes": [60288877, 60288878], "tags": {"highway": "primary", "lanes": "2", "maxspeed": "60", "name": "Old Northern Road", "oneway": "yes", "shoulder": "no", "source": "survey", "surface": "asphalt"}}, {"type": "way", "id": 575711385, "nodes": [60288896, 60288877], "tags": {"cycleway:left": "no", "highway": "primary", "lanes": "2", "maxspeed": "60", "name": "McMullen Avenue", "oneway": "yes", "shoulder": "no", "surface": "asphalt"}}, {"type": "way", "id": 575712770, "nodes": [332151634, 2610720020], "tags": {"highway": "primary", "maxspeed": "60", "name": "Showground Road", "oneway": "yes", "surface": "asphalt"}}, {"type": "way", "id": 652913604, "nodes": [332315986, 10797270636, 60288877], "tags": {"cycleway:left": "no", "highway": "primary", "lanes": "2", "maxspeed": "60", "name": "Old Northern Road", "oneway": "yes", "shoulder": "no", "source": "survey", "surface": "asphalt"}}, {"type": "way", "id": 692753245, "nodes": [6503817292, 332315986], "tags": {"cycleway:left": "no", "highway": "primary", "lanes": "4", "maxspeed": "60", "name": "Old Northern Road", "oneway": "yes", "source": "survey", "surface": "asphalt", "turn:lanes": "left|none|none|right"}}, {"type": "way", "id": 692753246, "nodes": [708523049, 6223971314], "tags": {"cycleway:left": "no", "highway": "primary", "lanes": "2", "maxspeed": "60", "name": "Old Northern Road", "oneway": "yes", "shoulder": "no", "source": "survey", "surface": "asphalt"}}, {"type": "way", "id": 732444945, "nodes": [332314906, 11388746051, 9942550362, 600387206], "tags": {"cycleway:both": "no", "highway": "primary", "maxspeed": "60", "name": "Old Northern Road", "source": "yahoo", "surface": "asphalt"}}, {"type": "way", "id": 757393688, "nodes": [151363103, 151363074], "tags": {"highway": "primary", "lanes": "2", "maxspeed": "60", "name": "Showground Road", "oneway": "yes", "surface": "asphalt"}}, {"type": "way", "id": 759995604, "nodes": [60288881, 1836978378, 7354466117, 60288893, 6389955755, 6389955754, 60288894, 7099505380, 1836877069, 60288895], "tags": {"cycleway:left": "no", "highway": "primary", "lanes": "4", "lit": "yes", "maxspeed": "60", "maxspeed:advisory": "45", "maxspeed:conditional": "40 @ (Mo-Fr 08:00-09:30,14:30-16:00; PH off; SH off)", "name": "Old Northern Road", "oneway": "yes", "source": "yahoo", "surface": "asphalt", "turn:lanes": "none|none|right|right"}}, {"type": "way", "id": 759995606, "nodes": [600387273, 9710403691, 793835914], "tags": {"highway": "primary", "lanes": "2", "maxspeed": "60", "name": "Terminus Street", "oneway": "yes", "surface": "asphalt"}}, {"type": "way", "id": 759995607, "nodes": [793835914, 708522944, 1836877073, 708523049], "tags": {"cycleway:left": "no", "highway": "primary", "lanes": "2", "maxspeed": "60", "name": "Old Northern Road", "oneway": "yes", "shoulder": "no", "surface": "asphalt"}}, {"type": "way", "id": 763266426, "nodes": [332151715, 332151633, 2278288182, 332151634], "tags": {"highway": "primary", "lanes": "2", "maxspeed": "60", "name": "Showground Road", "oneway": "yes", "surface": "asphalt"}}, {"type": "way", "id": 909523614, "nodes": [60288896, 9942503871, 254299642, 7099505383, 2459183892, 600387275, 600387271, 6223845194, 600387272], "tags": {"cycleway:left": "no", "highway": "primary", "lanes": "2", "maxspeed": "60", "maxspeed:advisory": "45", "maxspeed:conditional": "40 @ (Mo-Fr 08:00-09:30,14:30-16:00; PH off; SH off)", "name": "Old Northern Road", "oneway": "yes", "shoulder": "no", "source": "yahoo", "surface": "asphalt"}}, {"type": "way", "id": 909523615, "nodes": [60288895, 60288896], "tags": {"cycleway:left": "no", "highway": "primary", "lanes": "2", "maxspeed": "60", "maxspeed:advisory": "45", "maxspeed:conditional": "40 @ (Mo-Fr 08:00-09:30,14:30-16:00; PH off; SH off)", "name": "Old Northern Road", "oneway": "yes", "shoulder": "no", "source": "yahoo", "surface": "asphalt"}}]}