{"version": 0.6, "generator": "Overpass API 0.7.61.5 4133829e", "osm3s": {"timestamp_osm_base": "2023-12-06T14:09:00Z", "copyright": "The data included in this document is from www.openstreetmap.org. The data is made available under ODbL."}, "elements": [{"type": "node", "id": 294986527, "lat": -27.7265656, "lon": 153.1930421, "tags": {"highway": "traffic_signals"}}, {"type": "node", "id": 294987583, "lat": -27.7221205, "lon": 153.1975498}, {"type": "node", "id": 294988336, "lat": -27.7214739, "lon": 153.1953104}, {"type": "node", "id": 294988337, "lat": -27.7213937, "lon": 153.1952364}, {"type": "node", "id": 294988338, "lat": -27.7213696, "lon": 153.1951841}, {"type": "node", "id": 294988339, "lat": -27.7213587, "lon": 153.1951264}, {"type": "node", "id": 294988340, "lat": -27.7214122, "lon": 153.1949591}, {"type": "node", "id": 294988341, "lat": -27.7214541, "lon": 153.1949218}, {"type": "node", "id": 294988342, "lat": -27.7215035, "lon": 153.1948989}, {"type": "node", "id": 294988343, "lat": -27.7216201, "lon": 153.1949063}, {"type": "node", "id": 294988344, "lat": -27.7216938, "lon": 153.1949626}, {"type": "node", "id": 294988345, "lat": -27.7217411, "lon": 153.1950683}, {"type": "node", "id": 294988346, "lat": -27.7217441, "lon": 153.1951279}, {"type": "node", "id": 294988347, "lat": -27.7217327, "lon": 153.1951863}, {"type": "node", "id": 294988348, "lat": -27.7217101, "lon": 153.1952352}, {"type": "node", "id": 294988349, "lat": -27.7216113, "lon": 153.1953181}, {"type": "node", "id": 294988350, "lat": -27.7215496, "lon": 153.1953287}, {"type": "node", "id": 294988494, "lat": -27.721298, "lon": 153.1949709}, {"type": "node", "id": 294988495, "lat": -27.7212069, "lon": 153.1948765}, {"type": "node", "id": 294988496, "lat": -27.7210625, "lon": 153.1947907, "tags": {"crossing": "unmarked", "highway": "crossing"}}, {"type": "node", "id": 294988538, "lat": -27.7213321, "lon": 153.1948489}, {"type": "node", "id": 294988686, "lat": -27.7219646, "lon": 153.1969138}, {"type": "node", "id": 294988723, "lat": -27.7220453, "lon": 153.1968883}, {"type": "node", "id": 294988738, "lat": -27.7216816, "lon": 153.1954944}, {"type": "node", "id": 294988748, "lat": -27.7218565, "lon": 153.1956879}, {"type": "node", "id": 295884602, "lat": -27.7174279, "lon": 153.1942977}, {"type": "node", "id": 295884603, "lat": -27.7190609, "lon": 153.1945097}, {"type": "node", "id": 762006786, "lat": -27.7217926, "lon": 153.1957297}, {"type": "node", "id": 762007056, "lat": -27.7218697, "lon": 153.1962298}, {"type": "node", "id": 762007188, "lat": -27.7217642, "lon": 153.1954208}, {"type": "node", "id": 1030160975, "lat": -27.7216158, "lon": 153.1954003}, {"type": "node", "id": 1030160995, "lat": -27.721737, "lon": 153.1953391}, {"type": "node", "id": 1531004267, "lat": -27.7227716, "lon": 153.194656}, {"type": "node", "id": 1531004269, "lat": -27.7231107, "lon": 153.1945343, "tags": {"highway": "traffic_signals", "source": "local_knowledge"}}, {"type": "node", "id": 1531004270, "lat": -27.7231306, "lon": 153.1943931, "tags": {"highway": "traffic_signals", "source": "local_knowledge"}}, {"type": "node", "id": 1531004272, "lat": -27.7232435, "lon": 153.1944752, "tags": {"highway": "traffic_signals", "source": "local_knowledge"}}, {"type": "node", "id": 1532627817, "lat": -27.7223734, "lon": 153.1947861}, {"type": "node", "id": 1532627822, "lat": -27.7240581, "lon": 153.1941423}, {"type": "node", "id": 1532627824, "lat": -27.7241537, "lon": 153.1939923}, {"type": "node", "id": 1557951695, "lat": -27.7218888, "lon": 153.1958349}, {"type": "node", "id": 1557951704, "lat": -27.7230554, "lon": 153.2041839}, {"type": "node", "id": 1558125603, "lat": -27.7225901, "lon": 153.2008822}, {"type": "node", "id": 1558125604, "lat": -27.7226724, "lon": 153.2014657}, {"type": "node", "id": 1558125605, "lat": -27.7227443, "lon": 153.2019765}, {"type": "node", "id": 1558125606, "lat": -27.7228172, "lon": 153.2024938}, {"type": "node", "id": 1657368876, "lat": -27.7219255, "lon": 153.1966317}, {"type": "node", "id": 1657368878, "lat": -27.7220048, "lon": 153.1966158}, {"type": "node", "id": 1658604501, "lat": -27.7226147, "lon": 153.1947028}, {"type": "node", "id": 1689807317, "lat": -27.724738, "lon": 153.1937658}, {"type": "node", "id": 1689807319, "lat": -27.7218628, "lon": 153.1948955}, {"type": "node", "id": 1689807321, "lat": -27.7218853, "lon": 153.195017}, {"type": "node", "id": 1863969041, "lat": -27.7265932, "lon": 153.1931806, "tags": {"highway": "traffic_signals"}}, {"type": "node", "id": 1863969042, "lat": -27.7256726, "lon": 153.1933712}, {"type": "node", "id": 1863969043, "lat": -27.7254133, "lon": 153.1934942}, {"type": "node", "id": 1863969049, "lat": -27.7256885, "lon": 153.1934466}, {"type": "node", "id": 1863969050, "lat": -27.7213625, "lon": 153.1950646}, {"type": "node", "id": 1863969053, "lat": -27.7273224, "lon": 153.1927166}, {"type": "node", "id": 1863969055, "lat": -27.728105, "lon": 153.1924117}, {"type": "node", "id": 1863969056, "lat": -27.7273818, "lon": 153.1928339}, {"type": "node", "id": 2110481373, "lat": -27.7216714, "lon": 153.1949392}, {"type": "node", "id": 3188350989, "lat": -27.7215109, "lon": 153.1953239}, {"type": "node", "id": 3188350990, "lat": -27.7216667, "lon": 153.1952857}, {"type": "node", "id": 3188350991, "lat": -27.7217239, "lon": 153.1950118}, {"type": "node", "id": 3188350992, "lat": -27.7215623, "lon": 153.1948924}, {"type": "node", "id": 3188350993, "lat": -27.7213808, "lon": 153.195008}, {"type": "node", "id": 3188350994, "lat": -27.7214293, "lon": 153.1952796}, {"type": "node", "id": 3877440834, "lat": -27.7194478, "lon": 153.1945648}, {"type": "node", "id": 5562015347, "lat": -27.7268912, "lon": 153.1930636}, {"type": "node", "id": 5562015348, "lat": -27.7268948, "lon": 153.1929222}, {"type": "node", "id": 7372581483, "lat": -27.7221291, "lon": 153.1948824}, {"type": "node", "id": 7372581484, "lat": -27.7219489, "lon": 153.1962397}, {"type": "node", "id": 7372667485, "lat": -27.7203208, "lon": 153.1946869}, {"type": "node", "id": 9083124112, "lat": -27.7223687, "lon": 153.1993113}, {"type": "node", "id": 9743309755, "lat": -27.7211079, "lon": 153.1947927, "tags": {"crossing": "unmarked", "highway": "crossing"}}, {"type": "node", "id": 9743309766, "lat": -27.7211096, "lon": 153.1948228, "tags": {"crossing": "unmarked", "highway": "crossing"}}, {"type": "node", "id": 10050380076, "lat": -27.7219517, "lon": 153.1968209, "tags": {"crossing": "unmarked", "highway": "crossing", "tactile_paving": "yes"}}, {"type": "node", "id": 10050380077, "lat": -27.7220321, "lon": 153.1967993, "tags": {"crossing": "unmarked", "highway": "crossing", "tactile_paving": "yes"}}, {"type": "node", "id": 10255207997, "lat": -27.7239638, "lon": 153.1940628}, {"type": "node", "id": 10255207998, "lat": -27.7232501, "lon": 153.1943463}, {"type": "node", "id": 10273146213, "lat": -27.7264759, "lon": 153.1932256}, {"type": "node", "id": 10273146214, "lat": -27.7264425, "lon": 153.1930938}, {"type": "node", "id": 10273146247, "lat": -27.7230124, "lon": 153.1944399, "tags": {"button_operated": "yes", "crossing": "traffic_signals", "highway": "crossing", "tactile_paving": "yes", "traffic_signals:sound": "yes", "traffic_signals:vibration": "yes"}}, {"type": "node", "id": 10273146248, "lat": -27.7230527, "lon": 153.1945551, "tags": {"button_operated": "yes", "crossing": "traffic_signals", "highway": "crossing", "tactile_paving": "yes", "traffic_signals:sound": "yes", "traffic_signals:vibration": "yes"}}, {"type": "node", "id": 10273146289, "lat": -27.7220216, "lon": 153.1949352}, {"type": "node", "id": 10273146290, "lat": -27.7217984, "lon": 153.1950854}, {"type": "node", "id": 10273146294, "lat": -27.722833, "lon": 153.2026089, "tags": {"direction": "backward", "highway": "traffic_signals"}}, {"type": "node", "id": 10273146297, "lat": -27.7228217, "lon": 153.2025258, "tags": {"direction": "forward", "highway": "traffic_signals"}}, {"type": "node", "id": 10273146299, "lat": -27.7228261, "lon": 153.2025614, "tags": {"button_operated": "yes", "crossing": "traffic_signals", "traffic_signals:sound": "yes", "traffic_signals:vibration": "no"}}, {"type": "node", "id": 10304290023, "lat": -27.7277483, "lon": 153.1926305}, {"type": "node", "id": 10304290024, "lat": -27.7277009, "lon": 153.1925514}, {"type": "way", "id": 26920550, "nodes": [7372667485, 294988496], "tags": {"cycleway:both": "no", "highway": "primary", "lanes": "2", "lit": "yes", "maxspeed": "60", "maxspeed:type": "sign", "name": "Hammel Street", "network": "AU:QLD:S;AU:QLD:S", "ref": "92;94", "source": "local_knowledge", "surface": "asphalt"}}, {"type": "way", "id": 26920687, "nodes": [294988347, 294988346, 294988345, 3188350991, 294988344], "tags": {"cycleway:left": "no", "foot": "yes", "highway": "primary", "junction": "roundabout", "lanes": "2", "lit": "yes", "maxspeed": "60", "network": "AU:QLD:S", "ref": "94", "shoulder": "no", "sidewalk": "none", "surface": "asphalt"}}, {"type": "way", "id": 26920766, "nodes": [294988496, 9743309766, 294988495, 294988494, 1863969050], "tags": {"cycleway:left": "no", "highway": "primary", "lanes": "2", "lit": "yes", "maxspeed": "60", "maxspeed:type": "sign", "name": "Hammel Street", "network": "AU:QLD:S;AU:QLD:S", "oneway": "yes", "parking:both": "no", "ref": "92;94", "source": "local_knowledge", "surface": "asphalt"}}, {"type": "way", "id": 26920779, "nodes": [294988342, 294988538, 9743309755, 294988496], "tags": {"cycleway:left": "no", "highway": "primary", "lanes": "1", "lit": "yes", "maxspeed": "60", "maxspeed:type": "sign", "name": "Hammel Street", "network": "AU:QLD:S;AU:QLD:S", "oneway": "yes", "parking:both": "no", "ref": "92;94", "source": "local_knowledge", "surface": "asphalt"}}, {"type": "way", "id": 88757445, "nodes": [1657368878, 7372581484, 1557951695, 294988748, 762007188, 1030160995, 294988348], "tags": {"cycleway:left": "no", "highway": "primary", "lanes": "2", "lit": "yes", "maxspeed": "60", "name": "Milne Street", "network": "AU:QLD:S", "oneway": "yes", "parking:both": "no", "ref": "94", "shoulder": "no", "sidewalk": "left", "source": "local_knowledge", "surface": "asphalt"}}, {"type": "way", "id": 88757449, "nodes": [294988350, 1030160975, 294988738, 762006786], "tags": {"cycleway:left": "no", "foot": "yes", "highway": "primary", "lanes": "1", "lit": "yes", "maxspeed": "60", "name": "Milne Street", "network": "AU:QLD:S", "oneway": "yes", "parking:both": "no", "ref": "94", "shoulder": "no", "sidewalk": "none", "source": "local_knowledge", "surface": "asphalt"}}, {"type": "way", "id": 156743591, "nodes": [1689807317, 1532627824, 10255207997], "tags": {"highway": "primary", "lanes": "2", "lit": "yes", "maxspeed": "60", "name": "Beaudesert Beenleigh Road", "network": "AU:QLD:S", "oneway": "yes", "parking:both": "no", "ref": "92", "shoulder": "no", "source": "Bing", "source:name": "survey", "source:ref": "survey", "surface": "asphalt"}}, {"type": "way", "id": 156743593, "nodes": [1689807317, 1863969043], "tags": {"highway": "primary", "lanes": "2", "lit": "yes", "maxspeed": "60", "name": "Beaudesert Beenleigh Road", "network": "AU:QLD:S", "parking:both": "no", "ref": "92", "shoulder": "no", "source": "nearmap", "source:name": "survey", "source:ref": "survey", "surface": "asphalt"}}, {"type": "way", "id": 156743594, "nodes": [294988347, 10273146290, 1689807321, 10273146289, 7372581483, 1532627817, 1658604501], "tags": {"cycleway:left": "no", "highway": "primary", "lanes": "2", "lit": "yes", "maxspeed": "60", "name": "Beaudesert Beenleigh Road", "network": "AU:QLD:S", "oneway": "yes", "parking:both": "no", "ref": "92", "shoulder": "no", "source": "Bing", "source:name": "survey", "source:ref": "survey", "surface": "asphalt"}}, {"type": "way", "id": 175837729, "nodes": [1863969055, 10304290024, 1863969053, 5562015348], "tags": {"cycleway:left": "no", "foot": "yes", "highway": "primary", "lanes": "1", "lit": "yes", "maxspeed": "60", "name": "Beaudesert Beenleigh Road", "network": "AU:QLD:S", "oneway": "yes", "parking:both": "no", "ref": "92", "shoulder": "no", "sidewalk": "none", "source": "survey", "source:name": "survey", "source:ref": "survey", "surface": "asphalt", "width": "6"}}, {"type": "way", "id": 175837730, "nodes": [1863969043, 1863969049, 10273146213, 1863969041], "tags": {"cycleway:left": "no", "foot": "yes", "highway": "primary", "lanes": "1", "lit": "yes", "maxspeed": "60", "name": "Beaudesert Beenleigh Road", "network": "AU:QLD:S", "oneway": "yes", "parking:both": "no", "ref": "92", "shoulder": "no", "sidewalk": "none", "source": "survey", "source:name": "survey", "source:ref": "survey", "surface": "asphalt", "width": "8"}}, {"type": "way", "id": 571033731, "nodes": [294987583, 294988723], "tags": {"cycleway:left": "no", "highway": "primary", "lanes": "1", "lit": "yes", "maxspeed": "60", "name": "Milne Street", "network": "AU:QLD:S", "oneway": "yes", "parking:both": "no", "ref": "94", "shoulder": "no", "sidewalk": "left", "source": "local_knowledge", "surface": "asphalt"}}, {"type": "way", "id": 571033737, "nodes": [294988686, 294987583], "tags": {"cycleway:left": "no", "foot": "yes", "highway": "primary", "lanes": "1", "lit": "yes", "maxspeed": "60", "name": "Milne Street", "network": "AU:QLD:S", "oneway": "yes", "parking:both": "no", "ref": "94", "shoulder": "no", "sidewalk": "none", "source": "local_knowledge", "surface": "asphalt"}}, {"type": "way", "id": 571033747, "nodes": [294987583, 9083124112, 1558125603, 1558125604, 1558125605, 1558125606, 10273146297, 10273146299, 10273146294, 1557951704], "tags": {"cycleway:both": "no", "highway": "primary", "lanes": "2", "lit": "yes", "maxspeed": "60", "name": "Milne Street", "network": "AU:QLD:S", "parking:both": "no", "ref": "94", "shoulder": "no", "sidewalk": "both", "source": "survey", "surface": "asphalt"}}, {"type": "way", "id": 581251182, "nodes": [1863969041, 5562015347], "tags": {"cycleway:left": "no", "foot": "yes", "highway": "primary", "lanes": "1", "lit": "yes", "maxspeed": "60", "name": "Beaudesert Beenleigh Road", "network": "AU:QLD:S", "oneway": "yes", "parking:both": "no", "ref": "92", "shoulder": "no", "sidewalk": "none", "source": "survey", "source:name": "survey", "source:ref": "survey", "surface": "asphalt", "width": "8"}}, {"type": "way", "id": 581251185, "nodes": [5562015348, 294986527], "tags": {"cycleway:left": "no", "foot": "yes", "highway": "primary", "lanes": "1", "lit": "yes", "maxspeed": "60", "name": "Beaudesert Beenleigh Road", "network": "AU:QLD:S", "oneway": "yes", "parking:both": "no", "ref": "92", "shoulder": "no", "sidewalk": "none", "source": "survey", "source:name": "survey", "source:ref": "survey", "surface": "asphalt", "width": "7"}}, {"type": "way", "id": 581251188, "nodes": [5562015347, 1863969056, 10304290023, 1863969055], "tags": {"cycleway:left": "no", "foot": "yes", "highway": "primary", "lanes": "1", "lit": "yes", "maxspeed": "60", "name": "Beaudesert Beenleigh Road", "network": "AU:QLD:S", "oneway": "yes", "parking:both": "no", "ref": "92", "shoulder": "no", "sidewalk": "none", "source": "survey", "source:name": "survey", "source:ref": "survey", "surface": "asphalt", "width": "6"}}, {"type": "way", "id": 581251191, "nodes": [294986527, 10273146214, 1863969042, 1863969043], "tags": {"cycleway:left": "no", "foot": "yes", "highway": "primary", "lanes": "1", "lit": "yes", "maxspeed": "60", "name": "Beaudesert Beenleigh Road", "network": "AU:QLD:S", "oneway": "yes", "parking:both": "no", "ref": "92", "shoulder": "no", "sidewalk": "none", "source": "survey", "source:name": "survey", "source:ref": "survey", "surface": "asphalt", "width": "6"}}, {"type": "way", "id": 581255018, "nodes": [1531004272, 1532627822, 1689807317], "tags": {"highway": "primary", "lanes": "2", "lit": "yes", "maxspeed": "60", "name": "Beaudesert Beenleigh Road", "network": "AU:QLD:S", "oneway": "yes", "parking:both": "no", "ref": "92", "shoulder": "no", "source": "Bing", "source:name": "survey", "source:ref": "survey", "surface": "asphalt"}}, {"type": "way", "id": 581255019, "nodes": [1531004269, 1531004272], "tags": {"cycleway:left": "no", "highway": "primary", "lanes": "2", "lit": "yes", "maxspeed": "60", "name": "Beaudesert Beenleigh Road", "network": "AU:QLD:S", "oneway": "yes", "parking:both": "no", "ref": "92", "shoulder": "no", "sidewalk": "separate", "source": "Bing", "source:name": "survey", "source:ref": "survey", "surface": "asphalt"}}, {"type": "way", "id": 581255021, "nodes": [1531004270, 10273146247, 1689807319, 294988344], "tags": {"cycleway:left": "no", "foot": "yes", "highway": "primary", "lanes": "2", "lit": "yes", "maxspeed": "60", "name": "Beaudesert Beenleigh Road", "network": "AU:QLD:S", "oneway": "yes", "parking:both": "no", "ref": "92", "shoulder": "no", "sidewalk": "none", "source": "Bing", "source:name": "survey", "source:ref": "survey", "surface": "asphalt"}}, {"type": "way", "id": 726151661, "nodes": [294988336, 3188350989, 294988350], "tags": {"cycleway:left": "no", "foot": "yes", "highway": "primary", "junction": "roundabout", "lanes": "2", "lit": "yes", "maxspeed": "60", "network": "AU:QLD:S;AU:QLD:S", "ref": "92;94", "shoulder": "no", "sidewalk": "none", "surface": "asphalt"}}, {"type": "way", "id": 726151662, "nodes": [294988339, 294988338, 294988337, 3188350994, 294988336], "tags": {"cycleway:left": "no", "highway": "primary", "junction": "roundabout", "lanes": "2", "lit": "yes", "maxspeed": "60", "network": "AU:QLD:S;AU:QLD:S", "ref": "92;94", "shoulder": "no", "surface": "asphalt"}}, {"type": "way", "id": 726151663, "nodes": [1863969050, 294988339], "tags": {"cycleway:left": "no", "highway": "primary", "junction": "roundabout", "lanes": "2", "lit": "yes", "maxspeed": "60", "network": "AU:QLD:S;AU:QLD:S", "ref": "92;94", "shoulder": "no", "surface": "asphalt"}}, {"type": "way", "id": 726151664, "nodes": [294988342, 294988341, 294988340, 3188350993, 1863969050], "tags": {"cycleway:left": "no", "highway": "primary", "junction": "roundabout", "lanes": "2", "lit": "yes", "maxspeed": "60", "network": "AU:QLD:S;AU:QLD:S", "ref": "92;94", "shoulder": "no", "surface": "asphalt"}}, {"type": "way", "id": 726151665, "nodes": [3188350992, 294988342], "tags": {"cycleway:left": "no", "highway": "primary", "junction": "roundabout", "lanes": "2", "lit": "yes", "maxspeed": "60", "network": "AU:QLD:S;AU:QLD:S", "ref": "92;94", "shoulder": "no", "surface": "asphalt"}}, {"type": "way", "id": 740026378, "nodes": [294988348, 294988347], "tags": {"cycleway:left": "no", "foot": "yes", "highway": "primary", "junction": "roundabout", "lanes": "2", "lit": "yes", "maxspeed": "60", "network": "AU:QLD:S;AU:QLD:S", "ref": "92;94", "shoulder": "no", "sidewalk": "none", "surface": "asphalt"}}, {"type": "way", "id": 740026379, "nodes": [294988350, 294988349, 3188350990, 294988348], "tags": {"cycleway:left": "no", "highway": "primary", "junction": "roundabout", "lanes": "2", "lit": "yes", "maxspeed": "60", "network": "AU:QLD:S", "ref": "92", "shoulder": "no", "sidewalk": "separate", "surface": "asphalt"}}, {"type": "way", "id": 740026380, "nodes": [2110481373, 294988343, 3188350992], "tags": {"cycleway:left": "no", "highway": "primary", "junction": "roundabout", "lanes": "2", "lit": "yes", "maxspeed": "60", "network": "AU:QLD:S;AU:QLD:S", "ref": "92;94", "shoulder": "no", "surface": "asphalt"}}, {"type": "way", "id": 740026381, "nodes": [294988344, 2110481373], "tags": {"cycleway:left": "no", "highway": "primary", "junction": "roundabout", "lanes": "2", "lit": "yes", "maxspeed": "60", "network": "AU:QLD:S;AU:QLD:S", "ref": "92;94", "shoulder": "no", "surface": "asphalt"}}, {"type": "way", "id": 764290361, "nodes": [1531004267, 10273146248, 1531004269], "tags": {"cycleway:left": "no", "highway": "primary", "lanes": "2", "lit": "yes", "maxspeed": "60", "name": "Beaudesert Beenleigh Road", "network": "AU:QLD:S", "oneway": "yes", "parking:both": "no", "ref": "92", "shoulder": "no", "sidewalk": "separate", "source": "Bing", "source:name": "survey", "source:ref": "survey", "surface": "asphalt"}}, {"type": "way", "id": 788579731, "nodes": [1658604501, 1531004267], "tags": {"cycleway:left": "no", "highway": "primary", "lanes": "2", "lit": "yes", "maxspeed": "60", "name": "Beaudesert Beenleigh Road", "network": "AU:QLD:S", "oneway": "yes", "parking:both": "no", "ref": "92", "shoulder": "no", "sidewalk": "separate", "source": "Bing", "source:name": "survey", "source:ref": "survey", "surface": "asphalt"}}, {"type": "way", "id": 788579732, "nodes": [294988723, 10050380077, 1657368878], "tags": {"cycleway:left": "no", "highway": "primary", "lanes": "2", "lit": "yes", "maxspeed": "60", "name": "Milne Street", "network": "AU:QLD:S", "oneway": "yes", "parking:both": "no", "ref": "94", "shoulder": "no", "sidewalk": "left", "source": "local_knowledge", "surface": "asphalt"}}, {"type": "way", "id": 788579733, "nodes": [762006786, 762007056, 1657368876, 10050380076, 294988686], "tags": {"cycleway:left": "no", "foot": "yes", "highway": "primary", "lanes": "1", "lit": "yes", "maxspeed": "60", "name": "Milne Street", "network": "AU:QLD:S", "oneway": "yes", "parking:both": "no", "ref": "94", "shoulder": "no", "sidewalk": "none", "source": "local_knowledge", "surface": "asphalt"}}, {"type": "way", "id": 788579734, "nodes": [295884602, 295884603, 3877440834, 7372667485], "tags": {"cycleway:both": "no", "highway": "primary", "lanes": "2", "lit": "yes", "maxspeed": "60", "maxspeed:type": "sign", "name": "Hammel Street", "network": "AU:QLD:S;AU:QLD:S", "ref": "92;94", "shoulder": "both", "sidewalk": "right", "source": "local_knowledge", "surface": "asphalt"}}, {"type": "way", "id": 1121175848, "nodes": [10255207997, 10255207998], "tags": {"highway": "primary", "lanes": "3", "lit": "yes", "maxspeed": "60", "name": "Beaudesert Beenleigh Road", "network": "AU:QLD:S", "oneway": "yes", "parking:both": "no", "ref": "92", "shoulder": "no", "source": "Bing", "source:name": "survey", "source:ref": "survey", "surface": "asphalt", "turn:lanes": "through|through|right"}}, {"type": "way", "id": 1121175849, "nodes": [10255207998, 1531004270], "tags": {"highway": "primary", "lanes": "2", "lit": "yes", "maxspeed": "60", "name": "Beaudesert Beenleigh Road", "network": "AU:QLD:S", "oneway": "yes", "parking:both": "no", "ref": "92", "shoulder": "no", "source": "Bing", "source:name": "survey", "source:ref": "survey", "surface": "asphalt"}}]}