{"version": 0.6, "generator": "Overpass API 0.7.61.5 4133829e", "osm3s": {"timestamp_osm_base": "2023-12-06T09:55:06Z", "copyright": "The data included in this document is from www.openstreetmap.org. The data is made available under ODbL."}, "elements": [{"type": "node", "id": 190341428, "lat": -34.977328, "lon": 149.025216}, {"type": "node", "id": 190341568, "lat": -34.975733, "lon": 149.026604}, {"type": "node", "id": 190341634, "lat": -34.977147, "lon": 149.025264}, {"type": "node", "id": 190341658, "lat": -34.977713, "lon": 149.025182, "tags": {"created_by": "JOSM"}}, {"type": "node", "id": 190345439, "lat": -34.9718174, "lon": 149.0295583, "tags": {"created_by": "JOSM"}}, {"type": "node", "id": 190345535, "lat": -34.9738096, "lon": 149.0288837}, {"type": "node", "id": 190346391, "lat": -34.9746051, "lon": 149.0282588}, {"type": "node", "id": 190346514, "lat": -34.9742639, "lon": 149.0285888}, {"type": "node", "id": 190346748, "lat": -34.976468, "lon": 149.02568}, {"type": "node", "id": 190349963, "lat": -34.971202, "lon": 149.029706, "tags": {"created_by": "JOSM"}}, {"type": "node", "id": 190350120, "lat": -34.970314, "lon": 149.029951, "tags": {"created_by": "JOSM"}}, {"type": "node", "id": 190357311, "lat": -34.96862, "lon": 149.0305481}, {"type": "node", "id": 190357336, "lat": -34.968068, "lon": 149.030746, "tags": {"created_by": "JOSM"}}, {"type": "node", "id": 190376491, "lat": -34.9660814, "lon": 149.0308342}, {"type": "node", "id": 193405608, "lat": -34.9728888, "lon": 149.0292924}, {"type": "node", "id": 222645579, "lat": -34.9695359, "lon": 149.0302043}, {"type": "node", "id": 3671384965, "lat": -34.967182, "lon": 149.0308791}, {"type": "node", "id": 3671384966, "lat": -34.967699, "lon": 149.03083}, {"type": "node", "id": 3671385772, "lat": -34.9694393, "lon": 149.0302414}, {"type": "node", "id": 3671385808, "lat": -34.9699835, "lon": 149.0300709}, {"type": "node", "id": 3671385827, "lat": -34.9702658, "lon": 149.0299685}, {"type": "node", "id": 3671385874, "lat": -34.9733554, "lon": 149.02911}, {"type": "node", "id": 3881543765, "lat": -34.9655087, "lon": 149.0308043}, {"type": "node", "id": 7065364082, "lat": -34.9789321, "lon": 149.0252231}, {"type": "node", "id": 7065364083, "lat": -34.9760527, "lon": 149.0261046}, {"type": "node", "id": 7065364084, "lat": -34.9637656, "lon": 149.0306731}, {"type": "node", "id": 7386082349, "lat": -34.9723666, "lon": 149.029422}, {"type": "way", "id": 107948768, "nodes": [190376491, 3671384965, 3671384966, 190357336, 190357311], "tags": {"alt_name": "Barton Highway", "highway": "trunk", "lanes": "2", "maxspeed": "50", "name": "East Street", "network": "AU:NSW", "ref": "A25", "source:name": "NSW LPI Base Map", "source:name:date": "2016-03", "surface": "asphalt"}}, {"type": "way", "id": 107948769, "nodes": [190346514, 190346391, 190341568, 7065364083, 190346748, 190341634, 190341428, 190341658, 7065364082], "tags": {"highway": "trunk", "lanes": "2", "maxspeed": "70", "name": "Barton Highway", "network": "AU:NSW", "ref": "A25", "surface": "asphalt"}}, {"type": "way", "id": 233213017, "nodes": [193405608, 3671385874, 190345535, 190346514], "tags": {"highway": "trunk", "lanes": "2", "maxspeed": "50", "name": "Barton Highway", "network": "AU:NSW", "ref": "A25", "surface": "asphalt"}}, {"type": "way", "id": 738014667, "nodes": [190349963, 190345439], "tags": {"alt_name": "Barton Highway", "highway": "trunk", "lanes": "2", "maxspeed": "50", "name": "East Street", "network": "AU:NSW", "ref": "A25", "source:name": "NSW LPI Base Map", "source:name:date": "2016-03", "surface": "asphalt"}}, {"type": "way", "id": 756430543, "nodes": [7065364084, 3881543765, 190376491], "tags": {"highway": "trunk", "lanes": "2", "maxspeed": "50", "name": "Barton Highway", "network": "AU:NSW", "ref": "A25", "surface": "asphalt"}}, {"type": "way", "id": 790004598, "nodes": [7386082349, 193405608], "tags": {"highway": "trunk", "lanes": "2", "maxspeed": "50", "name": "Barton Highway", "network": "AU:NSW", "ref": "A25", "surface": "asphalt"}}, {"type": "way", "id": 790004599, "nodes": [190345439, 7386082349], "tags": {"highway": "trunk", "lanes": "2", "maxspeed": "50", "name": "Barton Highway", "network": "AU:NSW", "ref": "A25", "surface": "asphalt"}}, {"type": "way", "id": 790004601, "nodes": [3671385827, 190350120, 190349963], "tags": {"alt_name": "Barton Highway", "highway": "trunk", "lanes": "2", "maxspeed": "50", "name": "East Street", "network": "AU:NSW", "ref": "A25", "source:name": "NSW LPI Base Map", "source:name:date": "2016-03", "surface": "asphalt"}}, {"type": "way", "id": 993209773, "nodes": [190357311, 3671385772], "tags": {"alt_name": "Barton Highway", "highway": "trunk", "lanes": "2", "lit": "yes", "maxspeed": "50", "name": "East Street", "network": "AU:NSW", "ref": "A25", "source:name": "NSW LPI Base Map", "source:name:date": "2016-03", "surface": "asphalt"}}, {"type": "way", "id": 993209774, "nodes": [3671385772, 222645579, 3671385808, 3671385827], "tags": {"alt_name": "Barton Highway", "highway": "trunk", "lanes": "2", "maxspeed": "50", "name": "East Street", "network": "AU:NSW", "ref": "A25", "source:name": "NSW LPI Base Map", "source:name:date": "2016-03", "surface": "asphalt"}}]}