{"version": 0.6, "generator": "Overpass API 0.7.61.5 4133829e", "osm3s": {"timestamp_osm_base": "2023-12-06T09:57:16Z", "copyright": "The data included in this document is from www.openstreetmap.org. The data is made available under ODbL."}, "elements": [{"type": "node", "id": 1672835927, "lat": -33.8505901, "lon": 151.0376153}, {"type": "node", "id": 1672835928, "lat": -33.8507992, "lon": 151.037627}, {"type": "node", "id": 1672835932, "lat": -33.8512237, "lon": 151.0371324, "tags": {"crossing": "traffic_signals", "highway": "crossing"}}, {"type": "node", "id": 1672835933, "lat": -33.8514585, "lon": 151.0370764}, {"type": "node", "id": 1672835934, "lat": -33.8516416, "lon": 151.0376643}, {"type": "node", "id": 1838331170, "lat": -33.8512458, "lon": 151.0372431, "tags": {"highway": "traffic_signals", "traffic_signals": "signal", "traffic_signals:direction": "forward"}}, {"type": "node", "id": 1838331172, "lat": -33.8514452, "lon": 151.037349}, {"type": "node", "id": 1838331892, "lat": -33.8510529, "lon": 151.0372627}, {"type": "node", "id": 1838331895, "lat": -33.8513462, "lon": 151.0371724, "tags": {"ref": "0620", "start_date": "1972-09-26"}}, {"type": "node", "id": 1838331897, "lat": -33.8513001, "lon": 151.037098}, {"type": "node", "id": 1838332111, "lat": -33.8517786, "lon": 151.0376472}, {"type": "node", "id": 1838334856, "lat": -33.8515791, "lon": 151.0372837, "tags": {"highway": "traffic_signals", "traffic_signals:direction": "forward"}}, {"type": "node", "id": 10799806956, "lat": -33.8513523, "lon": 151.0370821}, {"type": "node", "id": 10799806957, "lat": -33.8513982, "lon": 151.0370764}, {"type": "node", "id": 10799806958, "lat": -33.8512647, "lon": 151.0371084}, {"type": "node", "id": 11337826451, "lat": -33.851035, "lon": 151.0374078}, {"type": "node", "id": 11337826456, "lat": -33.8515654, "lon": 151.0372601, "tags": {"crossing": "traffic_signals", "highway": "crossing"}}, {"type": "node", "id": 11337826458, "lat": -33.8514344, "lon": 151.0373297, "tags": {"crossing": "traffic_signals", "highway": "crossing"}}, {"type": "node", "id": 11337826463, "lat": -33.8512678, "lon": 151.0372276, "tags": {"crossing": "traffic_signals", "highway": "crossing"}}, {"type": "way", "id": 154811650, "nodes": [1672835933, 10799806957, 10799806956, 1838331897], "tags": {"highway": "trunk", "lanes": "3", "maxspeed": "70", "name": "St Hilliers Road", "network": "AU:NSW", "old_network": "MR", "old_ref": "6", "oneway": "yes", "ref": "A6", "surface": "asphalt"}}, {"type": "way", "id": 173000558, "nodes": [1838331895, 1672835933], "tags": {"highway": "trunk", "lanes": "2", "maxspeed": "50", "name": "St Hilliers Road", "oneway": "yes", "source:name": "sign", "surface": "asphalt"}}, {"type": "way", "id": 173000559, "nodes": [1838331895, 11337826458, 1838331172, 1672835934], "tags": {"highway": "trunk", "lanes": "3", "maxspeed": "70", "name": "Rawson Street", "network": "AU:NSW", "old_network": "MR", "old_ref": "6", "oneway": "yes", "ref": "A6", "source:name": "sign", "surface": "asphalt"}}, {"type": "way", "id": 226008420, "nodes": [1838331897, 1838331895], "tags": {"highway": "trunk", "lanes": "3", "maxspeed": "70", "name": "Rawson Street", "oneway": "yes", "source:name": "sign", "surface": "asphalt"}}, {"type": "way", "id": 385523741, "nodes": [1838332111, 1838334856, 11337826456, 1672835933], "tags": {"highway": "trunk", "lanes": "5", "maxspeed": "70", "name": "Rawson Street", "network": "AU:NSW", "old_network": "MR", "old_ref": "6", "oneway": "yes", "ref": "A6", "surface": "asphalt", "turn:lanes": "none|none|right|right|right"}}, {"type": "way", "id": 575683833, "nodes": [1838331897, 10799806958, 1672835932, 1838331892], "tags": {"highway": "trunk", "lanes": "3", "maxspeed": "70", "name": "St Hilliers Road", "network": "AU:NSW", "old_network": "MR", "old_ref": "6", "oneway": "yes", "ref": "A6", "surface": "asphalt"}}, {"type": "way", "id": 725212695, "nodes": [1672835928, 11337826451, 1838331170, 11337826463, 1838331895], "tags": {"highway": "trunk", "lanes": "3", "maxspeed": "70", "name": "St Hilliers Road", "network": "AU:NSW", "old_network": "MR", "old_ref": "6", "oneway": "yes", "ref": "A6", "source:name": "sign", "surface": "asphalt", "turn:lanes": "through;right|right"}}, {"type": "way", "id": 776567496, "nodes": [1838331892, 1672835927], "tags": {"highway": "trunk", "lanes": "3", "maxspeed": "70", "name": "St Hilliers Road", "network": "AU:NSW", "old_network": "MR", "old_ref": "6", "oneway": "yes", "ref": "A6", "surface": "asphalt"}}]}