{"version": 0.6, "generator": "Overpass API 0.7.61.5 4133829e", "osm3s": {"timestamp_osm_base": "2023-12-06T14:09:00Z", "copyright": "The data included in this document is from www.openstreetmap.org. The data is made available under ODbL."}, "elements": [{"type": "node", "id": 21268028, "lat": -27.5687306, "lon": 151.9521317}, {"type": "node", "id": 21304365, "lat": -27.5654826, "lon": 151.9569828, "tags": {"highway": "traffic_signals"}}, {"type": "node", "id": 21305267, "lat": -27.5693023, "lon": 151.9563717}, {"type": "node", "id": 21321389, "lat": -27.5745645, "lon": 151.9509718, "tags": {"highway": "traffic_signals"}}, {"type": "node", "id": 21498373, "lat": -27.5671009, "lon": 151.9567021}, {"type": "node", "id": 21554714, "lat": -27.5648098, "lon": 151.95714}, {"type": "node", "id": 21555313, "lat": -27.5636931, "lon": 151.9573229}, {"type": "node", "id": 272645101, "lat": -27.5744532, "lon": 151.950985}, {"type": "node", "id": 273203922, "lat": -27.5682647, "lon": 151.9485583}, {"type": "node", "id": 274234372, "lat": -27.5621212, "lon": 151.9575854}, {"type": "node", "id": 274872102, "lat": -27.5695912, "lon": 151.9585391}, {"type": "node", "id": 275802772, "lat": -27.5725412, "lon": 151.9513387}, {"type": "node", "id": 277357415, "lat": -27.5683238, "lon": 151.9490097}, {"type": "node", "id": 277357426, "lat": -27.5702799, "lon": 151.9517253}, {"type": "node", "id": 277499979, "lat": -27.5715053, "lon": 151.9515195}, {"type": "node", "id": 277906872, "lat": -27.5685099, "lon": 151.9503915}, {"type": "node", "id": 277906877, "lat": -27.5698692, "lon": 151.9518285}, {"type": "node", "id": 278633504, "lat": -27.5691598, "lon": 151.951945}, {"type": "node", "id": 279255790, "lat": -27.5735615, "lon": 151.9511474}, {"type": "node", "id": 279255791, "lat": -27.5735781, "lon": 151.9512782}, {"type": "node", "id": 280003773, "lat": -27.5694686, "lon": 151.9576017}, {"type": "node", "id": 282838712, "lat": -27.5629789, "lon": 151.957443}, {"type": "node", "id": 293115978, "lat": -27.5679097, "lon": 151.9566099}, {"type": "node", "id": 303266792, "lat": -27.5640353, "lon": 151.9572661}, {"type": "node", "id": 303266796, "lat": -27.5645849, "lon": 151.9571784}, {"type": "node", "id": 312149432, "lat": -27.5681582, "lon": 151.9565701}, {"type": "node", "id": 312149435, "lat": -27.567552, "lon": 151.9566723}, {"type": "node", "id": 332792798, "lat": -27.5659079, "lon": 151.9569066}, {"type": "node", "id": 496896479, "lat": -27.5681574, "lon": 151.9476365}, {"type": "node", "id": 496896532, "lat": -27.5680939, "lon": 151.9471411, "tags": {"highway": "traffic_signals"}}, {"type": "node", "id": 498836981, "lat": -27.5705183, "lon": 151.9518271}, {"type": "node", "id": 498836987, "lat": -27.5725622, "lon": 151.9514816}, {"type": "node", "id": 498836991, "lat": -27.5745815, "lon": 151.9510738, "tags": {"crossing": "traffic_signals", "highway": "traffic_signals"}}, {"type": "node", "id": 541398171, "lat": -27.5662954, "lon": 151.9568343}, {"type": "node", "id": 541398179, "lat": -27.5687404, "lon": 151.9564726}, {"type": "node", "id": 1561376978, "lat": -27.5711098, "lon": 151.9517247}, {"type": "node", "id": 1572292087, "lat": -27.5682999, "lon": 151.9488148, "tags": {"railway": "level_crossing"}}, {"type": "node", "id": 1648161236, "lat": -27.5690554, "lon": 151.9564179}, {"type": "node", "id": 1648161255, "lat": -27.5692247, "lon": 151.95579}, {"type": "node", "id": 1945436380, "lat": -27.5681135, "lon": 151.9472945}, {"type": "node", "id": 2139043708, "lat": -27.568515, "lon": 151.9504422}, {"type": "node", "id": 3574909097, "lat": -27.5710407, "lon": 151.9515975}, {"type": "node", "id": 3580625808, "lat": -27.5649635, "lon": 151.95706}, {"type": "node", "id": 3580625816, "lat": -27.5652217, "lon": 151.9570167}, {"type": "node", "id": 3580625836, "lat": -27.5664083, "lon": 151.9568166}, {"type": "node", "id": 3594368136, "lat": -27.564425, "lon": 151.9571961}, {"type": "node", "id": 3594368167, "lat": -27.5653899, "lon": 151.9569959, "tags": {"highway": "traffic_signals"}}, {"type": "node", "id": 4264537816, "lat": -27.5649788, "lon": 151.9571592}, {"type": "node", "id": 4264537817, "lat": -27.5654047, "lon": 151.9571115, "tags": {"highway": "traffic_signals"}}, {"type": "node", "id": 4264537818, "lat": -27.5654966, "lon": 151.9570965, "tags": {"highway": "traffic_signals"}}, {"type": "node", "id": 4264537819, "lat": -27.566308, "lon": 151.9569342}, {"type": "node", "id": 4264537820, "lat": -27.5664317, "lon": 151.9569067}, {"type": "node", "id": 4264537821, "lat": -27.566591, "lon": 151.9568809}, {"type": "node", "id": 4264537823, "lat": -27.5666659, "lon": 151.956771}, {"type": "node", "id": 4264537824, "lat": -27.5671125, "lon": 151.9567751}, {"type": "node", "id": 4264537825, "lat": -27.5672352, "lon": 151.9567275}, {"type": "node", "id": 4690367439, "lat": -27.5682483, "lon": 151.9484066}, {"type": "node", "id": 4690367440, "lat": -27.5682182, "lon": 151.9480957}, {"type": "node", "id": 4691782353, "lat": -27.5686899, "lon": 151.9517897}, {"type": "node", "id": 4691782354, "lat": -27.5686638, "lon": 151.9515912}, {"type": "node", "id": 4691782363, "lat": -27.5687163, "lon": 151.9520182}, {"type": "node", "id": 5470902260, "lat": -27.5698689, "lon": 151.9605977}, {"type": "node", "id": 5977673649, "lat": -27.5633629, "lon": 151.9573756}, {"type": "node", "id": 6833567107, "lat": -27.5727115, "lon": 151.9513112, "tags": {"highway": "traffic_signals", "traffic_signals": "signal", "traffic_signals:direction": "forward"}}, {"type": "node", "id": 6833567109, "lat": -27.5724399, "lon": 151.9515047, "tags": {"highway": "traffic_signals", "traffic_signals": "signal", "traffic_signals:direction": "forward"}}, {"type": "node", "id": 6950108853, "lat": -27.5686075, "lon": 151.9564915}, {"type": "node", "id": 6950108855, "lat": -27.5685283, "lon": 151.9565045}, {"type": "node", "id": 6953806244, "lat": -27.5690289, "lon": 151.9543116}, {"type": "node", "id": 6953806245, "lat": -27.5690011, "lon": 151.9541108}, {"type": "node", "id": 6953806261, "lat": -27.5706768, "lon": 151.9517996}, {"type": "node", "id": 6953820085, "lat": -27.5737648, "lon": 151.9512402}, {"type": "node", "id": 6953820097, "lat": -27.5734484, "lon": 151.9513035}, {"type": "node", "id": 6953820099, "lat": -27.5736064, "lon": 151.9512725}, {"type": "node", "id": 6954021912, "lat": -27.5688911, "lon": 151.9532739}, {"type": "node", "id": 6957365694, "lat": -27.5655782, "lon": 151.9570831}, {"type": "node", "id": 6957365695, "lat": -27.5655631, "lon": 151.9569715}, {"type": "node", "id": 6957365696, "lat": -27.5653401, "lon": 151.9571221}, {"type": "node", "id": 6957365700, "lat": -27.5653226, "lon": 151.9570053}, {"type": "node", "id": 6957365725, "lat": -27.5692851, "lon": 151.9562456, "tags": {"crossing": "traffic_signals", "highway": "crossing"}}, {"type": "node", "id": 6957365726, "lat": -27.5691877, "lon": 151.956392, "tags": {"crossing": "traffic_signals", "highway": "crossing"}}, {"type": "node", "id": 6960954029, "lat": -27.572708, "lon": 151.9514552}, {"type": "node", "id": 6960954030, "lat": -27.5724699, "lon": 151.9514989}, {"type": "node", "id": 6960954031, "lat": -27.5726887, "lon": 151.9513155}, {"type": "node", "id": 6960954032, "lat": -27.5724508, "lon": 151.9513559}, {"type": "node", "id": 6960954044, "lat": -27.5687045, "lon": 151.9519141}, {"type": "node", "id": 6960954045, "lat": -27.5688641, "lon": 151.9519972}, {"type": "node", "id": 6960954046, "lat": -27.5688799, "lon": 151.9521146}, {"type": "node", "id": 6960954047, "lat": -27.5687409, "lon": 151.9522091}, {"type": "node", "id": 6960966638, "lat": -27.5719282, "lon": 151.9515917}, {"type": "node", "id": 6960966673, "lat": -27.5726043, "lon": 151.9513299}, {"type": "node", "id": 6960966674, "lat": -27.5726229, "lon": 151.9514725}, {"type": "node", "id": 6960966675, "lat": -27.5737003, "lon": 151.9511228}, {"type": "node", "id": 6960966687, "lat": -27.573478, "lon": 151.9511624}, {"type": "node", "id": 6961430503, "lat": -27.5689826, "lon": 151.9520981}, {"type": "node", "id": 6961448865, "lat": -27.568785, "lon": 151.9525531}, {"type": "node", "id": 6961448868, "lat": -27.5687578, "lon": 151.9523353}, {"type": "node", "id": 6961451916, "lat": -27.5689601, "lon": 151.9537828}, {"type": "node", "id": 6961452023, "lat": -27.5691317, "lon": 151.9550939}, {"type": "node", "id": 7519691319, "lat": -27.5744692, "lon": 151.9510985}, {"type": "node", "id": 8234435082, "lat": -27.5684253, "lon": 151.9497862}, {"type": "node", "id": 10187204494, "lat": -27.5714392, "lon": 151.9515306}, {"type": "node", "id": 10187204502, "lat": -27.5715459, "lon": 151.9515121}, {"type": "node", "id": 10187204504, "lat": -27.5698803, "lon": 151.9519391}, {"type": "node", "id": 10308360561, "lat": -27.5660391, "lon": 151.9569789}, {"type": "node", "id": 10308360562, "lat": -27.5659171, "lon": 151.9570154}, {"type": "node", "id": 10578223431, "lat": -27.5636096, "lon": 151.9573362, "tags": {"crossing": "traffic_signals", "highway": "crossing"}}, {"type": "node", "id": 11124381999, "lat": -27.5693673, "lon": 151.9520291}, {"type": "node", "id": 11140318775, "lat": -27.5688961, "lon": 151.9519914, "tags": {"highway": "traffic_signals", "traffic_signals:direction": "forward"}}, {"type": "node", "id": 11140318776, "lat": -27.5687448, "lon": 151.9522385, "tags": {"highway": "traffic_signals", "traffic_signals:direction": "forward"}}, {"type": "node", "id": 11140318777, "lat": -27.5687014, "lon": 151.9518775, "tags": {"highway": "traffic_signals", "traffic_signals:direction": "backward"}}, {"type": "node", "id": 11140318779, "lat": -27.5688527, "lon": 151.9529993}, {"type": "node", "id": 11140318781, "lat": -27.5689959, "lon": 151.9540742, "tags": {"highway": "traffic_signals", "traffic_signals:direction": "backward"}}, {"type": "node", "id": 11140318782, "lat": -27.5690156, "lon": 151.9542161}, {"type": "node", "id": 11140318783, "lat": -27.5690343, "lon": 151.9543524, "tags": {"highway": "traffic_signals", "traffic_signals:direction": "forward"}}, {"type": "node", "id": 11140318785, "lat": -27.5692797, "lon": 151.956205, "tags": {"highway": "traffic_signals", "traffic_signals:direction": "backward"}}, {"type": "node", "id": 11140318790, "lat": -27.569325, "lon": 151.9565435, "tags": {"highway": "traffic_signals", "traffic_signals:direction": "backward"}}, {"type": "node", "id": 11140318792, "lat": -27.5691624, "lon": 151.9563972, "tags": {"highway": "traffic_signals", "traffic_signals:direction": "backward"}}, {"type": "node", "id": 11140318793, "lat": -27.5693197, "lon": 151.9565036, "tags": {"crossing": "traffic_signals", "highway": "crossing"}}, {"type": "node", "id": 11263774056, "lat": -27.5687811, "lon": 151.9525219}, {"type": "way", "id": 40845039, "nodes": [4691782363, 6960954044, 11140318777, 4691782353], "tags": {"foot": "yes", "highway": "trunk", "lanes": "4", "maxspeed": "60", "name": "James Street", "network": "AU:QLD", "oneway": "no", "ref": "A21", "source:maxspeed": "sign", "surface": "asphalt"}}, {"type": "way", "id": 40845290, "nodes": [1648161255, 6961452023], "tags": {"foot": "yes", "highway": "trunk", "lanes": "4", "maxspeed": "60", "name": "James Street", "network": "AU:QLD;AU:QLD", "oneway": "no", "ref": "A3;A21", "source:maxspeed": "sign", "surface": "asphalt"}}, {"type": "way", "id": 40951914, "nodes": [21268028, 6960954046, 6961430503], "tags": {"abutters": "mixed", "bicycle": "yes", "foot": "yes", "highway": "trunk", "lanes": "2", "maxspeed": "60", "name": "Ruthven Street", "network": "AU:QLD;AU:QLD:SSTR", "oneway": "yes", "ref": "A3;ACW", "surface": "asphalt"}}, {"type": "way", "id": 41290870, "nodes": [21305267, 11140318793, 11140318790, 280003773], "tags": {"foot": "yes", "highway": "trunk", "lanes": "4", "maxspeed": "60", "name": "James Street", "network": "AU:QLD", "oneway": "no", "ref": "A21", "source:maxspeed": "sign", "surface": "asphalt"}}, {"type": "way", "id": 142677717, "nodes": [21321389, 272645101, 6960966675, 279255790, 6960966687, 6833567107, 6960954031, 6960966673, 275802772, 6960954032, 10187204502, 277499979, 10187204494, 3574909097, 277357426, 277906877, 278633504, 11140318775, 6960954045, 4691782363], "tags": {"abutters": "mixed", "bicycle": "yes", "foot": "yes", "highway": "trunk", "lanes": "2", "maxspeed": "60", "name": "Ruthven Street", "network": "AU:QLD;AU:QLD:SSTR", "oneway": "yes", "ref": "A3;ACW", "surface": "asphalt"}}, {"type": "way", "id": 427212686, "nodes": [21498373, 4264537823, 3580625836, 541398171, 332792798, 6957365695, 21304365], "tags": {"foot": "yes", "highway": "trunk", "lanes": "2", "maxspeed": "60", "name": "Hume Street", "network": "AU:QLD;AU:QLD:T", "oneway": "yes", "ref": "A3;ACW", "surface": "paved"}}, {"type": "way", "id": 427212687, "nodes": [4264537818, 6957365694, 10308360562, 10308360561, 4264537819, 4264537820, 4264537821, 4264537824], "tags": {"foot": "yes", "highway": "trunk", "lanes": "2", "maxspeed": "60", "name": "Hume Street", "network": "AU:QLD;AU:QLD:T", "oneway": "yes", "ref": "A3;ACW", "surface": "paved"}}, {"type": "way", "id": 427212688, "nodes": [541398179, 6950108853, 6950108855, 312149432, 293115978, 312149435, 4264537825], "tags": {"bicycle": "yes", "foot": "yes", "highway": "trunk", "lanes": "4", "maxspeed": "60", "name": "Hume Street", "network": "AU:QLD;AU:QLD:T", "oneway": "no", "ref": "A3;ACW", "surface": "asphalt"}}, {"type": "way", "id": 494203456, "nodes": [21554714, 303266796, 3594368136, 303266792, 21555313, 10578223431, 5977673649, 282838712, 274234372], "tags": {"foot": "yes", "highway": "trunk", "lanes": "4", "maxspeed": "60", "name": "Hume Street", "network": "AU:QLD;AU:QLD:T", "ref": "A3;ACW", "surface": "paved"}}, {"type": "way", "id": 558791759, "nodes": [21305267, 6957365725, 11140318785, 1648161255], "tags": {"foot": "yes", "highway": "trunk", "lanes": "4", "maxspeed": "60", "name": "James Street", "network": "AU:QLD;AU:QLD", "oneway": "no", "ref": "A3;A21", "source:maxspeed": "sign", "surface": "asphalt"}}, {"type": "way", "id": 558791762, "nodes": [21305267, 6957365726, 11140318792, 1648161236], "tags": {"bicycle": "yes", "foot": "yes", "highway": "trunk", "lanes": "4", "maxspeed": "60", "name": "Hume Street", "network": "AU:QLD;AU:QLD:T", "oneway": "no", "ref": "A3;ACW", "surface": "asphalt"}}, {"type": "way", "id": 558791765, "nodes": [4691782363, 21268028], "tags": {"foot": "yes", "highway": "trunk", "lanes": "4", "maxspeed": "60", "name": "James Street", "network": "AU:QLD;AU:QLD", "oneway": "no", "ref": "A3;A21", "source:maxspeed": "sign", "surface": "asphalt"}}, {"type": "way", "id": 570364398, "nodes": [4264537825, 21498373], "tags": {"foot": "yes", "highway": "trunk", "lanes": "2", "maxspeed": "60", "name": "Hume Street", "network": "AU:QLD;AU:QLD:T", "oneway": "yes", "ref": "A3;ACW", "surface": "paved"}}, {"type": "way", "id": 570364399, "nodes": [4264537824, 4264537825], "tags": {"foot": "yes", "highway": "trunk", "lanes": "2", "maxspeed": "60", "name": "Hume Street", "network": "AU:QLD;AU:QLD:T", "oneway": "yes", "ref": "A3;ACW", "surface": "paved"}}, {"type": "way", "id": 581264876, "nodes": [1648161236, 541398179], "tags": {"foot": "yes", "highway": "trunk", "lanes": "4", "maxspeed": "60", "name": "Hume Street", "network": "AU:QLD;AU:QLD:T", "oneway": "no", "ref": "A3;ACW", "surface": "asphalt"}}, {"type": "way", "id": 581274657, "nodes": [4264537817, 4264537818], "tags": {"foot": "yes", "highway": "trunk", "lanes": "2", "maxspeed": "60", "name": "Hume Street", "network": "AU:QLD;AU:QLD:T", "oneway": "yes", "ref": "A3;ACW", "surface": "paved"}}, {"type": "way", "id": 581274658, "nodes": [21554714, 4264537816, 6957365696, 4264537817], "tags": {"foot": "yes", "highway": "trunk", "lanes": "2", "maxspeed": "60", "name": "Hume Street", "network": "AU:QLD;AU:QLD:T", "oneway": "yes", "ref": "A3;ACW", "surface": "paved"}}, {"type": "way", "id": 581274660, "nodes": [3594368167, 6957365700, 3580625816, 3580625808, 21554714], "tags": {"foot": "yes", "highway": "trunk", "lanes": "2", "maxspeed": "60", "name": "Hume Street", "network": "AU:QLD;AU:QLD:T", "oneway": "yes", "ref": "A3;ACW", "surface": "paved"}}, {"type": "way", "id": 581274663, "nodes": [21304365, 3594368167], "tags": {"foot": "yes", "highway": "trunk", "lanes": "2", "maxspeed": "60", "name": "Hume Street", "network": "AU:QLD;AU:QLD:T", "oneway": "yes", "ref": "A3;ACW", "surface": "paved"}}, {"type": "way", "id": 786028832, "nodes": [280003773, 274872102, 5470902260], "tags": {"foot": "yes", "highway": "trunk", "lanes": "4", "maxspeed": "60", "name": "James Street", "network": "AU:QLD", "oneway": "no", "ref": "A21", "source:maxspeed": "sign", "surface": "asphalt"}}, {"type": "way", "id": 786028833, "nodes": [6961448868, 11140318776, 6960954047, 21268028], "tags": {"foot": "yes", "highway": "trunk", "lanes": "4", "maxspeed": "60", "name": "James Street", "network": "AU:QLD;AU:QLD", "oneway": "no", "ref": "A3;A21", "source:maxspeed": "sign", "surface": "asphalt"}}, {"type": "way", "id": 786028834, "nodes": [6961452023, 11140318783, 6953806244, 11140318782, 6953806245, 11140318781, 6961451916, 6954021912, 11140318779, 6961448865], "tags": {"foot": "yes", "highway": "trunk", "lanes": "4", "maxspeed": "60", "name": "James Street", "network": "AU:QLD;AU:QLD", "oneway": "no", "ref": "A3;A21", "source:maxspeed": "sign", "surface": "asphalt"}}, {"type": "way", "id": 792671484, "nodes": [4691782353, 4691782354, 2139043708], "tags": {"foot": "yes", "highway": "trunk", "lanes": "4", "maxspeed": "60", "name": "James Street", "network": "AU:QLD", "oneway": "no", "ref": "A21", "source:maxspeed": "sign", "surface": "asphalt"}}, {"type": "way", "id": 795314455, "nodes": [6961448865, 11263774056, 6961448868], "tags": {"foot": "yes", "highway": "trunk", "lanes": "4", "maxspeed": "60", "name": "James Street", "network": "AU:QLD;AU:QLD", "oneway": "no", "ref": "A3;A21", "source:maxspeed": "sign", "surface": "asphalt"}}, {"type": "way", "id": 795314456, "nodes": [6961430503, 11124381999, 10187204504, 498836981, 6953806261, 1561376978, 6960966638, 6833567109, 6960954030, 498836987, 6960966674, 6960954029, 6953820097, 279255791, 6953820099, 6953820085, 7519691319, 498836991], "tags": {"abutters": "mixed", "bicycle": "yes", "foot": "yes", "highway": "trunk", "lanes": "2", "maxspeed": "60", "name": "Ruthven Street", "network": "AU:QLD;AU:QLD:SSTR", "oneway": "yes", "ref": "A3;ACW", "surface": "asphalt"}}, {"type": "way", "id": 1201596881, "nodes": [4690367439, 4690367440, 496896479, 1945436380, 496896532], "tags": {"foot": "yes", "highway": "trunk", "lanes": "4", "maxspeed": "60", "name": "James Street", "network": "AU:QLD", "oneway": "no", "ref": "A21", "source:maxspeed": "sign", "surface": "asphalt"}}, {"type": "way", "id": 1201596882, "nodes": [277357415, 1572292087, 273203922], "tags": {"foot": "yes", "highway": "trunk", "lanes": "4", "maxspeed": "60", "name": "James Street", "network": "AU:QLD", "oneway": "no", "ref": "A21", "source:maxspeed": "sign", "surface": "asphalt"}}, {"type": "way", "id": 1201596883, "nodes": [8234435082, 277357415], "tags": {"foot": "yes", "highway": "trunk", "lanes": "4", "maxspeed": "60", "name": "James Street", "network": "AU:QLD", "oneway": "no", "ref": "A21", "source:maxspeed": "sign", "surface": "asphalt"}}, {"type": "way", "id": 1201596884, "nodes": [273203922, 4690367439], "tags": {"foot": "yes", "highway": "trunk", "lanes": "4", "maxspeed": "60", "name": "James Street", "network": "AU:QLD", "oneway": "no", "ref": "A21", "source:maxspeed": "sign", "surface": "asphalt"}}, {"type": "way", "id": 1201596886, "nodes": [277906872, 8234435082], "tags": {"foot": "yes", "highway": "trunk", "lanes": "4", "maxspeed": "60", "name": "James Street", "network": "AU:QLD", "oneway": "no", "ref": "A21", "source:maxspeed": "sign", "surface": "asphalt"}}, {"type": "way", "id": 1201596887, "nodes": [2139043708, 277906872], "tags": {"foot": "yes", "highway": "trunk", "lanes": "4", "maxspeed": "60", "name": "James Street", "network": "AU:QLD", "oneway": "no", "ref": "A21", "source:maxspeed": "sign", "surface": "asphalt"}}]}