{"version": 0.6, "generator": "Overpass API 0.7.61.5 4133829e", "osm3s": {"timestamp_osm_base": "2023-12-06T09:24:30Z", "copyright": "The data included in this document is from www.openstreetmap.org. The data is made available under ODbL."}, "elements": [{"type": "node", "id": 26428563, "lat": -33.9195608, "lon": 151.0400011}, {"type": "node", "id": 252700049, "lat": -33.9213119, "lon": 151.0393105, "tags": {"highway": "traffic_signals"}}, {"type": "node", "id": 255960161, "lat": -33.9247616, "lon": 151.0379717}, {"type": "node", "id": 255960433, "lat": -33.9250497, "lon": 151.0379143, "tags": {"highway": "traffic_signals"}}, {"type": "node", "id": 255961053, "lat": -33.9196051, "lon": 151.0401375}, {"type": "node", "id": 255961054, "lat": -33.9205711, "lon": 151.0397686}, {"type": "node", "id": 255961055, "lat": -33.9215421, "lon": 151.0394079, "tags": {"highway": "traffic_signals"}}, {"type": "node", "id": 255961056, "lat": -33.9225253, "lon": 151.0390917}, {"type": "node", "id": 255961769, "lat": -33.9254416, "lon": 151.0381073}, {"type": "node", "id": 581796715, "lat": -33.9190375, "lon": 151.0403507}, {"type": "node", "id": 581796771, "lat": -33.9190261, "lon": 151.0401956}, {"type": "node", "id": 1330699428, "lat": -33.9164271, "lon": 151.0413098, "tags": {"button_operated": "yes", "crossing": "traffic_signals", "highway": "traffic_signals", "traffic_signals:direction": "forward", "traffic_signals:sound": "yes"}}, {"type": "node", "id": 1330699430, "lat": -33.9161087, "lon": 151.0414197}, {"type": "node", "id": 1607225617, "lat": -33.9251881, "lon": 151.0381112, "tags": {"crossing": "traffic_signals", "highway": "crossing"}}, {"type": "node", "id": 1677928016, "lat": -33.9214748, "lon": 151.0392284}, {"type": "node", "id": 1677928018, "lat": -33.9234334, "lon": 151.0384613}, {"type": "node", "id": 1677928020, "lat": -33.9224828, "lon": 151.038843}, {"type": "node", "id": 1816237391, "lat": -33.916939, "lon": 151.0409614}, {"type": "node", "id": 1816237520, "lat": -33.9164767, "lon": 151.0412908}, {"type": "node", "id": 1816237573, "lat": -33.9185241, "lon": 151.040542}, {"type": "node", "id": 1816237578, "lat": -33.9184937, "lon": 151.0404021}, {"type": "node", "id": 1816237613, "lat": -33.9165799, "lon": 151.0410939}, {"type": "node", "id": 1816237629, "lat": -33.9164745, "lon": 151.0411329}, {"type": "node", "id": 1816237683, "lat": -33.9169507, "lon": 151.0410974}, {"type": "node", "id": 1816237738, "lat": -33.9165871, "lon": 151.0412431}, {"type": "node", "id": 1832733556, "lat": -33.9161448, "lon": 151.0412452}, {"type": "node", "id": 1836145546, "lat": -33.9167662, "lon": 151.041175}, {"type": "node", "id": 1836152113, "lat": -33.9202171, "lon": 151.0398958}, {"type": "node", "id": 1836152116, "lat": -33.9220219, "lon": 151.0392723}, {"type": "node", "id": 1836185834, "lat": -33.9234813, "lon": 151.0387189}, {"type": "node", "id": 1836185839, "lat": -33.9240597, "lon": 151.0385071}, {"type": "node", "id": 1836185844, "lat": -33.9246366, "lon": 151.0382432}, {"type": "node", "id": 1836185846, "lat": -33.9248934, "lon": 151.0381335}, {"type": "node", "id": 1836185848, "lat": -33.9249651, "lon": 151.0381189}, {"type": "node", "id": 1836185849, "lat": -33.925041, "lon": 151.0381048}, {"type": "node", "id": 1836185851, "lat": -33.925062, "lon": 151.0381005, "tags": {"highway": "traffic_signals"}}, {"type": "node", "id": 1836185854, "lat": -33.9254611, "lon": 151.037913}, {"type": "node", "id": 1838368366, "lat": -33.9214237, "lon": 151.0392541, "tags": {"highway": "traffic_signals"}}, {"type": "node", "id": 1838368368, "lat": -33.9205402, "lon": 151.0396265}, {"type": "node", "id": 1838368380, "lat": -33.9213532, "lon": 151.0394826, "tags": {"highway": "traffic_signals"}}, {"type": "node", "id": 1838368382, "lat": -33.9243806, "lon": 151.0381049}, {"type": "node", "id": 1838370802, "lat": -33.9248404, "lon": 151.0379498}, {"type": "node", "id": 2365225496, "lat": -33.9251561, "lon": 151.0379056, "tags": {"crossing": "traffic_signals", "highway": "crossing"}}, {"type": "node", "id": 3489950029, "lat": -33.9166537, "lon": 151.0410682, "tags": {"button_operated": "yes", "crossing": "traffic_signals", "highway": "traffic_signals", "traffic_signals:direction": "forward", "traffic_signals:sound": "yes"}}, {"type": "node", "id": 9806016855, "lat": -33.9253395, "lon": 151.0381085}, {"type": "node", "id": 9946209271, "lat": -33.9212363, "lon": 151.0393414, "tags": {"crossing": "traffic_signals", "highway": "crossing"}}, {"type": "node", "id": 9946209272, "lat": -33.9212759, "lon": 151.0395109, "tags": {"crossing": "traffic_signals", "highway": "crossing"}}, {"type": "node", "id": 9946374961, "lat": -33.9249161, "lon": 151.0379342}, {"type": "node", "id": 9946374962, "lat": -33.9251831, "lon": 151.0379056}, {"type": "node", "id": 9946374963, "lat": -33.9253265, "lon": 151.0379078}, {"type": "node", "id": 10043777303, "lat": -33.9162585, "lon": 151.0413728}, {"type": "node", "id": 10043847918, "lat": -33.9175244, "lon": 151.0407552}, {"type": "node", "id": 10086477550, "lat": -33.9166624, "lon": 151.0412145, "tags": {"highway": "crossing"}}, {"type": "node", "id": 10086477551, "lat": -33.9163888, "lon": 151.0411621, "tags": {"highway": "crossing"}}, {"type": "way", "id": 23337030, "nodes": [1816237578, 10043847918, 1816237391], "tags": {"bridge": "yes", "highway": "trunk", "lanes": "2", "layer": "1", "maxspeed": "60", "name": "Stacey Street", "network": "AU:NSW", "old_network": "MR", "old_ref": "6", "oneway": "yes", "ref": "A6", "surface": "asphalt"}}, {"type": "way", "id": 23628677, "nodes": [1816237683, 1816237573], "tags": {"bridge": "yes", "highway": "trunk", "lanes": "3", "layer": "1", "maxspeed": "60", "name": "Stacey Street", "network": "AU:NSW", "old_network": "MR", "old_ref": "6", "oneway": "yes", "ref": "A6", "surface": "asphalt"}}, {"type": "way", "id": 23628685, "nodes": [1816237573, 581796715], "tags": {"highway": "trunk", "lanes": "3", "maxspeed": "60", "name": "Stacey Street", "network": "AU:NSW", "old_network": "MR", "old_ref": "6", "oneway": "yes", "ref": "A6", "surface": "asphalt"}}, {"type": "way", "id": 45643680, "nodes": [581796771, 1816237578], "tags": {"highway": "trunk", "lanes": "2", "maxspeed": "60", "name": "Stacey Street", "network": "AU:NSW", "old_network": "MR", "old_ref": "6", "oneway": "yes", "ref": "A6", "source": "nearmap", "surface": "asphalt"}}, {"type": "way", "id": 172746737, "nodes": [581796715, 255961053, 1836152113, 255961054], "tags": {"highway": "trunk", "lanes": "2", "maxspeed": "70", "name": "Stacey Street", "network": "AU:NSW", "old_network": "MR", "old_ref": "6", "oneway": "yes", "ref": "A6", "source:name": "knowledge", "surface": "asphalt"}}, {"type": "way", "id": 172752939, "nodes": [1836185844, 1836185846, 1836185848, 1836185849, 1836185851], "tags": {"highway": "trunk", "lanes": "3", "maxspeed": "60", "name": "Stacey Street", "network": "AU:NSW", "note": "Roadworks temporary speed reduction 70 -> 60 - update once works complete", "old_network": "MR", "old_ref": "6", "oneway": "yes", "ref": "A6", "source:name": "knowledge", "surface": "asphalt"}}, {"type": "way", "id": 264403841, "nodes": [1836185851, 1607225617], "tags": {"highway": "trunk", "lanes": "3", "maxspeed": "60", "name": "Fairford Road", "network": "AU:NSW", "old_network": "MR", "old_ref": "6", "oneway": "yes", "ref": "A6", "source:name": "knowledge", "surface": "asphalt"}}, {"type": "way", "id": 264403850, "nodes": [255960161, 1838368382, 1677928018, 1677928020, 1677928016, 1838368366], "tags": {"highway": "trunk", "lanes": "2", "maxspeed": "70", "name": "Stacey Street", "network": "AU:NSW", "old_network": "MR", "old_ref": "6", "oneway": "yes", "ref": "A6", "source:name": "knowledge", "surface": "asphalt"}}, {"type": "way", "id": 385523772, "nodes": [26428563, 581796771], "tags": {"highway": "trunk", "lanes": "2", "maxspeed": "70", "name": "Stacey Street", "network": "AU:NSW", "old_network": "MR", "old_ref": "6", "oneway": "yes", "ref": "A6", "source:name": "knowledge", "surface": "asphalt"}}, {"type": "way", "id": 385523779, "nodes": [252700049, 9946209271, 1838368368], "tags": {"highway": "trunk", "lanes": "3", "maxspeed": "60", "name": "Stacey Street", "network": "AU:NSW", "old_network": "MR", "old_ref": "6", "oneway": "yes", "ref": "A6", "source:name": "knowledge", "surface": "asphalt"}}, {"type": "way", "id": 575696080, "nodes": [1836145546, 1816237683], "tags": {"highway": "trunk", "lanes": "3", "maxspeed": "60", "name": "Stacey Street", "network": "AU:NSW", "old_network": "MR", "old_ref": "6", "oneway": "yes", "ref": "A6", "source": "survey", "surface": "asphalt"}}, {"type": "way", "id": 575696081, "nodes": [1816237738, 10086477550, 1836145546], "tags": {"highway": "trunk", "lanes": "3", "maxspeed": "60", "name": "Stacey Street", "network": "AU:NSW", "old_network": "MR", "old_ref": "6", "oneway": "yes", "ref": "A6", "source": "survey", "surface": "asphalt"}}, {"type": "way", "id": 575696082, "nodes": [1816237520, 1816237738], "tags": {"highway": "trunk", "lanes": "3", "maxspeed": "60", "name": "Stacey Street", "network": "AU:NSW", "old_network": "MR", "old_ref": "6", "oneway": "yes", "ref": "A6", "source": "survey", "surface": "asphalt"}}, {"type": "way", "id": 575696083, "nodes": [1330699430, 10043777303, 1330699428, 1816237520], "tags": {"highway": "trunk", "lanes": "4", "maxspeed": "60", "name": "Stacey Street", "network": "AU:NSW", "old_network": "MR", "old_ref": "6", "oneway": "yes", "ref": "A6", "source": "survey", "surface": "asphalt", "turn:lanes": "|||right"}}, {"type": "way", "id": 575696084, "nodes": [1816237629, 10086477551, 1832733556], "tags": {"highway": "trunk", "lanes": "2", "maxspeed": "60", "name": "Stacey Street", "network": "AU:NSW", "old_network": "MR", "old_ref": "6", "oneway": "yes", "ref": "A6", "surface": "asphalt"}}, {"type": "way", "id": 575696085, "nodes": [1816237613, 1816237629], "tags": {"highway": "trunk", "lanes": "2", "maxspeed": "60", "name": "Stacey Street", "network": "AU:NSW", "old_network": "MR", "old_ref": "6", "oneway": "yes", "ref": "A6", "surface": "asphalt"}}, {"type": "way", "id": 575696086, "nodes": [1816237391, 3489950029, 1816237613], "tags": {"highway": "trunk", "lanes": "2", "maxspeed": "60", "name": "Stacey Street", "network": "AU:NSW", "old_network": "MR", "old_ref": "6", "oneway": "yes", "ref": "A6", "surface": "asphalt"}}, {"type": "way", "id": 575697654, "nodes": [255961054, 9946209272, 1838368380], "tags": {"highway": "trunk", "lanes": "2", "maxspeed": "70", "name": "Stacey Street", "network": "AU:NSW", "old_network": "MR", "old_ref": "6", "oneway": "yes", "ref": "A6", "source:name": "knowledge", "surface": "asphalt"}}, {"type": "way", "id": 575697655, "nodes": [1838368368, 26428563], "tags": {"highway": "trunk", "lanes": "3", "maxspeed": "60", "name": "Stacey Street", "network": "AU:NSW", "old_network": "MR", "old_ref": "6", "oneway": "yes", "ref": "A6", "source:name": "knowledge", "surface": "asphalt"}}, {"type": "way", "id": 575697656, "nodes": [1838368366, 252700049], "tags": {"highway": "trunk", "lanes": "2", "maxspeed": "70", "name": "Stacey Street", "network": "AU:NSW", "old_network": "MR", "old_ref": "6", "oneway": "yes", "ref": "A6", "source:name": "knowledge", "surface": "asphalt"}}, {"type": "way", "id": 575697657, "nodes": [1838368380, 255961055], "tags": {"highway": "trunk", "lanes": "2", "maxspeed": "70", "name": "Stacey Street", "network": "AU:NSW", "old_network": "MR", "old_ref": "6", "oneway": "yes", "ref": "A6", "source:name": "knowledge", "surface": "asphalt"}}, {"type": "way", "id": 575697658, "nodes": [255961055, 1836152116, 255961056, 1836185834], "tags": {"highway": "trunk", "lanes": "2", "maxspeed": "60", "name": "Stacey Street", "network": "AU:NSW", "note": "Roadworks temporary speed reduction 70 -> 60 - update once works complete", "old_network": "MR", "old_ref": "6", "oneway": "yes", "ref": "A6", "source:name": "knowledge", "surface": "asphalt"}}, {"type": "way", "id": 575698378, "nodes": [255960433, 9946374961, 1838370802, 255960161], "tags": {"highway": "trunk", "lanes": "2", "maxspeed": "70", "name": "Stacey Street", "network": "AU:NSW", "old_network": "MR", "old_ref": "6", "oneway": "yes", "ref": "A6", "source:name": "knowledge", "surface": "asphalt"}}, {"type": "way", "id": 575698379, "nodes": [1836185854, 9946374963, 9946374962, 2365225496, 255960433], "tags": {"highway": "trunk", "lanes": "3", "maxspeed": "70", "name": "Fairford Road", "network": "AU:NSW", "old_network": "MR", "old_ref": "6", "oneway": "yes", "ref": "A6", "source:name": "knowledge", "surface": "asphalt"}}, {"type": "way", "id": 575698380, "nodes": [1607225617, 9806016855, 255961769], "tags": {"foot": "no", "highway": "trunk", "lanes": "3", "maxspeed": "70", "name": "Fairford Road", "network": "AU:NSW", "old_network": "MR", "old_ref": "6", "oneway": "yes", "ref": "A6", "source:name": "knowledge", "surface": "asphalt"}}, {"type": "way", "id": 575698381, "nodes": [1836185834, 1836185839, 1836185844], "tags": {"highway": "trunk", "lanes": "3", "maxspeed": "60", "name": "Stacey Street", "network": "AU:NSW", "note": "Roadworks temporary speed reduction 70 -> 60 - update once works complete", "old_network": "MR", "old_ref": "6", "oneway": "yes", "ref": "A6", "source:name": "knowledge", "surface": "asphalt"}}]}