{"version": 0.6, "generator": "Overpass API 0.7.61.5 4133829e", "osm3s": {"timestamp_osm_base": "2023-12-06T10:03:22Z", "copyright": "The data included in this document is from www.openstreetmap.org. The data is made available under ODbL."}, "elements": [{"type": "node", "id": 29754986, "lat": -33.8991115, "lon": 150.9173598}, {"type": "node", "id": 29754987, "lat": -33.8992996, "lon": 150.9179055}, {"type": "node", "id": 36401788, "lat": -33.8995138, "lon": 150.9195828}, {"type": "node", "id": 36401795, "lat": -33.8995369, "lon": 150.9204979}, {"type": "node", "id": 36401801, "lat": -33.8994981, "lon": 150.9209871}, {"type": "node", "id": 36401828, "lat": -33.89743, "lon": 150.9261301}, {"type": "node", "id": 36401830, "lat": -33.8969851, "lon": 150.9274391}, {"type": "node", "id": 36425917, "lat": -33.9017192, "lon": 150.9184072, "tags": {"highway": "traffic_signals"}}, {"type": "node", "id": 36425918, "lat": -33.8994795, "lon": 150.9190777}, {"type": "node", "id": 36535839, "lat": -33.8931829, "lon": 150.9225231, "tags": {"highway": "traffic_signals"}}, {"type": "node", "id": 36535840, "lat": -33.894807, "lon": 150.9222129}, {"type": "node", "id": 288584433, "lat": -33.8971535, "lon": 150.9268645}, {"type": "node", "id": 288585324, "lat": -33.899391, "lon": 150.9214783}, {"type": "node", "id": 288585510, "lat": -33.8979323, "lon": 150.9252908, "tags": {"highway": "traffic_signals"}}, {"type": "node", "id": 1838160037, "lat": -33.898179, "lon": 150.9249245}, {"type": "node", "id": 1838160040, "lat": -33.8985712, "lon": 150.916256}, {"type": "node", "id": 1838160042, "lat": -33.8985743, "lon": 150.9241679}, {"type": "node", "id": 1838160044, "lat": -33.8989742, "lon": 150.9170165}, {"type": "node", "id": 1838160046, "lat": -33.8990924, "lon": 150.9224776}, {"type": "node", "id": 1838160047, "lat": -33.8994075, "lon": 150.9184276}, {"type": "node", "id": 1838244403, "lat": -33.8937819, "lon": 150.9224011}, {"type": "node", "id": 1838244406, "lat": -33.8937435, "lon": 150.9222475}, {"type": "node", "id": 1838244412, "lat": -33.8943834, "lon": 150.9222984}, {"type": "node", "id": 1838244418, "lat": -33.8947624, "lon": 150.9220196}, {"type": "node", "id": 1838244437, "lat": -33.8955206, "lon": 150.9220725}, {"type": "node", "id": 1838244440, "lat": -33.896025, "lon": 150.9219677}, {"type": "node", "id": 1838244442, "lat": -33.8961675, "lon": 150.9217174}, {"type": "node", "id": 1838244444, "lat": -33.89639, "lon": 150.9218613}, {"type": "node", "id": 1838244445, "lat": -33.8964549, "lon": 150.9216294}, {"type": "node", "id": 1838244449, "lat": -33.8966725, "lon": 150.9217351}, {"type": "node", "id": 1838244451, "lat": -33.8966935, "lon": 150.9215062}, {"type": "node", "id": 1838244453, "lat": -33.8969906, "lon": 150.9212949}, {"type": "node", "id": 1838244454, "lat": -33.8969915, "lon": 150.9215239}, {"type": "node", "id": 1838244457, "lat": -33.8972317, "lon": 150.9210368}, {"type": "node", "id": 1838244460, "lat": -33.8973202, "lon": 150.9212159}, {"type": "node", "id": 1838244463, "lat": -33.8980483, "lon": 150.920327}, {"type": "node", "id": 1838244466, "lat": -33.8981667, "lon": 150.9199572}, {"type": "node", "id": 1838244469, "lat": -33.8983819, "lon": 150.9199045}, {"type": "node", "id": 1838244489, "lat": -33.8984227, "lon": 150.9196862}, {"type": "node", "id": 1838244493, "lat": -33.89863, "lon": 150.9196472}, {"type": "node", "id": 1838244495, "lat": -33.8986516, "lon": 150.9194915}, {"type": "node", "id": 1838244496, "lat": -33.8989309, "lon": 150.9192836}, {"type": "node", "id": 1838244497, "lat": -33.8988532, "lon": 150.9194747}, {"type": "node", "id": 1838244498, "lat": -33.8992821, "lon": 150.9191404}, {"type": "node", "id": 1838244499, "lat": -33.8994865, "lon": 150.9192334}, {"type": "node", "id": 1838244500, "lat": -33.9000791, "lon": 150.9190596}, {"type": "node", "id": 1838244502, "lat": -33.9002195, "lon": 150.9188687}, {"type": "node", "id": 1838244506, "lat": -33.9011919, "lon": 150.9187604}, {"type": "node", "id": 1838244508, "lat": -33.9017841, "lon": 150.918592, "tags": {"highway": "traffic_signals"}}, {"type": "node", "id": 1838244510, "lat": -33.9019897, "lon": 150.9183113}, {"type": "node", "id": 1838244513, "lat": -33.9025287, "lon": 150.9183526}, {"type": "node", "id": 1838244516, "lat": -33.9030936, "lon": 150.9181677}, {"type": "node", "id": 1838244521, "lat": -33.9032851, "lon": 150.9178977}, {"type": "node", "id": 1838244523, "lat": -33.9037088, "lon": 150.9177891}, {"type": "node", "id": 1838244542, "lat": -33.9037559, "lon": 150.91798}, {"type": "node", "id": 1844279017, "lat": -33.8980716, "lon": 150.9151593}, {"type": "node", "id": 1844279032, "lat": -33.899168, "lon": 150.9174869}, {"type": "node", "id": 1844298259, "lat": -33.8972377, "lon": 150.9266251}, {"type": "node", "id": 1878552625, "lat": -33.8989432, "lon": 150.9229774, "tags": {"crossing": "traffic_signals", "highway": "crossing"}}, {"type": "node", "id": 2545968860, "lat": -33.8976771, "lon": 150.9257024}, {"type": "node", "id": 3761074997, "lat": -33.8977523, "lon": 150.9144584}, {"type": "node", "id": 3761311870, "lat": -33.8994826, "lon": 150.9191655}, {"type": "node", "id": 4381879992, "lat": -33.897846, "lon": 150.920574}, {"type": "node", "id": 4381880001, "lat": -33.8984315, "lon": 150.9198538}, {"type": "node", "id": 4381880007, "lat": -33.8985424, "lon": 150.9195743}, {"type": "node", "id": 4381880024, "lat": -33.898765, "lon": 150.9194053}, {"type": "node", "id": 4381880025, "lat": -33.8987695, "lon": 150.91664}, {"type": "node", "id": 4381880033, "lat": -33.8988685, "lon": 150.9169149}, {"type": "node", "id": 4381880042, "lat": -33.8990188, "lon": 150.9193758}, {"type": "node", "id": 4381880046, "lat": -33.8989932, "lon": 150.9172287}, {"type": "node", "id": 4381880049, "lat": -33.8990322, "lon": 150.922691}, {"type": "node", "id": 4381880051, "lat": -33.8990847, "lon": 150.9175125}, {"type": "node", "id": 4381880052, "lat": -33.8991114, "lon": 150.9192077}, {"type": "node", "id": 4381880059, "lat": -33.899158, "lon": 150.9191881}, {"type": "node", "id": 4381880061, "lat": -33.8991735, "lon": 150.9193101}, {"type": "node", "id": 4381880062, "lat": -33.8991747, "lon": 150.9178202}, {"type": "node", "id": 4381880076, "lat": -33.8992359, "lon": 150.9176968}, {"type": "node", "id": 4381880080, "lat": -33.8992615, "lon": 150.9181769}, {"type": "node", "id": 4381880088, "lat": -33.899326, "lon": 150.9185323}, {"type": "node", "id": 4381880090, "lat": -33.8993287, "lon": 150.9185587}, {"type": "node", "id": 4381880093, "lat": -33.899355, "lon": 150.9188246}, {"type": "node", "id": 4381880094, "lat": -33.8993561, "lon": 150.9181554}, {"type": "node", "id": 4381880095, "lat": -33.8993917, "lon": 150.9212474}, {"type": "node", "id": 4381880099, "lat": -33.8993793, "lon": 150.9191097}, {"type": "node", "id": 4381880100, "lat": -33.8993905, "lon": 150.9192544}, {"type": "node", "id": 4381880101, "lat": -33.8994196, "lon": 150.9208517}, {"type": "node", "id": 4381880102, "lat": -33.899414, "lon": 150.9196508}, {"type": "node", "id": 4381880103, "lat": -33.8994162, "lon": 150.919702}, {"type": "node", "id": 4381880105, "lat": -33.8994318, "lon": 150.9200585}, {"type": "node", "id": 4381880106, "lat": -33.899438, "lon": 150.9186479}, {"type": "node", "id": 4381880107, "lat": -33.8994407, "lon": 150.9204112}, {"type": "node", "id": 4381880108, "lat": -33.8994457, "lon": 150.92136}, {"type": "node", "id": 4381880109, "lat": -33.8994529, "lon": 150.9187562}, {"type": "node", "id": 4381880111, "lat": -33.8995197, "lon": 150.9207813}, {"type": "node", "id": 4381880115, "lat": -33.8995398, "lon": 150.9201121}, {"type": "node", "id": 4381880131, "lat": -33.8997809, "lon": 150.9191471}, {"type": "node", "id": 4381880136, "lat": -33.8998266, "lon": 150.9189797}, {"type": "node", "id": 4381880296, "lat": -33.8994941, "lon": 150.9193301, "tags": {"highway": "traffic_signals", "traffic_signals:direction": "forward"}}, {"type": "node", "id": 4381880297, "lat": -33.8993069, "lon": 150.9192758, "tags": {"highway": "traffic_signals", "traffic_signals:direction": "forward"}}, {"type": "node", "id": 4381880298, "lat": -33.8995753, "lon": 150.9190507, "tags": {"highway": "traffic_signals", "traffic_signals:direction": "forward"}}, {"type": "node", "id": 4381880299, "lat": -33.8993665, "lon": 150.9189595, "tags": {"highway": "traffic_signals", "traffic_signals:direction": "forward"}}, {"type": "node", "id": 4388967889, "lat": -33.8984315, "lon": 150.9244871}, {"type": "node", "id": 6208047303, "lat": -33.8994392, "lon": 150.9203392}, {"type": "node", "id": 6819261392, "lat": -33.8973295, "lon": 150.9263697}, {"type": "node", "id": 6819261394, "lat": -33.8983113, "lon": 150.9246947}, {"type": "node", "id": 6819261395, "lat": -33.8993419, "lon": 150.9216582}, {"type": "node", "id": 6819261397, "lat": -33.897985, "lon": 150.9204043}, {"type": "node", "id": 6819261398, "lat": -33.8961457, "lon": 150.9219367, "tags": {"maxheight": "5.3"}}, {"type": "node", "id": 6819261400, "lat": -33.8941428, "lon": 150.9223395}, {"type": "node", "id": 6819261403, "lat": -33.8961172, "lon": 150.9217282, "tags": {"maxheight": "5.3"}}, {"type": "node", "id": 9208782147, "lat": -33.8995396, "lon": 150.9201336}, {"type": "node", "id": 10239421108, "lat": -33.899789, "lon": 150.9189903, "tags": {"highway": "speed_camera", "maxspeed": "70"}}, {"type": "node", "id": 10239425509, "lat": -33.8989614, "lon": 150.9194101, "tags": {"highway": "speed_camera", "maxspeed": "70"}}, {"type": "way", "id": 5212210, "nodes": [3761311870, 36425918], "tags": {"highway": "primary", "lanes": "3", "maxspeed": "60", "name": "Cabramatta Road", "oneway": "yes", "surface": "paved", "turn:lanes": "none|none|right"}}, {"type": "way", "id": 220416664, "nodes": [1838244496, 4381880024, 1838244495, 4381880007, 1838244489, 1838244466, 1838244457, 1838244453, 1838244451, 1838244445, 1838244442, 6819261403, 1838244418, 1838244406], "tags": {"alt_name": "Cumberland Highway", "foot": "yes", "highway": "trunk", "lanes": "2", "maxspeed": "70", "name": "Joseph Street", "network": "AU:NSW", "old_network": "MR", "old_ref": "7", "oneway": "yes", "ref": "A28", "ref:start_date": "2013-05-30", "source:name": "NSW LPI Base Map", "source:name:date": "2016-03", "surface": "paved"}}, {"type": "way", "id": 285374528, "nodes": [6819261400, 1838244412, 36535840, 1838244437, 1838244440, 6819261398, 1838244444, 1838244449, 1838244454, 1838244460, 4381879992, 6819261397], "tags": {"alt_name": "Cumberland Highway", "foot": "yes", "highway": "trunk", "lanes": "2", "maxheight": "5.3", "maxspeed": "70", "name": "Joseph Street", "network": "AU:NSW", "old_network": "MR", "old_ref": "7", "oneway": "yes", "ref": "A28", "ref:start_date": "2013-05-30", "source:name": "NSW LPI Base Map", "source:name:date": "2016-03", "surface": "paved"}}, {"type": "way", "id": 372542934, "nodes": [4381880106, 1838160047, 4381880094, 29754987], "tags": {"highway": "primary", "lanes": "2", "maxspeed": "60", "name": "Cabramatta Road", "oneway": "yes", "surface": "paved"}}, {"type": "way", "id": 385523649, "nodes": [4381880099, 1838244498, 4381880059, 4381880052, 1838244496], "tags": {"alt_name": "Cumberland Highway", "foot": "yes", "highway": "trunk", "lanes": "3", "maxspeed": "70", "name": "Joseph Street", "network": "AU:NSW", "old_network": "MR", "old_ref": "7", "oneway": "yes", "ref": "A28", "ref:start_date": "2013-05-30", "source:name": "NSW LPI Base Map", "source:name:date": "2016-03", "surface": "paved"}}, {"type": "way", "id": 385523651, "nodes": [1838244523, 1838244521, 1838244510, 36425917, 1838244502], "tags": {"alt_name": "Cumberland Highway", "foot": "yes", "highway": "trunk", "lanes": "2", "maxspeed": "70", "name": "Orange Grove Road", "network": "AU:NSW", "old_network": "MR", "old_ref": "7", "oneway": "yes", "ref": "A28", "ref:start_date": "2013-05-30", "source:name": "NSW LPI Base Map", "source:name:date": "2016-03", "surface": "paved"}}, {"type": "way", "id": 403711781, "nodes": [4381880136, 10239421108, 4381880298, 36425918], "tags": {"alt_name": "Cumberland Highway", "foot": "yes", "highway": "trunk", "lanes": "3", "maxspeed": "70", "name": "Orange Grove Road", "network": "AU:NSW", "old_network": "MR", "old_ref": "7", "oneway": "yes", "ref": "A28", "ref:start_date": "2013-05-30", "source:name": "NSW LPI Base Map", "source:name:date": "2016-03", "surface": "paved"}}, {"type": "way", "id": 403711782, "nodes": [4381880131, 1838244500, 1838244506, 1838244508, 1838244513, 1838244516, 1838244542], "tags": {"alt_name": "Cumberland Highway", "foot": "yes", "highway": "trunk", "lanes": "2", "maxspeed": "70", "name": "Orange Grove Road", "network": "AU:NSW", "old_network": "MR", "old_ref": "7", "oneway": "yes", "ref": "A28", "ref:start_date": "2013-05-30", "shoulder": "no", "source:name": "NSW LPI Base Map", "source:name:date": "2016-03", "surface": "paved"}}, {"type": "way", "id": 440449424, "nodes": [36401801, 4381880111, 36401795, 9208782147, 4381880115, 36401788], "tags": {"highway": "primary", "lanes": "4", "maxspeed": "60", "name": "Cabramatta Road", "oneway": "yes", "surface": "paved", "turn:lanes": "left|none|none|right"}}, {"type": "way", "id": 440449425, "nodes": [4381880062, 4381880080, 4381880088, 4381880090, 4381880093, 4381880299, 4381880099], "tags": {"highway": "primary", "lanes": "4", "maxspeed": "60", "name": "Cabramatta Road", "oneway": "yes", "surface": "paved", "turn:lanes": "none|none|right|right"}}, {"type": "way", "id": 440449426, "nodes": [3761074997, 1844279017, 1838160040, 4381880025], "tags": {"highway": "primary", "lanes": "4", "maxspeed": "60", "name": "Cabramatta Road", "surface": "paved"}}, {"type": "way", "id": 567955333, "nodes": [288585324, 6819261395, 1838160046, 4381880049, 1878552625, 1838160042, 4388967889, 6819261394], "tags": {"highway": "primary", "lanes": "4", "maxspeed": "60", "name": "Cabramatta Road", "surface": "paved"}}, {"type": "way", "id": 580870813, "nodes": [288585510, 2545968860], "tags": {"highway": "primary", "lanes": "4", "maxspeed": "60", "name": "Cabramatta Road", "surface": "paved"}}, {"type": "way", "id": 580870814, "nodes": [4381880103, 4381880105, 6208047303, 4381880107, 4381880101], "tags": {"highway": "primary", "lanes": "2", "maxspeed": "60", "name": "Cabramatta Road", "oneway": "yes", "surface": "paved"}}, {"type": "way", "id": 580870815, "nodes": [4381880099, 4381880100], "tags": {"highway": "primary", "lanes": "2", "maxspeed": "60", "name": "Cabramatta Road", "oneway": "yes", "surface": "paved"}}, {"type": "way", "id": 580870816, "nodes": [4381880100, 1838244499], "tags": {"alt_name": "Cumberland Highway", "foot": "yes", "highway": "trunk", "lanes": "2", "maxspeed": "70", "name": "Joseph Street", "network": "AU:NSW", "old_network": "MR", "old_ref": "7", "oneway": "yes", "ref": "A28", "ref:start_date": "2013-05-30", "source:name": "NSW LPI Base Map", "source:name:date": "2016-03", "surface": "paved"}}, {"type": "way", "id": 580870817, "nodes": [36425918, 4381880099], "tags": {"alt_name": "Cumberland Highway", "foot": "yes", "highway": "trunk", "lanes": "3", "maxspeed": "70", "name": "Joseph Street", "network": "AU:NSW", "old_network": "MR", "old_ref": "7", "oneway": "yes", "ref": "A28", "ref:start_date": "2013-05-30", "source:name": "NSW LPI Base Map", "source:name:date": "2016-03", "surface": "paved"}}, {"type": "way", "id": 580870818, "nodes": [1838244499, 4381880131], "tags": {"alt_name": "Cumberland Highway", "foot": "yes", "highway": "trunk", "lanes": "2", "maxspeed": "70", "name": "Orange Grove Road", "network": "AU:NSW", "old_network": "MR", "old_ref": "7", "oneway": "yes", "ref": "A28", "ref:start_date": "2013-05-30", "shoulder": "no", "source:name": "NSW LPI Base Map", "source:name:date": "2016-03", "surface": "paved"}}, {"type": "way", "id": 580870819, "nodes": [1838244502, 4381880136], "tags": {"alt_name": "Cumberland Highway", "foot": "yes", "highway": "trunk", "lanes": "3", "maxspeed": "70", "name": "Orange Grove Road", "network": "AU:NSW", "old_network": "MR", "old_ref": "7", "oneway": "yes", "ref": "A28", "ref:start_date": "2013-05-30", "source:name": "NSW LPI Base Map", "source:name:date": "2016-03", "surface": "paved"}}, {"type": "way", "id": 727666364, "nodes": [2545968860, 36401828, 6819261392, 1844298259, 288584433, 36401830], "tags": {"highway": "primary", "lanes": "4", "maxspeed": "60", "name": "Cabramatta Road", "surface": "paved"}}, {"type": "way", "id": 727666365, "nodes": [6819261394, 1838160037, 288585510], "tags": {"highway": "primary", "lanes:backward": "2", "lanes:forward": "3", "maxspeed": "60", "name": "Cabramatta Road", "surface": "paved", "turn:lanes:forward": "none|none|right"}}, {"type": "way", "id": 727666366, "nodes": [4381880101, 4381880095, 288585324], "tags": {"highway": "primary", "lanes": "3", "maxspeed": "60", "name": "Cabramatta Road", "oneway": "yes", "surface": "paved", "turn:lanes": "none|none|right"}}, {"type": "way", "id": 727666367, "nodes": [288585324, 4381880108, 36401801], "tags": {"highway": "primary", "lanes": "2", "maxspeed": "60", "name": "Cabramatta Road", "oneway": "yes", "surface": "paved"}}, {"type": "way", "id": 727666368, "nodes": [36401788, 4381880296, 1838244499], "tags": {"highway": "primary", "lanes": "3", "maxspeed": "60", "name": "Cabramatta Road", "oneway": "yes", "surface": "paved", "turn:lanes": "none|none|right"}}, {"type": "way", "id": 727666369, "nodes": [6819261397, 1838244463, 1838244469, 4381880001], "tags": {"alt_name": "Cumberland Highway", "foot": "yes", "highway": "trunk", "lanes": "3", "maxspeed": "70", "name": "Joseph Street", "network": "AU:NSW", "old_network": "MR", "old_ref": "7", "oneway": "yes", "ref": "A28", "ref:start_date": "2013-05-30", "shoulder": "no", "source:name": "NSW LPI Base Map", "source:name:date": "2016-03", "surface": "paved", "turn:lanes": "none|none|right"}}, {"type": "way", "id": 727666370, "nodes": [4381880001, 1838244493, 1838244497, 10239425509, 4381880042], "tags": {"alt_name": "Cumberland Highway", "foot": "yes", "highway": "trunk", "lanes": "4", "maxspeed": "70", "name": "Joseph Street", "network": "AU:NSW", "old_network": "MR", "old_ref": "7", "oneway": "yes", "ref": "A28", "ref:start_date": "2013-05-30", "shoulder": "no", "source:name": "NSW LPI Base Map", "source:name:date": "2016-03", "surface": "paved", "turn:lanes": "none|none|none|right"}}, {"type": "way", "id": 727666372, "nodes": [36535839, 1838244403, 6819261400], "tags": {"alt_name": "Cumberland Highway", "foot": "yes", "highway": "trunk", "lanes": "3", "maxspeed": "70", "name": "Joseph Street", "network": "AU:NSW", "old_network": "MR", "old_ref": "7", "oneway": "yes", "ref": "A28", "ref:start_date": "2013-05-30", "shoulder": "no", "source:name": "NSW LPI Base Map", "source:name:date": "2016-03", "surface": "paved", "turn:lanes": "merge_to_right|none|none"}}, {"type": "way", "id": 727666375, "nodes": [4381880025, 4381880033, 4381880046, 4381880051, 4381880062], "tags": {"highway": "primary", "lanes": "2", "maxspeed": "60", "name": "Cabramatta Road", "oneway": "yes", "surface": "paved"}}, {"type": "way", "id": 727666376, "nodes": [1844279032, 29754986, 1838160044, 4381880025], "tags": {"highway": "primary", "lanes": "2", "maxspeed": "60", "name": "Cabramatta Road", "oneway": "yes", "surface": "paved"}}, {"type": "way", "id": 727666377, "nodes": [29754987, 4381880076, 1844279032], "tags": {"highway": "primary", "lanes": "3", "maxspeed": "60", "name": "Cabramatta Road", "oneway": "yes", "surface": "paved", "turn:lanes": "none|none|right"}}, {"type": "way", "id": 733672700, "nodes": [4381880042, 4381880061, 4381880297, 4381880100], "tags": {"alt_name": "Cumberland Highway", "foot": "yes", "highway": "trunk", "lanes": "4", "maxspeed": "70", "name": "Joseph Street", "network": "AU:NSW", "old_network": "MR", "old_ref": "7", "oneway": "yes", "ref": "A28", "ref:start_date": "2013-05-30", "shoulder": "no", "source:name": "NSW LPI Base Map", "source:name:date": "2016-03", "surface": "paved", "turn:lanes": "none|none|none|right"}}, {"type": "way", "id": 757085828, "nodes": [1838244499, 3761311870], "tags": {"highway": "primary", "lanes": "3", "maxspeed": "60", "name": "Cabramatta Road", "oneway": "yes", "surface": "paved", "turn:lanes": "none|none|right"}}, {"type": "way", "id": 790551288, "nodes": [4381880100, 4381880102, 4381880103], "tags": {"highway": "primary", "lanes": "2", "maxspeed": "60", "name": "Cabramatta Road", "oneway": "yes", "surface": "paved"}}, {"type": "way", "id": 790551289, "nodes": [36425918, 4381880109, 4381880106], "tags": {"highway": "primary", "lanes": "2", "maxspeed": "60", "name": "Cabramatta Road", "oneway": "yes", "surface": "paved"}}]}