{"version": 0.6, "generator": "Overpass API 0.7.61.5 4133829e", "osm3s": {"timestamp_osm_base": "2023-12-08T07:43:14Z", "copyright": "The data included in this document is from www.openstreetmap.org. The data is made available under ODbL."}, "elements": [{"type": "node", "id": 60982774, "lat": -32.1065782, "lon": 115.8259469, "tags": {"railway": "level_crossing"}}, {"type": "node", "id": 279518995, "lat": -32.1096732, "lon": 115.830444}, {"type": "node", "id": 279673461, "lat": -32.1125721, "lon": 115.8330616}, {"type": "node", "id": 279673636, "lat": -32.1176888, "lon": 115.8407084}, {"type": "node", "id": 280218109, "lat": -32.113366, "lon": 115.8374714}, {"type": "node", "id": 280218204, "lat": -32.1151791, "lon": 115.8363239}, {"type": "node", "id": 280218684, "lat": -32.1123822, "lon": 115.8381198}, {"type": "node", "id": 280218685, "lat": -32.1120783, "lon": 115.8384392}, {"type": "node", "id": 280218686, "lat": -32.1115991, "lon": 115.8392121}, {"type": "node", "id": 280218855, "lat": -32.1114034, "lon": 115.8397182}, {"type": "node", "id": 280219754, "lat": -32.116366, "lon": 115.8388021}, {"type": "node", "id": 280219969, "lat": -32.1118173, "lon": 115.838798}, {"type": "node", "id": 280235974, "lat": -32.1084585, "lon": 115.8285203}, {"type": "node", "id": 722534051, "lat": -32.1066149, "lon": 115.8259813, "tags": {"railway": "level_crossing"}}, {"type": "node", "id": 1041109791, "lat": -32.1152197, "lon": 115.8364121}, {"type": "node", "id": 1041109853, "lat": -32.1183659, "lon": 115.8415941}, {"type": "node", "id": 1041109858, "lat": -32.1168117, "lon": 115.8393027}, {"type": "node", "id": 1041109863, "lat": -32.1148507, "lon": 115.8353605}, {"type": "node", "id": 1041109865, "lat": -32.1141337, "lon": 115.8343388}, {"type": "node", "id": 1041109869, "lat": -32.1099326, "lon": 115.8305341}, {"type": "node", "id": 1041109871, "lat": -32.1085433, "lon": 115.8284598}, {"type": "node", "id": 1041109872, "lat": -32.1075179, "lon": 115.8268898}, {"type": "node", "id": 1041109874, "lat": -32.1071383, "lon": 115.8263904}, {"type": "node", "id": 1041109875, "lat": -32.1066167, "lon": 115.8258962, "tags": {"railway": "level_crossing"}}, {"type": "node", "id": 1041109877, "lat": -32.1062251, "lon": 115.8256092}, {"type": "node", "id": 1041109878, "lat": -32.1050184, "lon": 115.8251493}, {"type": "node", "id": 1041109879, "lat": -32.1031927, "lon": 115.8245271}, {"type": "node", "id": 1041110123, "lat": -32.1115123, "lon": 115.8397445}, {"type": "node", "id": 1041110124, "lat": -32.1119007, "lon": 115.8388731}, {"type": "node", "id": 1041110125, "lat": -32.1124198, "lon": 115.8382304}, {"type": "node", "id": 1054249979, "lat": -32.1152756, "lon": 115.8362608}, {"type": "node", "id": 1054250006, "lat": -32.1153174, "lon": 115.8363512}, {"type": "node", "id": 1681143008, "lat": -32.1041665, "lon": 115.8249462}, {"type": "node", "id": 1690148968, "lat": -32.1030477, "lon": 115.8246222}, {"type": "node", "id": 1690148976, "lat": -32.1035597, "lon": 115.8248571}, {"type": "node", "id": 1690148977, "lat": -32.1041559, "lon": 115.8250456}, {"type": "node", "id": 1690148979, "lat": -32.1049823, "lon": 115.8252527}, {"type": "node", "id": 1690148981, "lat": -32.1062287, "lon": 115.8257063}, {"type": "node", "id": 1690148983, "lat": -32.1066503, "lon": 115.8259298, "tags": {"railway": "level_crossing"}}, {"type": "node", "id": 1690148984, "lat": -32.1070848, "lon": 115.8264431}, {"type": "node", "id": 1690148985, "lat": -32.10744, "lon": 115.8269246}, {"type": "node", "id": 1690148986, "lat": -32.1095449, "lon": 115.8300205}, {"type": "node", "id": 1690148988, "lat": -32.1103614, "lon": 115.831168}, {"type": "node", "id": 1690149004, "lat": -32.1104083, "lon": 115.8310311}, {"type": "node", "id": 1690149007, "lat": -32.1126389, "lon": 115.8329514}, {"type": "node", "id": 1690149009, "lat": -32.1135608, "lon": 115.8339129}, {"type": "node", "id": 1690149011, "lat": -32.1136494, "lon": 115.8338416}, {"type": "node", "id": 1690149013, "lat": -32.1140449, "lon": 115.8344076}, {"type": "node", "id": 1690149015, "lat": -32.1144629, "lon": 115.8349615}, {"type": "node", "id": 1690149016, "lat": -32.11456, "lon": 115.8348691}, {"type": "node", "id": 1690149017, "lat": -32.1148098, "lon": 115.8355351}, {"type": "node", "id": 1690149018, "lat": -32.1167237, "lon": 115.8394122}, {"type": "node", "id": 1690149019, "lat": -32.1173383, "lon": 115.8400165}, {"type": "node", "id": 1690149025, "lat": -32.1177307, "lon": 115.8405328}, {"type": "node", "id": 1690149028, "lat": -32.1177828, "lon": 115.8406099}, {"type": "node", "id": 1690149032, "lat": -32.117977, "lon": 115.8411632}, {"type": "node", "id": 1690149035, "lat": -32.1183297, "lon": 115.8418043}, {"type": "node", "id": 1834917216, "lat": -32.1057136, "lon": 115.8254469}, {"type": "node", "id": 1834917217, "lat": -32.1099818, "lon": 115.8306035}, {"type": "node", "id": 1834917222, "lat": -32.1057354, "lon": 115.82536}, {"type": "node", "id": 1834917224, "lat": -32.1134072, "lon": 115.8375626}, {"type": "node", "id": 1834917229, "lat": -32.1099746, "lon": 115.8307893}, {"type": "node", "id": 1834917234, "lat": -32.1035857, "lon": 115.8247195}, {"type": "node", "id": 1884296583, "lat": -32.1176312, "lon": 115.8406262}, {"type": "node", "id": 1894702783, "lat": -32.1157949, "lon": 115.8376646}, {"type": "node", "id": 1894702784, "lat": -32.1159069, "lon": 115.8375993}, {"type": "node", "id": 1894702790, "lat": -32.1164677, "lon": 115.8387313}, {"type": "node", "id": 1894702843, "lat": -32.1172013, "lon": 115.8400509}, {"type": "node", "id": 1907920220, "lat": -32.1116778, "lon": 115.8392912}, {"type": "node", "id": 1907920221, "lat": -32.112178, "lon": 115.8385146}, {"type": "node", "id": 2498087150, "lat": -32.1151203, "lon": 115.8363624, "tags": {"crossing": "traffic_signals", "highway": "crossing"}}, {"type": "node", "id": 2498087151, "lat": -32.1151604, "lon": 115.8364492, "tags": {"crossing": "traffic_signals", "highway": "crossing"}}, {"type": "node", "id": 2498087155, "lat": -32.1152509, "lon": 115.8364799, "tags": {"crossing": "traffic_signals", "highway": "crossing"}}, {"type": "node", "id": 2498087156, "lat": -32.1153483, "lon": 115.836418, "tags": {"crossing": "traffic_signals", "highway": "crossing"}}, {"type": "node", "id": 4297915475, "lat": -32.1075399, "lon": 115.827082, "tags": {"highway": "crossing"}}, {"type": "node", "id": 4297915476, "lat": -32.107609, "lon": 115.827028, "tags": {"highway": "crossing"}}, {"type": "node", "id": 4297915599, "lat": -32.1085532, "lon": 115.8286789, "tags": {"highway": "crossing"}}, {"type": "node", "id": 4297915600, "lat": -32.1086443, "lon": 115.8286026, "tags": {"highway": "crossing"}}, {"type": "node", "id": 4333773177, "lat": -32.112952, "lon": 115.8332285}, {"type": "node", "id": 6189537578, "lat": -32.1173329, "lon": 115.8402329}, {"type": "node", "id": 6207503423, "lat": -32.1025678, "lon": 115.8243459}, {"type": "node", "id": 6207503424, "lat": -32.1027143, "lon": 115.8243969}, {"type": "node", "id": 6207503425, "lat": -32.1028472, "lon": 115.8244747}, {"type": "node", "id": 6207503445, "lat": -32.1024212, "lon": 115.8242848}, {"type": "node", "id": 6241530753, "lat": -32.1123804, "lon": 115.8327285}, {"type": "node", "id": 6241530760, "lat": -32.1125079, "lon": 115.8330055}, {"type": "node", "id": 6241530761, "lat": -32.1125777, "lon": 115.8328987}, {"type": "node", "id": 6241570394, "lat": -32.1086356, "lon": 115.8288094}, {"type": "node", "id": 6241570401, "lat": -32.108607, "lon": 115.8285499}, {"type": "node", "id": 6241570402, "lat": -32.108511, "lon": 115.8286082}, {"type": "node", "id": 6241570692, "lat": -32.1082683, "lon": 115.8282224}, {"type": "node", "id": 6241577220, "lat": -32.1098067, "lon": 115.8305996}, {"type": "node", "id": 6241577230, "lat": -32.109466, "lon": 115.8301241}, {"type": "node", "id": 6241577233, "lat": -32.1095763, "lon": 115.830062}, {"type": "node", "id": 6241582840, "lat": -32.1153037, "lon": 115.8365946}, {"type": "node", "id": 6241582844, "lat": -32.1150441, "lon": 115.8365218}, {"type": "node", "id": 6241582845, "lat": -32.1149861, "lon": 115.8365579}, {"type": "node", "id": 6241582846, "lat": -32.1150142, "lon": 115.8364319}, {"type": "node", "id": 6241582850, "lat": -32.115008, "lon": 115.8359533}, {"type": "node", "id": 6276384601, "lat": -32.1075176, "lon": 115.8270468}, {"type": "node", "id": 6276384608, "lat": -32.1073248, "lon": 115.8267685}, {"type": "node", "id": 6415460182, "lat": -32.1124417, "lon": 115.8329478, "tags": {"highway": "traffic_signals", "traffic_signals": "signal", "traffic_signals:direction": "forward"}}, {"type": "node", "id": 6415460183, "lat": -32.1127202, "lon": 115.8330216, "tags": {"highway": "traffic_signals", "traffic_signals": "signal", "traffic_signals:direction": "forward"}}, {"type": "node", "id": 6415913824, "lat": -32.1153593, "lon": 115.8364419, "tags": {"highway": "traffic_signals", "traffic_signals": "signal", "traffic_signals:direction": "forward"}}, {"type": "node", "id": 6415913826, "lat": -32.1101351, "lon": 115.8309552}, {"type": "node", "id": 6415913851, "lat": -32.1125267, "lon": 115.8328547, "tags": {"crossing": "traffic_signals", "highway": "crossing"}}, {"type": "node", "id": 6415913876, "lat": -32.1151402, "lon": 115.8364617, "tags": {"highway": "traffic_signals", "traffic_signals": "signal", "traffic_signals:direction": "forward"}}, {"type": "node", "id": 6415913877, "lat": -32.1102027, "lon": 115.830842}, {"type": "node", "id": 6415919316, "lat": -32.1124583, "lon": 115.8329622, "tags": {"crossing": "traffic_signals", "highway": "crossing"}}, {"type": "node", "id": 6415919319, "lat": -32.1151483, "lon": 115.8362569, "tags": {"highway": "traffic_signals", "traffic_signals": "signal", "traffic_signals:direction": "forward"}}, {"type": "node", "id": 6420526835, "lat": -32.1125076, "lon": 115.8328382}, {"type": "node", "id": 6420526836, "lat": -32.1126549, "lon": 115.8331338}, {"type": "node", "id": 6420526837, "lat": -32.1152615, "lon": 115.8365029}, {"type": "node", "id": 6420526838, "lat": -32.1151027, "lon": 115.8363739}, {"type": "node", "id": 6420526839, "lat": -32.1141916, "lon": 115.8369543}, {"type": "node", "id": 6420526840, "lat": -32.1152459, "lon": 115.8361965}, {"type": "node", "id": 6420526875, "lat": -32.1116934, "lon": 115.8390251}, {"type": "node", "id": 6420527652, "lat": -32.1117776, "lon": 115.8390876}, {"type": "node", "id": 6420653449, "lat": -32.1176453, "lon": 115.8404063}, {"type": "node", "id": 6420653450, "lat": -32.1175482, "lon": 115.8405076}, {"type": "node", "id": 6420653451, "lat": -32.1177651, "lon": 115.8408174}, {"type": "node", "id": 6420653452, "lat": -32.1178668, "lon": 115.8407342}, {"type": "node", "id": 6420653453, "lat": -32.1180843, "lon": 115.8410843}, {"type": "node", "id": 6420653454, "lat": -32.1131788, "lon": 115.8335674}, {"type": "node", "id": 6420653455, "lat": -32.1157611, "lon": 115.8372912}, {"type": "node", "id": 6420653456, "lat": -32.1145022, "lon": 115.8368703}, {"type": "node", "id": 6422844889, "lat": -32.1086534, "lon": 115.8286174, "tags": {"highway": "traffic_signals", "traffic_signals:direction": "forward"}}, {"type": "node", "id": 6422844890, "lat": -32.1084012, "lon": 115.8284323, "tags": {"highway": "traffic_signals", "traffic_signals:direction": "forward"}}, {"type": "node", "id": 6593986563, "lat": -32.1033693, "lon": 115.8246081}, {"type": "node", "id": 9435755510, "lat": -32.109336, "lon": 115.8299182}, {"type": "node", "id": 10728812905, "lat": -32.1170359, "lon": 115.8396065, "tags": {"highway": "crossing"}}, {"type": "node", "id": 10728812906, "lat": -32.1169428, "lon": 115.8397052, "tags": {"highway": "crossing"}}, {"type": "way", "id": 25702320, "nodes": [1054249979, 280218204], "tags": {"cycleway": "lane", "highway": "primary", "maxspeed": "60", "maxspeed:type": "sign", "name": "Berrigan Drive", "oneway": "yes", "source:maxspeed": "https://portal-mainroads.opendata.arcgis.com/datasets", "surface": "paved"}}, {"type": "way", "id": 580640510, "nodes": [6420653454, 1690149009, 1690149013, 1690149015, 1690149017, 6241582850], "tags": {"highway": "primary", "lanes": "3", "maxspeed": "70", "name": "North Lake Road", "oneway": "yes", "sidewalk:left": "separate", "sidewalk:right": "no", "surface": "asphalt", "turn:lanes": "left|none|none"}}, {"type": "way", "id": 580640511, "nodes": [1054250006, 1054249979], "tags": {"highway": "primary", "maxspeed": "70", "name": "North Lake Road", "oneway": "yes", "surface": "paved"}}, {"type": "way", "id": 580640512, "nodes": [1041109791, 1054250006], "tags": {"cycleway": "lane", "highway": "primary", "maxspeed": "60", "name": "Berrigan Drive", "oneway": "yes", "source:maxspeed": "https://portal-mainroads.opendata.arcgis.com/datasets", "surface": "paved"}}, {"type": "way", "id": 580640513, "nodes": [6420526837, 6241582840, 1894702783, 280219754, 1690149018, 10728812906, 1894702843, 6189537578, 6420653450, 1884296583, 279673636, 6420653451, 1690149032, 1690149035], "tags": {"highway": "primary", "maxspeed": "70", "name": "North Lake Road", "oneway": "yes", "surface": "paved"}}, {"type": "way", "id": 580640515, "nodes": [1041109853, 6420653453, 6420653452, 1690149028, 1690149025, 6420653449, 1690149019, 10728812905, 1041109858, 1894702790, 1894702784, 6420653455], "tags": {"highway": "primary", "maxspeed": "70", "name": "North Lake Road", "oneway": "yes", "surface": "paved"}}, {"type": "way", "id": 663138325, "nodes": [6207503445, 6207503423, 6207503424, 6207503425, 1690148968, 1690148976, 1690148977, 1690148979, 1834917216, 1690148981, 60982774, 722534051, 1690148984, 6276384608, 1690148985, 6276384601, 4297915475, 6241570692, 6422844890, 280235974, 6241570402, 4297915599, 6241570394, 9435755510, 6241577230, 279518995, 6241577220, 1834917229, 6415913826, 1690148988, 6415460182, 6415919316, 6241530760], "tags": {"highway": "primary", "lanes": "2", "maxspeed": "70", "name": "North Lake Road", "oneway": "yes", "surface": "paved"}}, {"type": "way", "id": 663138326, "nodes": [6420526835, 6241530753, 1690149004, 6415913877, 1834917217, 1041109869, 6241577233, 1690148986, 6422844889, 4297915600, 6241570401, 1041109871, 4297915476, 1041109872, 1041109874, 1690148983, 1041109875, 1041109877, 1834917222, 1041109878, 1681143008, 1834917234, 6593986563, 1041109879], "tags": {"highway": "primary", "maxspeed": "70", "name": "North Lake Road", "oneway": "yes", "surface": "paved"}}, {"type": "way", "id": 666633936, "nodes": [6241530760, 279673461], "tags": {"highway": "primary", "maxspeed": "70", "name": "North Lake Road", "oneway": "yes", "surface": "paved"}}, {"type": "way", "id": 666633937, "nodes": [1690149007, 6241530761], "tags": {"highway": "primary", "maxspeed": "70", "name": "North Lake Road", "oneway": "yes", "surface": "paved"}}, {"type": "way", "id": 675440746, "nodes": [1041110123, 1907920220, 6420527652, 1041110124, 1907920221, 1041110125, 1834917224, 6420653456], "tags": {"cycleway": "lane", "highway": "primary", "lanes": "2", "lit": "yes", "maxspeed": "60", "name": "Berrigan Drive", "oneway": "yes", "sidewalk:left": "separate", "sidewalk:right": "no", "source:maxspeed": "https://portal-mainroads.opendata.arcgis.com/datasets", "surface": "asphalt"}}, {"type": "way", "id": 684754705, "nodes": [1054249979, 6420526840, 1041109863, 1690149016, 1041109865, 1690149011, 4333773177, 6415460183], "tags": {"highway": "primary", "lanes": "2", "maxspeed": "70", "name": "North Lake Road", "oneway": "yes", "surface": "asphalt"}}, {"type": "way", "id": 684754722, "nodes": [280218204, 1041109791], "tags": {"highway": "primary", "maxspeed": "70", "name": "North Lake Road", "oneway": "yes", "surface": "paved"}}, {"type": "way", "id": 684754725, "nodes": [6420526838, 6241582846, 6420526839, 280218109, 280218684, 280218685, 280219969, 6420526875, 280218686, 280218855], "tags": {"cycleway": "lane", "highway": "primary", "lanes": "2", "lit": "yes", "maxspeed": "60", "maxspeed:type": "sign", "name": "Berrigan Drive", "oneway": "yes", "sidewalk:left": "separate", "sidewalk:right": "no", "source:maxspeed": "https://portal-mainroads.opendata.arcgis.com/datasets", "surface": "asphalt"}}, {"type": "way", "id": 685198122, "nodes": [6415460183, 1690149007], "tags": {"highway": "primary", "maxspeed": "70", "name": "North Lake Road", "oneway": "yes", "surface": "paved"}}, {"type": "way", "id": 685198123, "nodes": [6241530761, 6415913851, 6420526835], "tags": {"highway": "primary", "maxspeed": "70", "name": "North Lake Road", "oneway": "yes", "surface": "paved"}}, {"type": "way", "id": 685198125, "nodes": [1041109791, 2498087155, 6420526837], "tags": {"highway": "primary", "maxspeed": "70", "name": "North Lake Road", "oneway": "yes", "surface": "paved"}}, {"type": "way", "id": 685198126, "nodes": [6415913876, 2498087151, 1041109791], "tags": {"cycleway": "lane", "highway": "primary", "maxspeed": "60", "name": "Berrigan Drive", "oneway": "yes", "source:maxspeed": "https://portal-mainroads.opendata.arcgis.com/datasets", "surface": "paved"}}, {"type": "way", "id": 685198128, "nodes": [280218204, 2498087150, 6420526838], "tags": {"cycleway": "lane", "highway": "primary", "maxspeed": "60", "maxspeed:type": "sign", "name": "Berrigan Drive", "oneway": "yes", "source:maxspeed": "https://portal-mainroads.opendata.arcgis.com/datasets", "surface": "paved"}}, {"type": "way", "id": 685198131, "nodes": [6415919319, 280218204], "tags": {"highway": "primary", "maxspeed": "70", "name": "North Lake Road", "oneway": "yes", "surface": "paved"}}, {"type": "way", "id": 685209374, "nodes": [279673461, 6420526836, 6420653454], "tags": {"highway": "primary", "maxspeed": "70", "name": "North Lake Road", "oneway": "yes", "surface": "paved"}}, {"type": "way", "id": 685209375, "nodes": [6241582850, 6415919319], "tags": {"highway": "primary", "lanes": "2", "maxspeed": "70", "name": "North Lake Road", "oneway": "yes", "surface": "paved"}}, {"type": "way", "id": 685209376, "nodes": [6420653455, 6415913824], "tags": {"highway": "primary", "lanes": "3", "maxspeed": "70", "name": "North Lake Road", "oneway": "yes", "surface": "paved", "turn:lanes": "none|none|right"}}, {"type": "way", "id": 685209377, "nodes": [6415913824, 2498087156, 1054250006], "tags": {"highway": "primary", "maxspeed": "70", "name": "North Lake Road", "oneway": "yes", "surface": "paved"}}, {"type": "way", "id": 685209378, "nodes": [6241582844, 6415913876], "tags": {"cycleway": "lane", "highway": "primary", "lanes": "2", "maxspeed": "60", "name": "Berrigan Drive", "oneway": "yes", "source:maxspeed": "https://portal-mainroads.opendata.arcgis.com/datasets", "surface": "paved", "turn:lanes": "right|right"}}, {"type": "way", "id": 685209379, "nodes": [6420653456, 6241582845, 6241582844], "tags": {"cycleway": "lane", "highway": "primary", "lanes": "3", "lit": "yes", "maxspeed": "60", "name": "Berrigan Drive", "oneway": "yes", "sidewalk:left": "separate", "sidewalk:right": "no", "source:maxspeed": "https://portal-mainroads.opendata.arcgis.com/datasets", "surface": "asphalt", "turn:lanes": "left|right|right"}}]}