{"version": 0.6, "generator": "Overpass API 0.7.61.5 4133829e", "osm3s": {"timestamp_osm_base": "2023-12-06T13:49:30Z", "copyright": "The data included in this document is from www.openstreetmap.org. The data is made available under ODbL."}, "elements": [{"type": "node", "id": 83327376, "lat": -27.3745065, "lon": 153.0624109}, {"type": "node", "id": 83327813, "lat": -27.3708401, "lon": 153.0622442}, {"type": "node", "id": 83327814, "lat": -27.3741793, "lon": 153.0625409}, {"type": "node", "id": 83328429, "lat": -27.3742893, "lon": 153.0623893}, {"type": "node", "id": 83338481, "lat": -27.3705952, "lon": 153.0620544}, {"type": "node", "id": 83338482, "lat": -27.3702845, "lon": 153.0620286}, {"type": "node", "id": 83338483, "lat": -27.3695596, "lon": 153.0619615}, {"type": "node", "id": 83338937, "lat": -27.3694419, "lon": 153.0621193}, {"type": "node", "id": 83340348, "lat": -27.3704035, "lon": 153.0607828}, {"type": "node", "id": 83340349, "lat": -27.370324, "lon": 153.0602833}, {"type": "node", "id": 83340350, "lat": -27.3702896, "lon": 153.0600579}, {"type": "node", "id": 83340351, "lat": -27.3697839, "lon": 153.0566689}, {"type": "node", "id": 83340695, "lat": -27.3705959, "lon": 153.0622224}, {"type": "node", "id": 83352268, "lat": -27.3692572, "lon": 153.0619345}, {"type": "node", "id": 83352269, "lat": -27.3677013, "lon": 153.0617782}, {"type": "node", "id": 83352270, "lat": -27.3666052, "lon": 153.0616793}, {"type": "node", "id": 83352580, "lat": -27.3666144, "lon": 153.061888}, {"type": "node", "id": 83352583, "lat": -27.368426, "lon": 153.0620468}, {"type": "node", "id": 617969653, "lat": -27.3757045, "lon": 153.0625185}, {"type": "node", "id": 1984146619, "lat": -27.3745914, "lon": 153.0624189}, {"type": "node", "id": 6132176391, "lat": -27.3705608, "lon": 153.0616758}, {"type": "node", "id": 6132187528, "lat": -27.3705003, "lon": 153.0612888}, {"type": "node", "id": 6132187536, "lat": -27.3711427, "lon": 153.0621059}, {"type": "node", "id": 6270814205, "lat": -27.3682886, "lon": 153.0618395}, {"type": "node", "id": 6275715266, "lat": -27.3700587, "lon": 153.0620068}, {"type": "node", "id": 6275716879, "lat": -27.3697091, "lon": 153.0619758}, {"type": "node", "id": 7359529115, "lat": -27.3692621, "lon": 153.0621032}, {"type": "node", "id": 7359529116, "lat": -27.3715942, "lon": 153.0621446}, {"type": "node", "id": 7359561747, "lat": -27.3770788, "lon": 153.0627988}, {"type": "node", "id": 7359561750, "lat": -27.3729871, "lon": 153.0624505}, {"type": "node", "id": 7489935517, "lat": -27.3714839, "lon": 153.0623053}, {"type": "node", "id": 7755829318, "lat": -27.3667205, "lon": 153.0618958, "tags": {"crossing": "traffic_signals", "highway": "crossing"}}, {"type": "node", "id": 7755829321, "lat": -27.3667385, "lon": 153.0616907, "tags": {"crossing": "traffic_signals", "highway": "crossing"}}, {"type": "node", "id": 7755829324, "lat": -27.3667887, "lon": 153.061696, "tags": {"highway": "traffic_signals", "traffic_signals:direction": "forward"}}, {"type": "node", "id": 7756110561, "lat": -27.3705855, "lon": 153.0618877, "tags": {"highway": "traffic_signals", "traffic_signals:direction": "backward"}}, {"type": "node", "id": 7756110563, "lat": -27.3704253, "lon": 153.062208, "tags": {"highway": "traffic_signals", "traffic_signals:direction": "forward"}}, {"type": "node", "id": 7756110564, "lat": -27.3708274, "lon": 153.0620751, "tags": {"highway": "traffic_signals", "traffic_signals:direction": "forward"}}, {"type": "node", "id": 7756110566, "lat": -27.3705885, "lon": 153.0619219, "tags": {"crossing": "traffic_signals", "highway": "crossing"}}, {"type": "node", "id": 7756110567, "lat": -27.3704876, "lon": 153.062046, "tags": {"crossing": "traffic_signals", "highway": "crossing"}}, {"type": "node", "id": 7756110568, "lat": -27.3704798, "lon": 153.0622138, "tags": {"crossing": "traffic_signals", "highway": "crossing"}}, {"type": "node", "id": 7756127289, "lat": -27.3744297, "lon": 153.0625639, "tags": {"crossing": "traffic_signals", "highway": "crossing"}}, {"type": "node", "id": 7756127290, "lat": -27.3744423, "lon": 153.0624038, "tags": {"crossing": "traffic_signals", "highway": "crossing"}}, {"type": "node", "id": 7756127294, "lat": -27.3743915, "lon": 153.0625601, "tags": {"highway": "traffic_signals", "traffic_signals:direction": "forward"}}, {"type": "node", "id": 7756127296, "lat": -27.3747537, "lon": 153.0624337, "tags": {"highway": "traffic_signals", "traffic_signals:direction": "forward"}}, {"type": "node", "id": 10706300461, "lat": -27.3679664, "lon": 153.0620083}, {"type": "node", "id": 11041574253, "lat": -27.3698768, "lon": 153.0572832}, {"type": "node", "id": 11041574254, "lat": -27.3699232, "lon": 153.0575959}, {"type": "node", "id": 11041574259, "lat": -27.3698139, "lon": 153.0568478}, {"type": "node", "id": 11041574261, "lat": -27.3700282, "lon": 153.0583029}, {"type": "node", "id": 11041574266, "lat": -27.3704365, "lon": 153.0609794}, {"type": "node", "id": 11041574302, "lat": -27.3754729, "lon": 153.062653}, {"type": "node", "id": 11041627710, "lat": -27.3736368, "lon": 153.0623328}, {"type": "node", "id": 11041627711, "lat": -27.3728377, "lon": 153.0622599}, {"type": "node", "id": 11041627718, "lat": -27.370522, "lon": 153.0614115}, {"type": "node", "id": 11041627721, "lat": -27.3704549, "lon": 153.0610739}, {"type": "node", "id": 11041627722, "lat": -27.3705744, "lon": 153.0617828}, {"type": "node", "id": 11041627724, "lat": -27.3713416, "lon": 153.0621244}, {"type": "node", "id": 11041627729, "lat": -27.3668767, "lon": 153.0619082}, {"type": "node", "id": 11041627730, "lat": -27.3669861, "lon": 153.0617117}, {"type": "node", "id": 11041627731, "lat": -27.3672748, "lon": 153.061738}, {"type": "node", "id": 11041627732, "lat": -27.369101, "lon": 153.0619193}, {"type": "node", "id": 11041627733, "lat": -27.3700556, "lon": 153.0621746}, {"type": "node", "id": 11041627835, "lat": -27.3745887, "lon": 153.0625786}, {"type": "node", "id": 11041627836, "lat": -27.3744977, "lon": 153.0625715}, {"type": "node", "id": 11254390605, "lat": -27.3722712, "lon": 153.0622074}, {"type": "node", "id": 11254390606, "lat": -27.3718942, "lon": 153.0621724}, {"type": "way", "id": 10114741, "nodes": [6132187528, 11041627721, 11041574266, 83340348, 83340349, 83340350, 11041574261, 11041574254, 11041574253, 11041574259, 83340351], "tags": {"highway": "primary", "maxspeed": "60", "name": "Robinson Road East", "network": "AU:QLD:S", "oneway": "no", "ref": "28", "surface": "asphalt"}}, {"type": "way", "id": 177769971, "nodes": [11041627732, 6270814205, 83352269, 11041627731], "tags": {"cycleway:left": "lane", "highway": "trunk", "lanes": "2", "maxspeed": "70", "name": "Sandgate Road", "network": "AU:QLD:S", "note": "please verify speedlimit signposts", "oneway": "yes", "ref": "26", "surface": "asphalt"}}, {"type": "way", "id": 177769972, "nodes": [83352580, 7755829318, 11041627729, 10706300461], "tags": {"cycleway:left": "lane", "highway": "trunk", "lanes": "2", "maxspeed": "70", "name": "Sandgate Road", "network": "AU:QLD:S", "oneway": "yes", "ref": "26", "surface": "asphalt"}}, {"type": "way", "id": 185392235, "nodes": [83338481, 83340695], "tags": {"highway": "primary", "maxspeed": "60", "name": "Robinson Road East", "network": "AU:QLD:S", "oneway": "no", "ref": "28", "surface": "asphalt"}}, {"type": "way", "id": 575714139, "nodes": [1984146619, 83327376], "tags": {"highway": "trunk", "maxspeed": "70", "name": "Sandgate Road", "network": "AU:QLD:S", "oneway": "yes", "ref": "26", "surface": "paved"}}, {"type": "way", "id": 733381885, "nodes": [83327813, 7489935517], "tags": {"cycleway:left": "lane", "highway": "trunk", "lanes": "3", "maxspeed": "70", "name": "Sandgate Road", "network": "AU:QLD:S", "oneway": "yes", "ref": "26", "surface": "asphalt"}}, {"type": "way", "id": 787210679, "nodes": [83338937, 11041627733], "tags": {"cycleway:left": "lane", "highway": "trunk", "lanes": "4", "maxspeed": "70", "name": "Sandgate Road", "network": "AU:QLD:S", "oneway": "yes", "ref": "26", "surface": "asphalt"}}, {"type": "way", "id": 787210680, "nodes": [7359529116, 11041627724], "tags": {"cycleway:left": "lane", "highway": "trunk", "lanes": "4", "maxspeed": "70", "name": "Sandgate Road", "network": "AU:QLD:S", "oneway": "yes", "ref": "26", "surface": "asphalt"}}, {"type": "way", "id": 787210681, "nodes": [11041627711, 11254390605, 11254390606, 7359529116], "tags": {"cycleway:left": "lane", "highway": "trunk", "lanes": "3", "maxspeed": "70", "name": "Sandgate Road", "network": "AU:QLD:S", "oneway": "yes", "ref": "26", "surface": "asphalt"}}, {"type": "way", "id": 787212470, "nodes": [11041627835, 11041574302, 7359561747], "tags": {"cycleway:left": "lane", "highway": "trunk", "maxspeed": "70", "name": "Sandgate Road", "network": "AU:QLD:S", "oneway": "yes", "ref": "26", "surface": "paved"}}, {"type": "way", "id": 787212471, "nodes": [617969653, 7756127296, 1984146619], "tags": {"cycleway:left": "lane", "highway": "trunk", "maxspeed": "70", "name": "Sandgate Road", "network": "AU:QLD:S", "oneway": "yes", "ref": "26", "surface": "paved"}}, {"type": "way", "id": 787212473, "nodes": [7359561750, 83327814, 7756127294, 7756127289, 11041627836], "tags": {"cycleway:left": "lane", "highway": "trunk", "lanes": "3", "maxspeed": "70", "name": "Sandgate Road", "network": "AU:QLD:S", "oneway": "yes", "ref": "26", "surface": "asphalt"}}, {"type": "way", "id": 787360559, "nodes": [83338481, 7756110566, 7756110561, 11041627722, 6132176391], "tags": {"highway": "primary", "maxspeed": "60", "name": "Robinson Road East", "network": "AU:QLD:S", "oneway": "no", "ref": "28", "surface": "asphalt"}}, {"type": "way", "id": 800776256, "nodes": [7489935517, 7359561750], "tags": {"cycleway:left": "lane", "highway": "trunk", "lanes": "3", "maxspeed": "70", "name": "Sandgate Road", "network": "AU:QLD:S", "oneway": "yes", "ref": "26", "surface": "asphalt"}}, {"type": "way", "id": 800782738, "nodes": [6132187536, 7756110564, 83338481], "tags": {"cycleway:left": "lane", "highway": "trunk", "lanes": "5", "maxspeed": "70", "name": "Sandgate Road", "network": "AU:QLD:S", "oneway": "yes", "ref": "26", "surface": "asphalt"}}, {"type": "way", "id": 1189076996, "nodes": [83327376, 7756127290, 83328429], "tags": {"cycleway:left": "lane", "highway": "trunk", "lanes": "3", "maxspeed": "70", "name": "Sandgate Road", "network": "AU:QLD:S", "oneway": "yes", "ref": "26", "surface": "asphalt"}}, {"type": "way", "id": 1189076997, "nodes": [11041627710, 11041627711], "tags": {"cycleway:left": "lane", "highway": "trunk", "lanes": "4", "maxspeed": "70", "name": "Sandgate Road", "network": "AU:QLD:S", "oneway": "yes", "ref": "26", "surface": "asphalt"}}, {"type": "way", "id": 1189077000, "nodes": [6132176391, 11041627718, 6132187528], "tags": {"highway": "primary", "maxspeed": "60", "name": "Robinson Road East", "network": "AU:QLD:S", "oneway": "no", "ref": "28", "surface": "asphalt"}}, {"type": "way", "id": 1189077002, "nodes": [83340695, 83327813], "tags": {"cycleway:left": "lane", "highway": "trunk", "lanes": "3", "maxspeed": "70", "name": "Sandgate Road", "network": "AU:QLD:S", "oneway": "yes", "ref": "26", "surface": "asphalt"}}, {"type": "way", "id": 1189077003, "nodes": [83338481, 7756110567, 83338482], "tags": {"cycleway:left": "lane", "highway": "trunk", "lanes": "3", "maxspeed": "70", "name": "Sandgate Road", "network": "AU:QLD:S", "note": "please verify speedlimit signposts", "oneway": "yes", "ref": "26", "surface": "asphalt"}}, {"type": "way", "id": 1189077004, "nodes": [11041627724, 6132187536], "tags": {"cycleway:left": "lane", "highway": "trunk", "lanes": "5", "maxspeed": "70", "name": "Sandgate Road", "network": "AU:QLD:S", "oneway": "yes", "ref": "26", "surface": "asphalt"}}, {"type": "way", "id": 1189077005, "nodes": [11041627730, 7755829324, 7755829321, 83352270], "tags": {"cycleway:left": "lane", "highway": "trunk", "lanes": "4", "maxspeed": "70", "name": "Sandgate Road", "network": "AU:QLD:S", "note": "please verify speedlimit signposts", "oneway": "yes", "ref": "26", "surface": "asphalt"}}, {"type": "way", "id": 1189077006, "nodes": [11041627731, 11041627730], "tags": {"cycleway:left": "lane", "highway": "trunk", "lanes": "3", "maxspeed": "70", "name": "Sandgate Road", "network": "AU:QLD:S", "note": "please verify speedlimit signposts", "oneway": "yes", "ref": "26", "surface": "asphalt"}}, {"type": "way", "id": 1189077007, "nodes": [83338482, 6275715266, 6275716879, 83338483, 83352268, 11041627732], "tags": {"cycleway:left": "lane", "highway": "trunk", "lanes": "3", "maxspeed": "70", "name": "Sandgate Road", "network": "AU:QLD:S", "note": "please verify speedlimit signposts", "oneway": "yes", "ref": "26", "surface": "asphalt"}}, {"type": "way", "id": 1189077008, "nodes": [7359529115, 83338937], "tags": {"cycleway:left": "lane", "highway": "trunk", "lanes": "3", "maxspeed": "70", "name": "Sandgate Road", "network": "AU:QLD:S", "oneway": "yes", "ref": "26", "surface": "asphalt"}}, {"type": "way", "id": 1189077009, "nodes": [11041627733, 7756110563, 7756110568, 83340695], "tags": {"cycleway:left": "lane", "highway": "trunk", "lanes": "5", "maxspeed": "70", "name": "Sandgate Road", "network": "AU:QLD:S", "oneway": "yes", "ref": "26", "surface": "asphalt"}}, {"type": "way", "id": 1189077010, "nodes": [83352583, 7359529115], "tags": {"cycleway:left": "lane", "highway": "trunk", "lanes": "2", "maxspeed": "70", "name": "Sandgate Road", "network": "AU:QLD:S", "oneway": "yes", "ref": "26", "surface": "asphalt"}}, {"type": "way", "id": 1189077011, "nodes": [10706300461, 83352583], "tags": {"cycleway:left": "lane", "highway": "trunk", "lanes": "3", "maxspeed": "70", "name": "Sandgate Road", "network": "AU:QLD:S", "oneway": "yes", "ref": "26", "surface": "asphalt"}}, {"type": "way", "id": 1189077045, "nodes": [11041627836, 11041627835], "tags": {"cycleway:left": "lane", "highway": "trunk", "lanes": "3", "maxspeed": "70", "name": "Sandgate Road", "network": "AU:QLD:S", "oneway": "yes", "ref": "26", "surface": "asphalt"}}, {"type": "way", "id": 1189077046, "nodes": [83328429, 11041627710], "tags": {"cycleway:left": "lane", "highway": "trunk", "lanes": "3", "maxspeed": "70", "name": "Sandgate Road", "network": "AU:QLD:S", "oneway": "yes", "ref": "26", "surface": "asphalt"}}]}