{"version": 0.6, "generator": "Overpass API 0.7.61.5 4133829e", "osm3s": {"timestamp_osm_base": "2023-12-06T14:43:35Z", "copyright": "The data included in this document is from www.openstreetmap.org. The data is made available under ODbL."}, "elements": [{"type": "node", "id": 56299549, "lat": -34.8763564, "lon": 138.6715838}, {"type": "node", "id": 56299551, "lat": -34.8735975, "lon": 138.6688263}, {"type": "node", "id": 252353327, "lat": -34.8736803, "lon": 138.6688945}, {"type": "node", "id": 252359972, "lat": -34.8735336, "lon": 138.6689168}, {"type": "node", "id": 252359973, "lat": -34.8736173, "lon": 138.6689883}, {"type": "node", "id": 253000211, "lat": -34.8714588, "lon": 138.6718004, "tags": {"crossing": "traffic_signals", "highway": "crossing", "odbl": "clean"}}, {"type": "node", "id": 253000338, "lat": -34.8715378, "lon": 138.6718866, "tags": {"crossing": "traffic_signals", "highway": "crossing"}}, {"type": "node", "id": 253000405, "lat": -34.876678, "lon": 138.6650556}, {"type": "node", "id": 253000406, "lat": -34.8766081, "lon": 138.6670017}, {"type": "node", "id": 253000422, "lat": -34.876695, "lon": 138.6670095}, {"type": "node", "id": 253000423, "lat": -34.876775, "lon": 138.665012}, {"type": "node", "id": 961508891, "lat": -34.8761267, "lon": 138.6778665}, {"type": "node", "id": 1004477701, "lat": -34.8727563, "lon": 138.6700017}, {"type": "node", "id": 1004477713, "lat": -34.8728466, "lon": 138.6700624}, {"type": "node", "id": 1799465503, "lat": -34.8719503, "lon": 138.671119}, {"type": "node", "id": 1799465504, "lat": -34.8720288, "lon": 138.6712002}, {"type": "node", "id": 1799465505, "lat": -34.8725709, "lon": 138.6704425}, {"type": "node", "id": 1799465508, "lat": -34.8732214, "lon": 138.6695388}, {"type": "node", "id": 1799465509, "lat": -34.8732837, "lon": 138.668703}, {"type": "node", "id": 1799465511, "lat": -34.8733295, "lon": 138.6691898}, {"type": "node", "id": 1799465520, "lat": -34.8733906, "lon": 138.6686442}, {"type": "node", "id": 1799465525, "lat": -34.8734341, "lon": 138.6688317, "tags": {"highway": "traffic_signals", "traffic_signals:direction": "forward"}}, {"type": "node", "id": 1799465532, "lat": -34.8734583, "lon": 138.6692117}, {"type": "node", "id": 1799465536, "lat": -34.873489, "lon": 138.6688787, "tags": {"highway": "crossing"}}, {"type": "node", "id": 1799465539, "lat": -34.8735009, "lon": 138.6689605, "tags": {"highway": "crossing"}}, {"type": "node", "id": 1799465551, "lat": -34.8735502, "lon": 138.6687847, "tags": {"highway": "crossing"}}, {"type": "node", "id": 1799465559, "lat": -34.8735656, "lon": 138.6690609, "tags": {"highway": "traffic_signals", "traffic_signals:direction": "forward"}}, {"type": "node", "id": 1799465565, "lat": -34.8735849, "lon": 138.6690338, "tags": {"crossing": "traffic_signals", "highway": "crossing"}}, {"type": "node", "id": 1799465576, "lat": -34.8736353, "lon": 138.6687732, "tags": {"crossing": "traffic_signals", "highway": "crossing"}}, {"type": "node", "id": 1799465582, "lat": -34.8736602, "lon": 138.6687381, "tags": {"highway": "traffic_signals", "traffic_signals:direction": "forward"}}, {"type": "node", "id": 1799465587, "lat": -34.8737163, "lon": 138.6688437, "tags": {"crossing": "traffic_signals", "highway": "crossing"}}, {"type": "node", "id": 1799465594, "lat": -34.8737657, "lon": 138.6685896}, {"type": "node", "id": 1799465607, "lat": -34.8738424, "lon": 138.6686659}, {"type": "node", "id": 1799465624, "lat": -34.8745203, "lon": 138.6675616}, {"type": "node", "id": 1799465626, "lat": -34.8745818, "lon": 138.6676233}, {"type": "node", "id": 1800075794, "lat": -34.869913, "lon": 138.6749952}, {"type": "node", "id": 1800075797, "lat": -34.8701325, "lon": 138.6744987}, {"type": "node", "id": 1800075798, "lat": -34.8701668, "lon": 138.6744262}, {"type": "node", "id": 1800075809, "lat": -34.870765, "lon": 138.6730577}, {"type": "node", "id": 1800075820, "lat": -34.8708433, "lon": 138.6728999}, {"type": "node", "id": 1800075824, "lat": -34.8708846, "lon": 138.6728165}, {"type": "node", "id": 1800075833, "lat": -34.870976, "lon": 138.672678}, {"type": "node", "id": 1800075835, "lat": -34.8710399, "lon": 138.6723969}, {"type": "node", "id": 1800075837, "lat": -34.8712969, "lon": 138.6720295}, {"type": "node", "id": 1800075838, "lat": -34.8713794, "lon": 138.6721167}, {"type": "node", "id": 1840724413, "lat": -34.8760181, "lon": 138.678906}, {"type": "node", "id": 1840724414, "lat": -34.8760284, "lon": 138.6786631}, {"type": "node", "id": 1840724417, "lat": -34.8760701, "lon": 138.6778688}, {"type": "node", "id": 1840724418, "lat": -34.8760875, "lon": 138.678718}, {"type": "node", "id": 1840724422, "lat": -34.8761762, "lon": 138.6753398}, {"type": "node", "id": 1840724423, "lat": -34.8761878, "lon": 138.6766184}, {"type": "node", "id": 1840724431, "lat": -34.876282, "lon": 138.6733869}, {"type": "node", "id": 1840724433, "lat": -34.8763009, "lon": 138.6745924}, {"type": "node", "id": 1840724440, "lat": -34.8763576, "lon": 138.6715602}, {"type": "node", "id": 1840724442, "lat": -34.8763647, "lon": 138.6714204, "tags": {"highway": "crossing"}}, {"type": "node", "id": 1840724443, "lat": -34.8763688, "lon": 138.6713402}, {"type": "node", "id": 1840724444, "lat": -34.8763754, "lon": 138.6712132}, {"type": "node", "id": 1840724445, "lat": -34.8763793, "lon": 138.671129, "tags": {"highway": "crossing"}}, {"type": "node", "id": 1840724446, "lat": -34.8763817, "lon": 138.6710761, "tags": {"highway": "traffic_signals", "traffic_signals:direction": "forward"}}, {"type": "node", "id": 1840724448, "lat": -34.8763954, "lon": 138.6707831}, {"type": "node", "id": 1840724449, "lat": -34.8763991, "lon": 138.6725893}, {"type": "node", "id": 1840724450, "lat": -34.8764348, "lon": 138.6718835}, {"type": "node", "id": 1840724451, "lat": -34.8764502, "lon": 138.6715345, "tags": {"highway": "traffic_signals", "traffic_signals:direction": "forward"}}, {"type": "node", "id": 1840724452, "lat": -34.876452, "lon": 138.6714914, "tags": {"button_operated": "no", "crossing": "traffic_signals", "highway": "crossing", "tactile_paving": "yes", "traffic_signals:sound": "yes"}}, {"type": "node", "id": 1840724453, "lat": -34.8764549, "lon": 138.6714255}, {"type": "node", "id": 1840724454, "lat": -34.8764613, "lon": 138.6712936}, {"type": "node", "id": 1840724456, "lat": -34.8764648, "lon": 138.6712197, "tags": {"highway": "crossing"}}, {"type": "node", "id": 1840724457, "lat": -34.8764725, "lon": 138.6710589}, {"type": "node", "id": 1840724459, "lat": -34.8764954, "lon": 138.6705817}, {"type": "node", "id": 1848393293, "lat": -34.8722758, "lon": 138.667847}, {"type": "node", "id": 1877581779, "lat": -34.8759622, "lon": 138.6800525}, {"type": "node", "id": 1877581787, "lat": -34.8760181, "lon": 138.6800676}, {"type": "node", "id": 1877581790, "lat": -34.8763045, "lon": 138.6728726}, {"type": "node", "id": 1877581798, "lat": -34.876385, "lon": 138.6728764}, {"type": "node", "id": 1877586209, "lat": -34.8760836, "lon": 138.6775984}, {"type": "node", "id": 1877586231, "lat": -34.8761408, "lon": 138.6776025}, {"type": "node", "id": 1879154429, "lat": -34.876477, "lon": 138.669163}, {"type": "node", "id": 1879154483, "lat": -34.8722298, "lon": 138.6678063}, {"type": "node", "id": 1879154506, "lat": -34.8765628, "lon": 138.6691714}, {"type": "node", "id": 1879154530, "lat": -34.8723131, "lon": 138.6676961}, {"type": "node", "id": 1881657479, "lat": -34.8761375, "lon": 138.6762624}, {"type": "node", "id": 1881657559, "lat": -34.8762093, "lon": 138.6762689}, {"type": "node", "id": 1966527507, "lat": -34.8762282, "lon": 138.674386, "tags": {"crossing": "marked", "highway": "crossing"}}, {"type": "node", "id": 1966527511, "lat": -34.8762322, "lon": 138.6743114, "tags": {"highway": "traffic_signals", "traffic_signals:direction": "forward"}}, {"type": "node", "id": 1966527516, "lat": -34.8763064, "lon": 138.6744795, "tags": {"highway": "traffic_signals", "traffic_signals:direction": "forward"}}, {"type": "node", "id": 1966527518, "lat": -34.8763108, "lon": 138.6743903, "tags": {"crossing": "marked", "highway": "crossing"}}, {"type": "node", "id": 3418997922, "lat": -34.8763599, "lon": 138.6733893}, {"type": "node", "id": 3424223914, "lat": -34.8765791, "lon": 138.6688451}, {"type": "node", "id": 5529428440, "lat": -34.8722886, "lon": 138.670835}, {"type": "node", "id": 5529428441, "lat": -34.8722039, "lon": 138.6707559}, {"type": "node", "id": 6691244848, "lat": -34.8720068, "lon": 138.6712309}, {"type": "node", "id": 6984644877, "lat": -34.8762934, "lon": 138.6747301}, {"type": "node", "id": 6984828885, "lat": -34.8763209, "lon": 138.6741842}, {"type": "node", "id": 8625835695, "lat": -34.873565, "lon": 138.6690617, "tags": {"highway": "speed_camera", "maxspeed": "60", "ref": "161 Safety Camera 60 Km/h"}}, {"type": "node", "id": 8625835696, "lat": -34.8736608, "lon": 138.6687373, "tags": {"highway": "speed_camera", "maxspeed": "60", "ref": "61 Safety Camera 60 Km/h"}}, {"type": "node", "id": 9462806785, "lat": -34.8762457, "lon": 138.6740642}, {"type": "node", "id": 9462806787, "lat": -34.8762055, "lon": 138.6748015}, {"type": "node", "id": 10993843192, "lat": -34.8762264, "lon": 138.6759552}, {"type": "way", "id": 23310131, "nodes": [252353327, 1799465587, 1799465607, 1799465626], "tags": {"cycleway:left": "lane", "cycleway:left:lane": "exclusive", "highway": "primary", "lanes": "2", "lit": "yes", "maxspeed": "60", "name": "Lower North East Road", "network": "AU:SA", "oneway": "yes", "ref": "A11", "source": "survey", "surface": "asphalt"}}, {"type": "way", "id": 23310833, "nodes": [252353327, 56299551], "tags": {"highway": "trunk", "lit": "yes", "maxspeed": "60", "name": "Darley Road", "note": "This road is part of South Australia's Major Traffic Road Network and is classed as a Trunk Road in Compliance with OSM Guidelines https://data.sa.gov.au/data/dataset/functional-hierarchy-for-south-australia-s-land-transport-network", "oneway": "yes", "surface": "asphalt"}}, {"type": "way", "id": 23366406, "nodes": [1800075794, 1800075797, 1800075798, 1800075809, 1800075820, 1800075824, 1800075833, 1800075838, 253000338, 6691244848, 1799465504], "tags": {"cycleway": "lane", "highway": "primary", "lanes": "2", "lit": "yes", "maxspeed": "60", "name": "Lower North East Road", "network": "AU:SA", "oneway": "yes", "ref": "A11", "source": "survey", "surface": "asphalt"}}, {"type": "way", "id": 26271338, "nodes": [252359972, 1799465539, 1799465511], "tags": {"cycleway:left": "lane", "cycleway:left:lane": "exclusive", "highway": "primary", "lanes": "2", "lit": "yes", "maxspeed": "60", "name": "Lower North East Road", "network": "AU:SA", "oneway": "yes", "ref": "A11", "source": "survey", "surface": "asphalt"}}, {"type": "way", "id": 35097001, "nodes": [1799465509, 1799465525, 1799465536, 252359972], "tags": {"cycleway:left": "no", "highway": "trunk", "lanes": "3", "lit": "yes", "maxspeed": "60", "name": "Darley Road", "note": "This road is part of South Australia's Major Traffic Road Network and is classed as a Trunk Road in Compliance with OSM Guidelines https://data.sa.gov.au/data/dataset/functional-hierarchy-for-south-australia-s-land-transport-network", "oneway": "yes", "source": "survey", "surface": "asphalt"}}, {"type": "way", "id": 86445425, "nodes": [1799465532, 8625835695, 1799465559, 1799465565, 252359973], "tags": {"highway": "primary", "lanes": "2", "lit": "yes", "maxspeed": "60", "name": "Lower North East Road", "network": "AU:SA", "oneway": "yes", "ref": "A11", "source": "survey", "surface": "asphalt"}}, {"type": "way", "id": 86445457, "nodes": [1840724440, 56299549, 1877581790], "tags": {"cycleway": "lane", "highway": "primary", "lanes": "2", "lit": "yes", "maxspeed": "60", "name": "Gorge Road", "network": "AU:SA", "oneway": "yes", "ref": "B31", "surface": "paved"}}, {"type": "way", "id": 569144704, "nodes": [56299551, 252359972], "tags": {"highway": "primary", "lanes": "2", "lit": "yes", "maxspeed": "60", "name": "Lower North East Road", "network": "AU:SA", "oneway": "yes", "ref": "A11", "source": "survey", "surface": "asphalt"}}, {"type": "way", "id": 575708583, "nodes": [1799465594, 8625835696, 1799465582, 1799465576, 56299551], "tags": {"cycleway": "lane", "highway": "primary", "lanes": "2", "lit": "yes", "maxspeed": "60", "name": "Lower North East Road", "network": "AU:SA", "oneway": "yes", "ref": "A11", "source": "survey", "surface": "asphalt"}}, {"type": "way", "id": 576495498, "nodes": [1799465503, 253000211, 1800075837, 1800075835], "tags": {"cycleway": "lane", "highway": "primary", "lanes": "2", "lit": "yes", "maxspeed": "60", "name": "Lower North East Road", "network": "AU:SA", "oneway": "yes", "ref": "A11", "source": "survey", "surface": "paved"}}, {"type": "way", "id": 576496087, "nodes": [5529428440, 1799465505, 1004477713], "tags": {"cycleway": "lane", "highway": "primary", "lanes": "2", "lit": "yes", "maxspeed": "60", "name": "Lower North East Road", "network": "AU:SA", "oneway": "yes", "ref": "A11", "source": "survey", "surface": "asphalt"}}, {"type": "way", "id": 576496091, "nodes": [1799465504, 5529428440], "tags": {"cycleway": "lane", "highway": "primary", "lanes": "2", "lit": "yes", "maxspeed": "60", "name": "Lower North East Road", "network": "AU:SA", "oneway": "yes", "ref": "A11", "source": "survey", "surface": "asphalt"}}, {"type": "way", "id": 576496095, "nodes": [5529428441, 1799465503], "tags": {"cycleway": "lane", "highway": "primary", "lanes": "2", "lit": "yes", "maxspeed": "60", "name": "Lower North East Road", "network": "AU:SA", "oneway": "yes", "ref": "A11", "source": "survey", "surface": "asphalt"}}, {"type": "way", "id": 576496099, "nodes": [1004477701, 5529428441], "tags": {"cycleway": "lane", "highway": "primary", "lanes": "2", "lit": "yes", "maxspeed": "60", "name": "Lower North East Road", "network": "AU:SA", "oneway": "yes", "ref": "A11", "source": "survey", "surface": "asphalt"}}, {"type": "way", "id": 576496219, "nodes": [1879154483, 1848393293, 1799465509], "tags": {"highway": "trunk", "lanes": "3", "lit": "yes", "maxspeed": "60", "name": "Darley Road", "note": "This road is part of South Australia's Major Traffic Road Network and is classed as a Trunk Road in Compliance with OSM Guidelines https://data.sa.gov.au/data/dataset/functional-hierarchy-for-south-australia-s-land-transport-network", "oneway": "yes", "source": "survey", "surface": "asphalt"}}, {"type": "way", "id": 576496221, "nodes": [56299551, 1799465551, 1799465520, 1879154530], "tags": {"highway": "trunk", "lanes": "3", "lit": "yes", "maxspeed": "60", "name": "Darley Road", "note": "This road is part of South Australia's Major Traffic Road Network and is classed as a Trunk Road in Compliance with OSM Guidelines https://data.sa.gov.au/data/dataset/functional-hierarchy-for-south-australia-s-land-transport-network", "oneway": "yes", "source": "survey", "surface": "asphalt"}}, {"type": "way", "id": 579335471, "nodes": [1881657559, 10993843192, 6984644877], "tags": {"cycleway": "lane", "highway": "primary", "lanes": "2", "lit": "yes", "maxspeed": "60", "name": "Gorge Road", "network": "AU:SA", "oneway": "yes", "ref": "B31", "surface": "asphalt"}}, {"type": "way", "id": 579336870, "nodes": [1881657479, 1877586209], "tags": {"cycleway": "lane", "highway": "primary", "lanes": "2", "lit": "yes", "maxspeed": "60", "name": "Gorge Road", "network": "AU:SA", "oneway": "yes", "ref": "B31", "surface": "asphalt"}}, {"type": "way", "id": 579336873, "nodes": [1877586231, 1840724423, 1881657559], "tags": {"cycleway": "lane", "highway": "primary", "lanes": "2", "lit": "yes", "maxspeed": "60", "name": "Gorge Road", "network": "AU:SA", "oneway": "yes", "ref": "B31", "surface": "asphalt"}}, {"type": "way", "id": 579338615, "nodes": [1877586209, 1840724417], "tags": {"cycleway": "lane", "highway": "primary", "lanes": "2", "maxspeed": "60", "name": "Gorge Road", "network": "AU:SA", "oneway": "yes", "ref": "B31", "surface": "paved"}}, {"type": "way", "id": 579338616, "nodes": [961508891, 1877586231], "tags": {"cycleway": "lane", "highway": "primary", "lanes": "2", "maxspeed": "60", "name": "Gorge Road", "network": "AU:SA", "oneway": "yes", "ref": "B31", "surface": "paved"}}, {"type": "way", "id": 579339035, "nodes": [1840724417, 1840724414, 1840724413, 1877581779], "tags": {"cycleway": "lane", "highway": "primary", "lanes": "2", "maxspeed": "60", "name": "Gorge Road", "network": "AU:SA", "oneway": "yes", "ref": "B31", "surface": "paved"}}, {"type": "way", "id": 579339036, "nodes": [1877581787, 1840724418, 961508891], "tags": {"cycleway": "lane", "highway": "primary", "lanes": "2", "maxspeed": "60", "name": "Gorge Road", "network": "AU:SA", "oneway": "yes", "ref": "B31", "surface": "paved"}}, {"type": "way", "id": 722015162, "nodes": [1840724457, 1840724459, 1879154506, 3424223914, 253000422, 253000423], "tags": {"cycleway": "lane", "highway": "primary", "lanes": "2", "lit": "yes", "maxspeed": "60", "name": "Gorge Road", "network": "AU:SA", "oneway": "yes", "ref": "B31", "surface": "asphalt"}}, {"type": "way", "id": 731779488, "nodes": [1004477713, 1799465508, 1799465532], "tags": {"highway": "primary", "lanes": "2", "lit": "yes", "maxspeed": "60", "name": "Lower North East Road", "network": "AU:SA", "oneway": "yes", "ref": "A11", "source": "survey", "surface": "asphalt"}}, {"type": "way", "id": 731780085, "nodes": [1799465624, 1799465594], "tags": {"cycleway": "lane", "highway": "primary", "lanes": "2", "lit": "yes", "maxspeed": "60", "name": "Lower North East Road", "network": "AU:SA", "oneway": "yes", "ref": "A11", "source": "survey", "surface": "asphalt"}}, {"type": "way", "id": 731780371, "nodes": [253000405, 253000406, 1879154429, 1840724448], "tags": {"cycleway": "lane", "highway": "primary", "lanes": "2", "lit": "yes", "maxspeed": "60", "name": "Gorge Road", "network": "AU:SA", "oneway": "yes", "ref": "B31", "surface": "asphalt"}}, {"type": "way", "id": 740027769, "nodes": [1840724453, 1840724454], "tags": {"cycleway": "lane", "highway": "primary", "lanes": "2", "lit": "yes", "maxspeed": "60", "name": "Gorge Road", "network": "AU:SA", "oneway": "yes", "ref": "B31", "surface": "asphalt"}}, {"type": "way", "id": 740027770, "nodes": [1877581798, 1840724449, 1840724450], "tags": {"cycleway": "lane", "highway": "primary", "lanes": "2", "lit": "yes", "maxspeed": "60", "name": "Gorge Road", "network": "AU:SA", "oneway": "yes", "ref": "B31", "surface": "paved"}}, {"type": "way", "id": 740027771, "nodes": [1840724450, 1840724451, 1840724452, 1840724453], "tags": {"cycleway": "lane", "highway": "primary", "lanes": "2", "lit": "yes", "maxspeed": "60", "name": "Gorge Road", "network": "AU:SA", "oneway": "yes", "ref": "B31", "surface": "asphalt"}}, {"type": "way", "id": 742624392, "nodes": [252359973, 252353327], "tags": {"highway": "primary", "lanes": "2", "lit": "yes", "maxspeed": "60", "name": "Lower North East Road", "network": "AU:SA", "oneway": "yes", "ref": "A11", "source": "survey", "surface": "asphalt"}}, {"type": "way", "id": 768259683, "nodes": [1840724454, 1840724456, 1840724457], "tags": {"cycleway": "lane", "highway": "primary", "lanes": "2", "lit": "yes", "maxspeed": "60", "name": "Gorge Road", "network": "AU:SA", "oneway": "yes", "ref": "B31", "surface": "asphalt"}}, {"type": "way", "id": 768259686, "nodes": [1840724448, 1840724446, 1840724445, 1840724444, 1840724443, 1840724442, 1840724440], "tags": {"cycleway": "lane", "highway": "primary", "lanes": "2", "lit": "yes", "maxspeed": "60", "name": "Gorge Road", "network": "AU:SA", "oneway": "yes", "ref": "B31", "surface": "asphalt"}}, {"type": "way", "id": 1026360618, "nodes": [3418997922, 1877581798], "tags": {"cycleway": "lane", "highway": "primary", "lanes": "2", "lit": "yes", "maxspeed": "60", "name": "Gorge Road", "network": "AU:SA", "oneway": "yes", "ref": "B31", "surface": "asphalt"}}, {"type": "way", "id": 1026360619, "nodes": [1840724431, 9462806785, 1966527511, 1966527507, 9462806787], "tags": {"cycleway": "lane", "highway": "primary", "lanes": "2", "lit": "yes", "maxspeed": "60", "name": "Gorge Road", "network": "AU:SA", "oneway": "yes", "ref": "B31", "surface": "paved"}}, {"type": "way", "id": 1026360622, "nodes": [6984644877, 1840724433, 1966527516, 1966527518, 6984828885, 3418997922], "tags": {"cycleway": "lane", "highway": "primary", "lanes": "2", "lit": "yes", "maxspeed": "60", "name": "Gorge Road", "network": "AU:SA", "oneway": "yes", "ref": "B31", "surface": "paved"}}, {"type": "way", "id": 1026360623, "nodes": [9462806787, 1840724422, 1881657479], "tags": {"cycleway": "lane", "highway": "primary", "lanes": "2", "lit": "yes", "maxspeed": "60", "name": "Gorge Road", "network": "AU:SA", "oneway": "yes", "ref": "B31", "surface": "asphalt"}}, {"type": "way", "id": 1040933122, "nodes": [1799465511, 1004477701], "tags": {"cycleway:left": "lane", "cycleway:left:lane": "exclusive", "highway": "primary", "lanes": "2", "lit": "yes", "maxspeed": "60", "name": "Lower North East Road", "network": "AU:SA", "oneway": "yes", "ref": "A11", "source": "survey", "surface": "asphalt"}}, {"type": "way", "id": 1073009441, "nodes": [1877581790, 1840724431], "tags": {"cycleway": "lane", "highway": "primary", "lanes": "2", "lit": "yes", "maxspeed": "60", "name": "Gorge Road", "network": "AU:SA", "oneway": "yes", "ref": "B31", "surface": "asphalt"}}]}