{"version": 0.6, "generator": "Overpass API 0.7.61.5 4133829e", "osm3s": {"timestamp_osm_base": "2023-12-06T12:08:12Z", "copyright": "The data included in this document is from www.openstreetmap.org. The data is made available under ODbL."}, "elements": [{"type": "node", "id": 162825411, "lat": -29.6819095, "lon": 152.9382979}, {"type": "node", "id": 244307643, "lat": -29.6775649, "lon": 152.9313443}, {"type": "node", "id": 270933025, "lat": -29.6802487, "lon": 152.935605}, {"type": "node", "id": 279083871, "lat": -29.6845768, "lon": 152.9425729}, {"type": "node", "id": 279084272, "lat": -29.6839701, "lon": 152.9416116}, {"type": "node", "id": 448772518, "lat": -29.6886271, "lon": 152.9407551}, {"type": "node", "id": 448772529, "lat": -29.6789317, "lon": 152.9335122}, {"type": "node", "id": 448772533, "lat": -29.6900251, "lon": 152.9395944}, {"type": "node", "id": 1227761102, "lat": -29.6829122, "lon": 152.9400567}, {"type": "node", "id": 1227761104, "lat": -29.6827243, "lon": 152.9395851}, {"type": "node", "id": 1227761107, "lat": -29.683322, "lon": 152.940544}, {"type": "node", "id": 1227761123, "lat": -29.6831458, "lon": 152.9399825}, {"type": "node", "id": 1227761126, "lat": -29.682953, "lon": 152.9399658}, {"type": "node", "id": 1227761130, "lat": -29.6830795, "lon": 152.9399313}, {"type": "node", "id": 1227761151, "lat": -29.682875, "lon": 152.9398911}, {"type": "node", "id": 1227761165, "lat": -29.6829077, "lon": 152.9398214}, {"type": "node", "id": 1227761176, "lat": -29.6831718, "lon": 152.9401064}, {"type": "node", "id": 1227761178, "lat": -29.6831079, "lon": 152.9402085}, {"type": "node", "id": 1227761180, "lat": -29.6830294, "lon": 152.9402276}, {"type": "node", "id": 1227761182, "lat": -29.6829375, "lon": 152.940168}, {"type": "node", "id": 1227761186, "lat": -29.6832199, "lon": 152.940272}, {"type": "node", "id": 1227761189, "lat": -29.6831593, "lon": 152.9403525}, {"type": "node", "id": 1228690059, "lat": -29.691647, "lon": 152.9382811}, {"type": "node", "id": 1228690092, "lat": -29.6914816, "lon": 152.9384023}, {"type": "node", "id": 1228701806, "lat": -29.6816269, "lon": 152.9378385}, {"type": "node", "id": 1228701807, "lat": -29.6817794, "lon": 152.9378628}, {"type": "node", "id": 1228701810, "lat": -29.6816067, "lon": 152.9380102}, {"type": "node", "id": 1228701819, "lat": -29.6816834, "lon": 152.9380595}, {"type": "node", "id": 1228701820, "lat": -29.6817586, "lon": 152.9380341}, {"type": "node", "id": 1228701821, "lat": -29.6818001, "lon": 152.9379277}, {"type": "node", "id": 1228701822, "lat": -29.6814944, "lon": 152.9376149}, {"type": "node", "id": 1228701823, "lat": -29.6817537, "lon": 152.9378342}, {"type": "node", "id": 1228701824, "lat": -29.6776912, "lon": 152.9315415}, {"type": "node", "id": 1228701826, "lat": -29.6816896, "lon": 152.9378125}, {"type": "node", "id": 1228701828, "lat": -29.6815862, "lon": 152.9379204}, {"type": "node", "id": 1228771888, "lat": -29.6853185, "lon": 152.9434993}, {"type": "node", "id": 1228771908, "lat": -29.6851622, "lon": 152.9434649}, {"type": "node", "id": 1233275376, "lat": -29.6829191, "lon": 152.940129}, {"type": "node", "id": 1233275377, "lat": -29.6829649, "lon": 152.9401991}, {"type": "node", "id": 1233275378, "lat": -29.6830699, "lon": 152.940225}, {"type": "node", "id": 1233275379, "lat": -29.6831396, "lon": 152.9401793}, {"type": "node", "id": 1233275380, "lat": -29.6831706, "lon": 152.9400411}, {"type": "node", "id": 1233275381, "lat": -29.6831018, "lon": 152.9399413}, {"type": "node", "id": 1233275382, "lat": -29.6830346, "lon": 152.9399255}, {"type": "node", "id": 1233275383, "lat": -29.6829908, "lon": 152.9399375}, {"type": "node", "id": 1233275384, "lat": -29.6829257, "lon": 152.9400072}, {"type": "node", "id": 1233275385, "lat": -29.6815879, "lon": 152.9379633}, {"type": "node", "id": 1233275386, "lat": -29.6816339, "lon": 152.9380397}, {"type": "node", "id": 1233275387, "lat": -29.6817206, "lon": 152.9380557}, {"type": "node", "id": 1233275388, "lat": -29.6817837, "lon": 152.9380023}, {"type": "node", "id": 1233275389, "lat": -29.6817979, "lon": 152.9379625}, {"type": "node", "id": 1233275390, "lat": -29.6817911, "lon": 152.937886}, {"type": "node", "id": 1233275391, "lat": -29.6817198, "lon": 152.9378164}, {"type": "node", "id": 1233275392, "lat": -29.681653, "lon": 152.9378213}, {"type": "node", "id": 1233275393, "lat": -29.6816018, "lon": 152.9378703}, {"type": "node", "id": 1985566522, "lat": -29.6869204, "lon": 152.9421706}, {"type": "node", "id": 1985566535, "lat": -29.6839319, "lon": 152.9415488}, {"type": "node", "id": 1985595369, "lat": -29.680907, "lon": 152.9366766}, {"type": "node", "id": 1985601327, "lat": -29.6826508, "lon": 152.9394581}, {"type": "node", "id": 4737292181, "lat": -29.6901258, "lon": 152.939512}, {"type": "node", "id": 5635396057, "lat": -29.6829112, "lon": 152.9400857}, {"type": "node", "id": 5635396058, "lat": -29.682999, "lon": 152.9402197}, {"type": "node", "id": 5635396059, "lat": -29.6831621, "lon": 152.9401405}, {"type": "node", "id": 8582078683, "lat": -29.6783228, "lon": 152.9325545}, {"type": "way", "id": 16130771, "nodes": [244307643, 1228701824, 8582078683, 448772529, 270933025, 1985595369, 1228701822, 1228701806], "tags": {"highway": "primary", "maxspeed": "50", "name": "Dobie Street", "network": "AU:NSW", "ref": "B91", "surface": "asphalt"}}, {"type": "way", "id": 106747769, "nodes": [1227761104, 1227761151, 1227761102], "tags": {"highway": "primary", "maxspeed": "50", "name": "Dobie Street", "network": "AU:NSW;AU:NSW:T", "oneway": "yes", "ref": "B91;22", "source": "Bing", "surface": "asphalt"}}, {"type": "way", "id": 106747776, "nodes": [1227761107, 1227761186, 5635396059], "tags": {"highway": "primary", "maxspeed": "50", "maxspeed:source": "default residential speed limit in Australia", "name": "Dobie Street", "network": "AU:NSW", "oneway": "yes", "ref": "B91", "source": "Bing", "surface": "asphalt"}}, {"type": "way", "id": 106747790, "nodes": [1227761102, 5635396057, 1233275376, 1227761182, 1233275377, 5635396058, 1227761180], "tags": {"highway": "primary", "junction": "roundabout", "network": "AU:NSW;AU:NSW:T", "ref": "B91;22", "source": "Bing", "surface": "asphalt"}}, {"type": "way", "id": 106747792, "nodes": [1227761107, 1985566535, 279084272, 279083871, 1228771908], "tags": {"highway": "primary", "maxspeed": "50", "maxspeed:source": "default residential speed limit in Australia", "name": "Dobie Street", "network": "AU:NSW", "ref": "B91", "surface": "asphalt"}}, {"type": "way", "id": 106747795, "nodes": [1227761130, 1227761165, 1227761104], "tags": {"highway": "primary", "maxspeed": "50", "name": "Dobie Street", "network": "AU:NSW;AU:NSW:T", "oneway": "yes", "ref": "B91;22", "source": "Bing", "surface": "asphalt"}}, {"type": "way", "id": 106747808, "nodes": [1227761180, 1227761189, 1227761107], "tags": {"highway": "primary", "maxspeed": "50", "maxspeed:source": "default residential speed limit in Australia", "name": "Dobie Street", "network": "AU:NSW", "oneway": "yes", "ref": "B91", "source": "Bing", "surface": "asphalt"}}, {"type": "way", "id": 106847321, "nodes": [448772533, 448772518, 1985566522, 1228771888], "tags": {"highway": "primary", "maxspeed": "50", "maxspeed:source": "default residential speed limit in Australia", "name": "Villiers Street", "network": "AU:NSW", "ref": "B91", "surface": "asphalt"}}, {"type": "way", "id": 106849491, "nodes": [1228701820, 1233275388, 1233275389, 1228701821, 1233275390, 1228701807], "tags": {"highway": "primary", "junction": "roundabout", "maxspeed": "50", "network": "AU:NSW;AU:NSW:T", "ref": "B91;22", "source": "Bing", "surface": "asphalt"}}, {"type": "way", "id": 106849492, "nodes": [1228701820, 162825411, 1985601327, 1227761104], "tags": {"highway": "primary", "maxspeed": "50", "name": "Dobie Street", "network": "AU:NSW;AU:NSW:T", "ref": "B91;22", "surface": "asphalt"}}, {"type": "way", "id": 343223429, "nodes": [1228690059, 1228690092, 4737292181, 448772533], "tags": {"highway": "primary", "maxheight": "5.0", "maxspeed": "50", "maxspeed:source": "default residential speed limit in Australia", "name": "Villiers Street", "network": "AU:NSW", "ref": "B91", "surface": "asphalt"}}, {"type": "way", "id": 726561735, "nodes": [1228701810, 1233275386, 1228701819, 1233275387, 1228701820], "tags": {"highway": "primary", "junction": "roundabout", "maxspeed": "50", "network": "AU:NSW;AU:NSW:T", "ref": "B91;22", "source": "Bing", "surface": "asphalt"}}, {"type": "way", "id": 726561736, "nodes": [1228701807, 1228701823, 1233275391, 1228701826, 1233275392, 1228701806], "tags": {"highway": "primary", "junction": "roundabout", "maxspeed": "50", "network": "AU:NSW;AU:NSW:T", "ref": "B91;22", "source": "Bing", "surface": "asphalt"}}, {"type": "way", "id": 726561737, "nodes": [1228701806, 1233275393, 1228701828, 1233275385, 1228701810], "tags": {"highway": "primary", "junction": "roundabout", "maxspeed": "50", "network": "AU:NSW;AU:NSW:T", "ref": "B91;22", "source": "Bing", "surface": "asphalt"}}, {"type": "way", "id": 726569933, "nodes": [1233275381, 1227761130], "tags": {"highway": "primary", "junction": "roundabout", "network": "AU:NSW;AU:NSW:T", "ref": "B91;22", "source": "Bing", "surface": "asphalt"}}, {"type": "way", "id": 1097449076, "nodes": [1227761180, 1233275378, 1227761178, 1233275379, 5635396059], "tags": {"highway": "primary", "junction": "roundabout", "network": "AU:NSW:T", "ref": "22", "source": "Bing", "surface": "asphalt"}}, {"type": "way", "id": 1097449077, "nodes": [5635396059, 1227761176], "tags": {"highway": "primary", "junction": "roundabout", "network": "AU:NSW;AU:NSW:T", "ref": "B91;22", "source": "Bing", "surface": "asphalt"}}, {"type": "way", "id": 1097449085, "nodes": [1227761176, 1233275380, 1227761123, 1233275381], "tags": {"highway": "primary", "junction": "roundabout", "network": "AU:NSW", "ref": "B91", "source": "Bing", "surface": "asphalt"}}, {"type": "way", "id": 1097449086, "nodes": [1227761130, 1233275382, 1233275383, 1227761126, 1233275384, 1227761102], "tags": {"highway": "primary", "junction": "roundabout", "network": "AU:NSW;AU:NSW:T", "ref": "B91;22", "source": "Bing", "surface": "asphalt"}}]}