{"version": 0.6, "generator": "Overpass API 0.7.61.5 4133829e", "osm3s": {"timestamp_osm_base": "2023-12-06T12:03:10Z", "copyright": "The data included in this document is from www.openstreetmap.org. The data is made available under ODbL."}, "elements": [{"type": "node", "id": 33079751, "lat": -34.4204015, "lon": 150.8927074}, {"type": "node", "id": 33079758, "lat": -34.4208464, "lon": 150.8930874}, {"type": "node", "id": 33079779, "lat": -34.4214641, "lon": 150.8938315, "tags": {"crossing": "traffic_signals", "highway": "traffic_signals"}}, {"type": "node", "id": 33079787, "lat": -34.424863, "lon": 150.8931532, "tags": {"crossing": "traffic_signals", "ref": "0171", "start_date": "1955-12-01"}}, {"type": "node", "id": 33081996, "lat": -34.4257981, "lon": 150.8873945}, {"type": "node", "id": 34230348, "lat": -34.4252151, "lon": 150.8916238}, {"type": "node", "id": 34922632, "lat": -34.4257857, "lon": 150.8882469}, {"type": "node", "id": 34922633, "lat": -34.4257083, "lon": 150.8890829}, {"type": "node", "id": 72482654, "lat": -34.4256229, "lon": 150.889842}, {"type": "node", "id": 259003049, "lat": -34.4224364, "lon": 150.8936713, "tags": {"crossing": "traffic_signals"}}, {"type": "node", "id": 259003351, "lat": -34.4210437, "lon": 150.8933393}, {"type": "node", "id": 268781746, "lat": -34.4193847, "lon": 150.8926612}, {"type": "node", "id": 268781747, "lat": -34.4193234, "lon": 150.8925825}, {"type": "node", "id": 268781748, "lat": -34.4193286, "lon": 150.892444}, {"type": "node", "id": 268781749, "lat": -34.4193914, "lon": 150.8923745}, {"type": "node", "id": 268781750, "lat": -34.4195363, "lon": 150.8924089}, {"type": "node", "id": 268781751, "lat": -34.419557, "lon": 150.8925972}, {"type": "node", "id": 268781753, "lat": -34.4194434, "lon": 150.8926779}, {"type": "node", "id": 268781755, "lat": -34.4193128, "lon": 150.8925134}, {"type": "node", "id": 268781756, "lat": -34.4194525, "lon": 150.892362}, {"type": "node", "id": 268781759, "lat": -34.4202242, "lon": 150.8926621}, {"type": "node", "id": 268781761, "lat": -34.4194782, "lon": 150.8926721}, {"type": "node", "id": 277325263, "lat": -34.4195734, "lon": 150.8925301}, {"type": "node", "id": 279954756, "lat": -34.4257312, "lon": 150.8888333, "tags": {"crossing": "traffic_signals", "ref": "0408", "start_date": "1970-09-18"}}, {"type": "node", "id": 279954781, "lat": -34.4248949, "lon": 150.8927765}, {"type": "node", "id": 292440337, "lat": -34.4254392, "lon": 150.8908746, "tags": {"crossing": "traffic_signals", "ref": "0407", "start_date": "1970-09-18"}}, {"type": "node", "id": 637641461, "lat": -34.4193483, "lon": 150.8926284}, {"type": "node", "id": 637641467, "lat": -34.4193569, "lon": 150.8924011}, {"type": "node", "id": 637641475, "lat": -34.4194964, "lon": 150.8923754}, {"type": "node", "id": 637641478, "lat": -34.4195619, "lon": 150.8924542}, {"type": "node", "id": 637641484, "lat": -34.4195282, "lon": 150.8926397}, {"type": "node", "id": 645176674, "lat": -34.4194194, "lon": 150.8923629}, {"type": "node", "id": 645177398, "lat": -34.4257492, "lon": 150.8886587}, {"type": "node", "id": 645177835, "lat": -34.4258132, "lon": 150.8879484}, {"type": "node", "id": 645177840, "lat": -34.4258272, "lon": 150.8878165}, {"type": "node", "id": 645177856, "lat": -34.4258305, "lon": 150.887704}, {"type": "node", "id": 645177859, "lat": -34.4258245, "lon": 150.8875709}, {"type": "node", "id": 645178125, "lat": -34.4249797, "lon": 150.8923827}, {"type": "node", "id": 645178158, "lat": -34.4250285, "lon": 150.8921787}, {"type": "node", "id": 864540686, "lat": -34.4187292, "lon": 150.8924158}, {"type": "node", "id": 1841690224, "lat": -34.420583, "lon": 150.8928179}, {"type": "node", "id": 1841690227, "lat": -34.421305, "lon": 150.8937004}, {"type": "node", "id": 1857547806, "lat": -34.4258179, "lon": 150.8874988}, {"type": "node", "id": 2360271958, "lat": -34.4234043, "lon": 150.8934673}, {"type": "node", "id": 2513749023, "lat": -34.4207209, "lon": 150.8929421}, {"type": "node", "id": 2513749024, "lat": -34.4204959, "lon": 150.8927544}, {"type": "node", "id": 2513749026, "lat": -34.4204483, "lon": 150.892728}, {"type": "node", "id": 2527460707, "lat": -34.4255297, "lon": 150.8866827}, {"type": "node", "id": 2527460708, "lat": -34.4253938, "lon": 150.8863289}, {"type": "node", "id": 2527460709, "lat": -34.4253301, "lon": 150.8861574}, {"type": "node", "id": 2527460710, "lat": -34.4257403, "lon": 150.887234, "tags": {"highway": "traffic_signals", "traffic_signals": "signal", "traffic_signals:direction": "forward"}}, {"type": "node", "id": 2528846918, "lat": -34.4255163, "lon": 150.8905369}, {"type": "node", "id": 2528846933, "lat": -34.425576, "lon": 150.8901807, "tags": {"highway": "traffic_signals", "traffic_signals:direction": "backward"}}, {"type": "node", "id": 4866939597, "lat": -34.4253098, "lon": 150.8860809}, {"type": "node", "id": 6654143102, "lat": -34.4258285, "lon": 150.8877738}, {"type": "node", "id": 6654144037, "lat": -34.4215806, "lon": 150.8938488}, {"type": "node", "id": 7150820726, "lat": -34.4257382, "lon": 150.8887641, "tags": {"crossing": "traffic_signals", "highway": "crossing"}}, {"type": "node", "id": 7150820737, "lat": -34.4257196, "lon": 150.8889629, "tags": {"crossing": "traffic_signals", "crossing:island": "no", "highway": "crossing", "tactile_paving": "no"}}, {"type": "node", "id": 7150820765, "lat": -34.4255968, "lon": 150.8900302, "tags": {"crossing": "traffic_signals", "highway": "crossing"}}, {"type": "node", "id": 7156298426, "lat": -34.4253716, "lon": 150.8911214}, {"type": "node", "id": 7156328813, "lat": -34.4253989, "lon": 150.8910239, "tags": {"crossing": "traffic_signals", "crossing:island": "no", "highway": "crossing", "tactile_paving": "no"}}, {"type": "node", "id": 7263286790, "lat": -34.4248095, "lon": 150.8931668, "tags": {"crossing": "traffic_signals", "crossing:island": "no", "highway": "crossing", "tactile_paving": "no"}}, {"type": "node", "id": 7263286791, "lat": -34.4248597, "lon": 150.8930569, "tags": {"button_operated": "yes", "crossing": "traffic_signals", "crossing:island": "yes", "crossing:markings": "yes", "highway": "crossing", "tactile_paving": "no"}}, {"type": "node", "id": 7484358968, "lat": -34.4233298, "lon": 150.8934824, "tags": {"crossing": "traffic_signals", "highway": "crossing"}}, {"type": "node", "id": 7484358986, "lat": -34.4215476, "lon": 150.8938514, "tags": {"crossing": "marked", "highway": "crossing"}}, {"type": "node", "id": 7736381900, "lat": -34.4256003, "lon": 150.8899952, "tags": {"highway": "traffic_signals", "traffic_signals:direction": "forward"}}, {"type": "node", "id": 8512258538, "lat": -34.4213793, "lon": 150.8937803}, {"type": "node", "id": 8512258539, "lat": -34.4213302, "lon": 150.8937304}, {"type": "node", "id": 8512258540, "lat": -34.4217014, "lon": 150.8938245}, {"type": "node", "id": 8512258541, "lat": -34.4214282, "lon": 150.8938138}, {"type": "node", "id": 8520612691, "lat": -34.4213537, "lon": 150.8937567, "tags": {"crossing": "marked", "highway": "crossing"}}, {"type": "node", "id": 8520612704, "lat": -34.4196877, "lon": 150.8925603, "tags": {"crossing": "unmarked", "highway": "crossing"}}, {"type": "node", "id": 8520612707, "lat": -34.4198289, "lon": 150.8925976}, {"type": "node", "id": 8749307543, "lat": -34.4225259, "lon": 150.8936549, "tags": {"crossing": "traffic_signals", "highway": "crossing"}}, {"type": "node", "id": 8749307549, "lat": -34.4223171, "lon": 150.893697, "tags": {"crossing": "traffic_signals", "highway": "crossing"}}, {"type": "node", "id": 8749307551, "lat": -34.4234832, "lon": 150.8934517, "tags": {"crossing": "traffic_signals", "highway": "crossing"}}, {"type": "node", "id": 9880231974, "lat": -34.4257518, "lon": 150.8872618, "tags": {"button_operated": "yes", "crossing": "traffic_signals", "crossing:island": "no", "highway": "crossing", "tactile_paving": "no", "traffic_signals:sound": "yes", "traffic_signals:vibration": "yes"}}, {"type": "node", "id": 9880231979, "lat": -34.4258251, "lon": 150.8875865, "tags": {"crossing": "traffic_signals", "crossing:island": "no", "highway": "crossing"}}, {"type": "node", "id": 9901761474, "lat": -34.4244233, "lon": 150.8932476}, {"type": "node", "id": 9901761475, "lat": -34.4245221, "lon": 150.8932263}, {"type": "node", "id": 10142053761, "lat": -34.4248708, "lon": 150.8929191}, {"type": "node", "id": 10142053762, "lat": -34.4248622, "lon": 150.892978}, {"type": "node", "id": 10142053763, "lat": -34.4248593, "lon": 150.8930091, "tags": {"highway": "traffic_signals", "traffic_signals": "signal", "traffic_signals:direction": "forward"}}, {"type": "node", "id": 10142053764, "lat": -34.42486, "lon": 150.8930369}, {"type": "node", "id": 10142172094, "lat": -34.4247681, "lon": 150.8931769, "tags": {"highway": "traffic_signals", "traffic_signals": "signal", "traffic_signals:direction": "forward"}}, {"type": "node", "id": 10155897669, "lat": -34.4215296, "lon": 150.8938498}, {"type": "node", "id": 10155897670, "lat": -34.4214862, "lon": 150.8938397}, {"type": "node", "id": 10155897671, "lat": -34.4215094, "lon": 150.8938461}, {"type": "node", "id": 10155897672, "lat": -34.4214082, "lon": 150.8938014}, {"type": "node", "id": 10155897673, "lat": -34.4215657, "lon": 150.8938506}, {"type": "node", "id": 10155897674, "lat": -34.4214485, "lon": 150.8938244}, {"type": "node", "id": 10155897675, "lat": -34.4213928, "lon": 150.8937904}, {"type": "node", "id": 11280644441, "lat": -34.4257417, "lon": 150.8887309, "tags": {"highway": "traffic_signals", "traffic_signals": "signal", "traffic_signals:direction": "forward"}}, {"type": "node", "id": 11280644442, "lat": -34.4257163, "lon": 150.8889988, "tags": {"highway": "traffic_signals", "traffic_signals": "signal", "traffic_signals:direction": "backward"}}, {"type": "node", "id": 11280668009, "lat": -34.4258268, "lon": 150.8876227, "tags": {"highway": "traffic_signals", "traffic_signals": "signal", "traffic_signals:direction": "backward"}}, {"type": "node", "id": 11280673693, "lat": -34.4253895, "lon": 150.8910576, "tags": {"highway": "traffic_signals", "traffic_signals": "signal", "traffic_signals:direction": "backward"}}, {"type": "node", "id": 11280673694, "lat": -34.4254619, "lon": 150.8907809, "tags": {"highway": "traffic_signals", "traffic_signals": "signal", "traffic_signals:direction": "forward"}}, {"type": "node", "id": 11285710933, "lat": -34.422559, "lon": 150.8936478, "tags": {"highway": "traffic_signals", "traffic_signals": "signal", "traffic_signals:direction": "backward"}}, {"type": "node", "id": 11285710935, "lat": -34.4222892, "lon": 150.8937028, "tags": {"highway": "traffic_signals", "traffic_signals": "signal", "traffic_signals:direction": "forward"}}, {"type": "node", "id": 11285734187, "lat": -34.4235088, "lon": 150.8934461, "tags": {"highway": "traffic_signals", "traffic_signals": "signal", "traffic_signals:direction": "backward"}}, {"type": "node", "id": 11285734189, "lat": -34.4232997, "lon": 150.8934888, "tags": {"highway": "traffic_signals", "traffic_signals": "signal", "traffic_signals:direction": "forward"}}, {"type": "node", "id": 11297312124, "lat": -34.4191734, "lon": 150.8924814, "tags": {"traffic_calming": "island"}}, {"type": "node", "id": 11297312125, "lat": -34.4188869, "lon": 150.8924384}, {"type": "way", "id": 5105483, "nodes": [292440337, 7156328813, 11280673693, 7156298426, 34230348, 645178158, 645178125, 279954781], "tags": {"alt_name": "Princes Highway", "highway": "primary", "lanes": "4", "lit": "yes", "name": "Crown Street", "sidewalk": "separate", "smoothness": "good", "source": "Street name sign", "surface": "asphalt"}}, {"type": "way", "id": 24729872, "nodes": [268781755, 268781747, 637641461, 268781746, 268781753, 268781761], "tags": {"highway": "primary", "junction": "roundabout", "maxspeed": "50", "surface": "asphalt"}}, {"type": "way", "id": 25447924, "nodes": [277325263, 8520612704, 8520612707, 268781759, 33079751, 2513749026, 2513749024, 1841690224, 2513749023, 33079758, 259003351], "tags": {"alt_name": "Princes Highway", "highway": "primary", "maxspeed": "50", "name": "Flinders Street", "surface": "asphalt"}}, {"type": "way", "id": 50668301, "nodes": [34922632, 645177398], "tags": {"bicycle": "yes", "bridge": "yes", "foot": "yes", "highway": "primary", "horse": "yes", "lanes": "4", "layer": "1", "lit": "yes", "maxspeed": "50", "maxspeed:type": "sign", "maxweight:signed": "no", "motor_vehicle": "yes", "name": "Crown Street", "shoulder": "no", "sidewalk": "separate", "smoothness": "good", "surface": "asphalt"}}, {"type": "way", "id": 123882206, "nodes": [33079779, 10155897670, 10155897671, 10155897669, 7484358986, 10155897673, 6654144037, 8512258540, 11285710935, 8749307549, 259003049, 8749307543, 11285710933, 11285734189, 7484358968, 2360271958], "tags": {"alt_name": "Princes Highway", "highway": "primary", "maxspeed": "50", "name": "Keira Street", "surface": "paved"}}, {"type": "way", "id": 333529658, "nodes": [72482654, 7736381900, 7150820765, 2528846933], "tags": {"alt_name": "Princes Highway", "highway": "primary", "lanes": "4", "name": "Crown Street", "sidewalk": "separate", "smoothness": "good", "source": "Street name sign", "surface": "asphalt"}}, {"type": "way", "id": 333529659, "nodes": [645177398, 11280644441, 7150820726, 279954756, 7150820737, 11280644442, 34922633], "tags": {"alt_name": "Princes Highway", "highway": "primary", "lanes": "4", "name": "Crown Street", "oneway": "no", "sidewalk": "separate", "smoothness": "good", "source": "Street name sign", "surface": "asphalt"}}, {"type": "way", "id": 571084589, "nodes": [1857547806, 645177859, 9880231979, 11280668009, 645177856, 6654143102], "tags": {"alt_name": "Princes Highway", "highway": "primary", "lanes": "4", "name": "Crown Street", "sidewalk": "separate", "surface": "asphalt"}}, {"type": "way", "id": 625210138, "nodes": [33081996, 1857547806], "tags": {"alt_name": "Princes Highway", "cycleway:both": "no", "highway": "primary", "lane_markings": "no", "name": "Crown Street", "surface": "asphalt"}}, {"type": "way", "id": 699828662, "nodes": [864540686, 11297312125, 11297312124, 268781755], "tags": {"cycleway:both": "no", "highway": "primary", "maxspeed": "50", "name": "Princes Highway", "surface": "asphalt"}}, {"type": "way", "id": 726186539, "nodes": [645176674, 268781749, 637641467, 268781748, 268781755], "tags": {"highway": "primary", "junction": "roundabout", "maxspeed": "50", "surface": "asphalt"}}, {"type": "way", "id": 726186540, "nodes": [277325263, 637641478, 268781750, 637641475, 268781756, 645176674], "tags": {"highway": "primary", "junction": "roundabout", "maxspeed": "50", "surface": "asphalt"}}, {"type": "way", "id": 726186541, "nodes": [268781761, 637641484, 268781751, 277325263], "tags": {"highway": "primary", "junction": "roundabout", "maxspeed": "50", "surface": "asphalt"}}, {"type": "way", "id": 737730437, "nodes": [2360271958, 8749307551, 11285734187, 9901761474], "tags": {"alt_name": "Princes Highway", "highway": "primary", "maxspeed": "50", "name": "Keira Street", "sidewalk": "separate", "surface": "paved"}}, {"type": "way", "id": 787360011, "nodes": [6654143102, 645177840, 645177835, 34922632], "tags": {"alt_name": "Princes Highway", "highway": "primary", "lanes": "4", "lit": "yes", "maxspeed": "50", "maxspeed:type": "sign", "name": "Crown Street", "sidewalk": "separate", "smoothness": "good", "surface": "asphalt"}}, {"type": "way", "id": 787364688, "nodes": [4866939597, 2527460709, 2527460708, 2527460707, 2527460710, 9880231974, 33081996], "tags": {"alt_name": "Princes Highway", "highway": "primary", "name": "Crown Street", "sidewalk": "separate", "surface": "asphalt"}}, {"type": "way", "id": 788601909, "nodes": [2528846933, 2528846918], "tags": {"alt_name": "Princes Highway", "highway": "primary", "lanes": "4", "name": "Crown Street", "sidewalk": "separate", "smoothness": "good", "source": "Street name sign", "surface": "asphalt"}}, {"type": "way", "id": 790436820, "nodes": [2528846918, 11280673694, 292440337], "tags": {"alt_name": "Princes Highway", "highway": "primary", "lanes": "4", "name": "Crown Street", "sidewalk": "separate", "smoothness": "good", "source": "Street name sign", "surface": "asphalt"}}, {"type": "way", "id": 790437705, "nodes": [34922633, 72482654], "tags": {"alt_name": "Princes Highway", "highway": "primary", "lanes": "4", "lit": "yes", "name": "Crown Street", "oneway": "no", "sidewalk": "separate", "smoothness": "good", "source": "Street name sign", "surface": "asphalt"}}, {"type": "way", "id": 791857642, "nodes": [259003351, 1841690227, 8512258539, 8520612691, 8512258538, 10155897675, 10155897672, 8512258541, 10155897674, 33079779], "tags": {"alt_name": "Princes Highway", "highway": "primary", "maxspeed": "50", "name": "Flinders Street", "surface": "asphalt"}}, {"type": "way", "id": 858362769, "nodes": [279954781, 10142053761, 10142053762, 10142053763, 10142053764, 7263286791, 33079787], "tags": {"alt_name": "Princes Highway", "highway": "primary", "lanes": "4", "name": "Crown Street", "sidewalk": "separate", "smoothness": "good", "source": "Street name sign", "surface": "asphalt"}}, {"type": "way", "id": 1080265930, "nodes": [9901761474, 9901761475], "tags": {"alt_name": "Princes Highway", "highway": "primary", "lanes": "4", "maxheight": "default", "maxspeed": "50", "name": "Keira Street", "sidewalk": "separate", "surface": "asphalt"}}, {"type": "way", "id": 1080265931, "nodes": [9901761475, 10142172094, 7263286790, 33079787], "tags": {"alt_name": "Princes Highway", "highway": "primary", "lanes": "4", "lit": "yes", "maxspeed": "50", "name": "Keira Street", "sidewalk": "separate", "smoothness": "good", "surface": "asphalt"}}]}