{"version": 0.6, "generator": "Overpass API 0.7.61.5 4133829e", "osm3s": {"timestamp_osm_base": "2023-12-06T14:36:30Z", "copyright": "The data included in this document is from www.openstreetmap.org. The data is made available under ODbL."}, "elements": [{"type": "node", "id": 31040312, "lat": -16.7686705, "lon": 145.6699358}, {"type": "node", "id": 31040313, "lat": -16.7660362, "lon": 145.6688201}, {"type": "node", "id": 31040314, "lat": -16.758081, "lon": 145.6632241}, {"type": "node", "id": 31287792, "lat": -16.7695818, "lon": 145.6706044}, {"type": "node", "id": 31287793, "lat": -16.7653639, "lon": 145.6683779}, {"type": "node", "id": 31287794, "lat": -16.764343, "lon": 145.6675656}, {"type": "node", "id": 31287839, "lat": -16.7600404, "lon": 145.6643902}, {"type": "node", "id": 31287840, "lat": -16.7589579, "lon": 145.663762}, {"type": "node", "id": 1494238452, "lat": -16.7677999, "lon": 145.6695097}, {"type": "node", "id": 1494238459, "lat": -16.7700837, "lon": 145.6711525}, {"type": "node", "id": 2108780908, "lat": -16.7575549, "lon": 145.663075}, {"type": "node", "id": 2108780909, "lat": -16.7575409, "lon": 145.6629874}, {"type": "node", "id": 2108780910, "lat": -16.7581001, "lon": 145.663324, "tags": {"bus": "yes", "name": "Cairns Tropical Zoo", "network": "Translink Cairns", "operator": "Sunbus", "public_transport": "stop_position"}}, {"type": "node", "id": 2108780912, "lat": -16.7588099, "lon": 145.6635904}, {"type": "node", "id": 2337863641, "lat": -16.7612377, "lon": 145.6652924}, {"type": "node", "id": 2343945525, "lat": -16.7594367, "lon": 145.664035}, {"type": "node", "id": 2343945538, "lat": -16.7568382, "lon": 145.662803}, {"type": "node", "id": 2343945542, "lat": -16.7566813, "lon": 145.6627435}, {"type": "node", "id": 2655454054, "lat": -16.7566657, "lon": 145.6626597}, {"type": "node", "id": 5774539188, "lat": -16.7658459, "lon": 145.6687242}, {"type": "node", "id": 5774539189, "lat": -16.7662033, "lon": 145.6689067}, {"type": "node", "id": 5774539190, "lat": -16.7665222, "lon": 145.6690374}, {"type": "node", "id": 5774539191, "lat": -16.7638173, "lon": 145.667184}, {"type": "node", "id": 5774539192, "lat": -16.7632459, "lon": 145.6668254}, {"type": "node", "id": 5774539193, "lat": -16.7637814, "lon": 145.6672404}, {"type": "node", "id": 5774539194, "lat": -16.7642703, "lon": 145.667603}, {"type": "node", "id": 5774539195, "lat": -16.7640477, "lon": 145.6674311}, {"type": "node", "id": 5774539196, "lat": -16.7646932, "lon": 145.6679257}, {"type": "node", "id": 5774539197, "lat": -16.765072, "lon": 145.6682328}, {"type": "node", "id": 5774539198, "lat": -16.7652569, "lon": 145.6683831}, {"type": "node", "id": 5774539199, "lat": -16.7654238, "lon": 145.6684984}, {"type": "node", "id": 5774539200, "lat": -16.7655574, "lon": 145.6685762}, {"type": "node", "id": 5774539202, "lat": -16.7644587, "lon": 145.6676559, "tags": {"highway": "traffic_signals", "traffic_signals": "signal", "traffic_signals:direction": "forward"}}, {"type": "node", "id": 5774539203, "lat": -16.7641834, "lon": 145.6675359, "tags": {"highway": "traffic_signals", "traffic_signals": "signal", "traffic_signals:direction": "forward"}}, {"type": "node", "id": 5774539206, "lat": -16.7643296, "lon": 145.6676501}, {"type": "node", "id": 5774539243, "lat": -16.757141, "lon": 145.6628269}, {"type": "node", "id": 5774539244, "lat": -16.7584435, "lon": 145.6633999}, {"type": "node", "id": 5774539245, "lat": -16.7597519, "lon": 145.6642292}, {"type": "node", "id": 5774539248, "lat": -16.7582307, "lon": 145.6632967, "tags": {"bus": "yes", "name": "Cairns Tropical Zoo", "network": "Translink", "operator": "Sunbus", "public_transport": "stop_position"}}, {"type": "node", "id": 5774539249, "lat": -16.7589874, "lon": 145.6636958}, {"type": "node", "id": 5774539250, "lat": -16.759473, "lon": 145.6639835}, {"type": "node", "id": 5774539251, "lat": -16.7597799, "lon": 145.6641873}, {"type": "node", "id": 5788622159, "lat": -16.758475, "lon": 145.6635135}, {"type": "node", "id": 6401730686, "lat": -16.7696304, "lon": 145.6706574}, {"type": "node", "id": 6409276884, "lat": -16.7677337, "lon": 145.6694852}, {"type": "node", "id": 6419854330, "lat": -16.76477, "lon": 145.667988}, {"type": "node", "id": 6419854331, "lat": -16.7644231, "lon": 145.667721}, {"type": "node", "id": 6688215522, "lat": -16.7645576, "lon": 145.6677331}, {"type": "node", "id": 7489388183, "lat": -16.7703097, "lon": 145.6714502}, {"type": "way", "id": 609675176, "nodes": [5774539188, 31040313, 5774539189, 5774539190, 6409276884, 1494238452, 31040312, 31287792, 6401730686, 1494238459, 7489388183], "tags": {"access": "yes", "bicycle": "yes", "cycleway": "lane", "foot": "yes", "highway": "trunk", "horse": "yes", "lanes": "2", "maxspeed": "80", "name": "Captain Cook Highway", "network": "AU:QLD:S", "oneway": "no", "operator": "mainroads.qld.gov.au", "ref": "44", "surface": "asphalt"}}, {"type": "way", "id": 609675177, "nodes": [31287793, 6688215522], "tags": {"access": "yes", "bicycle": "yes", "cycleway:left": "lane", "foot": "yes", "highway": "trunk", "horse": "yes", "lanes": "2", "maxspeed": "80", "name": "Captain Cook Highway", "network": "AU:QLD:S", "oneway": "yes", "operator": "mainroads.qld.gov.au", "ref": "44", "surface": "asphalt", "turn:lanes": "none|right"}}, {"type": "way", "id": 609675178, "nodes": [5774539192, 5774539193, 5774539195, 5774539203, 5774539194], "tags": {"access": "yes", "bicycle": "yes", "cycleway:left": "lane", "foot": "yes", "highway": "trunk", "horse": "yes", "lanes": "2", "maxspeed": "80", "name": "Captain Cook Highway", "network": "AU:QLD:S", "oneway": "yes", "operator": "mainroads.qld.gov.au", "ref": "44", "surface": "asphalt"}}, {"type": "way", "id": 609675182, "nodes": [31287839, 5774539251, 5774539250, 5774539249, 2108780912, 5774539244, 5774539248, 31040314, 2108780909, 5774539243, 2655454054], "tags": {"cycleway:left": "lane", "highway": "trunk", "maxspeed": "80", "name": "Captain Cook Highway", "network": "AU:QLD:S", "oneway": "yes", "operator": "mainroads.qld.gov.au", "ref": "44", "surface": "asphalt"}}, {"type": "way", "id": 609675183, "nodes": [31287839, 2337863641, 5774539192], "tags": {"access": "yes", "bicycle": "yes", "cycleway": "lane", "foot": "yes", "highway": "trunk", "horse": "yes", "lanes": "2", "maxspeed": "80", "name": "Captain Cook Highway", "network": "AU:QLD:S", "oneway": "no", "operator": "mainroads.qld.gov.au", "ref": "44", "surface": "asphalt"}}, {"type": "way", "id": 609675187, "nodes": [2343945542, 2343945538, 2108780908, 2108780910, 5788622159, 31287840, 2343945525, 5774539245, 31287839], "tags": {"access": "yes", "bicycle": "yes", "cycleway:left": "lane", "foot": "yes", "highway": "trunk", "horse": "yes", "maxspeed": "80", "name": "Captain Cook Highway", "network": "AU:QLD:S", "oneway": "yes", "operator": "mainroads.qld.gov.au", "ref": "44", "surface": "asphalt"}}, {"type": "way", "id": 609703581, "nodes": [31287794, 5774539191, 5774539192], "tags": {"access": "yes", "bicycle": "yes", "cycleway:left": "lane", "foot": "yes", "highway": "trunk", "horse": "yes", "maxspeed": "80", "name": "Captain Cook Highway", "network": "AU:QLD:S", "oneway": "yes", "operator": "mainroads.qld.gov.au", "ref": "44", "surface": "asphalt"}}, {"type": "way", "id": 609703583, "nodes": [6419854331, 5774539196, 6419854330, 5774539197, 5774539198, 5774539199, 5774539200, 5774539188], "tags": {"access": "yes", "bicycle": "yes", "cycleway:left": "lane", "foot": "yes", "highway": "trunk", "horse": "yes", "lanes": "1", "maxspeed": "80", "name": "Captain Cook Highway", "network": "AU:QLD:S", "oneway": "yes", "operator": "mainroads.qld.gov.au", "ref": "44", "surface": "asphalt"}}, {"type": "way", "id": 711363777, "nodes": [5774539194, 5774539206, 6419854331], "tags": {"access": "yes", "bicycle": "yes", "cycleway:left": "lane", "foot": "yes", "highway": "trunk", "horse": "yes", "lanes": "2", "maxspeed": "80", "name": "Captain Cook Highway", "network": "AU:QLD:S", "oneway": "yes", "operator": "mainroads.qld.gov.au", "ref": "44", "surface": "asphalt"}}, {"type": "way", "id": 711363778, "nodes": [6688215522, 5774539202, 31287794], "tags": {"access": "yes", "bicycle": "yes", "cycleway:left": "lane", "foot": "yes", "highway": "trunk", "horse": "yes", "lanes": "2", "maxspeed": "80", "name": "Captain Cook Highway", "network": "AU:QLD:S", "oneway": "yes", "operator": "mainroads.qld.gov.au", "ref": "44", "surface": "asphalt", "turn:lanes": "none|right"}}, {"type": "way", "id": 1053884684, "nodes": [5774539188, 31287793], "tags": {"access": "yes", "bicycle": "yes", "cycleway:left": "lane", "foot": "yes", "highway": "trunk", "horse": "yes", "lanes": "1", "maxspeed": "80", "name": "Captain Cook Highway", "network": "AU:QLD:S", "oneway": "yes", "operator": "mainroads.qld.gov.au", "ref": "44", "surface": "asphalt"}}]}