{"version": 0.6, "generator": "Overpass API 0.7.61.5 4133829e", "osm3s": {"timestamp_osm_base": "2023-12-06T11:52:45Z", "copyright": "The data included in this document is from www.openstreetmap.org. The data is made available under ODbL."}, "elements": [{"type": "node", "id": 12054678, "lat": -33.8961798, "lon": 151.198089}, {"type": "node", "id": 12054679, "lat": -33.8953478, "lon": 151.1981624}, {"type": "node", "id": 12054680, "lat": -33.8920603, "lon": 151.1996171, "tags": {"crossing": "traffic_signals", "highway": "crossing"}}, {"type": "node", "id": 15445738, "lat": -33.8969186, "lon": 151.1983169, "tags": {"highway": "traffic_signals", "ref": "0055", "start_date": "1946-11-18"}}, {"type": "node", "id": 15445739, "lat": -33.8966667, "lon": 151.1992791, "tags": {"button_operated": "yes", "crossing": "traffic_signals", "highway": "traffic_signals", "ref": "0047", "start_date": "1941-05-26", "tactile_paving": "no", "traffic_signals:sound": "yes", "traffic_signals:vibration": "yes"}}, {"type": "node", "id": 15445741, "lat": -33.9006781, "lon": 151.2006955}, {"type": "node", "id": 18458089, "lat": -33.8949777, "lon": 151.1982447, "tags": {"ref": "0689", "start_date": "1992-08-10"}}, {"type": "node", "id": 18460271, "lat": -33.8948453, "lon": 151.1982801}, {"type": "node", "id": 18462861, "lat": -33.8917434, "lon": 151.1997845, "tags": {"highway": "traffic_signals", "ref": "0178", "start_date": "1962-01-15"}}, {"type": "node", "id": 26378907, "lat": -33.8987684, "lon": 151.2000086, "tags": {"highway": "traffic_signals", "ref": "0137", "start_date": "1954-05-27"}}, {"type": "node", "id": 266132245, "lat": -33.8949253, "lon": 151.1992029, "tags": {"button_operated": "yes", "check_date:tactile_paving": "2022-10-08", "crossing": "traffic_signals", "highway": "crossing", "kerb": "flush", "ramp": "both", "ramp:stroller": "yes", "ramp:wheelchair": "yes", "ramp:width": "1", "ref": "2751", "source": "survey", "source:ref": "survey", "tactile_paving": "no", "traffic_signals:haptic": "yes", "traffic_signals:sound": "yes", "traffic_signals:vibration": "yes"}}, {"type": "node", "id": 266140148, "lat": -33.8944753, "lon": 151.1994071}, {"type": "node", "id": 1812123758, "lat": -33.8922224, "lon": 151.2005867, "tags": {"highway": "traffic_signals", "traffic_signals:direction": "forward"}}, {"type": "node", "id": 1825697581, "lat": -33.9001803, "lon": 151.2004898}, {"type": "node", "id": 1834805726, "lat": -33.8923087, "lon": 151.2005402, "tags": {"ref": "0783", "start_date": "1974-12-04"}}, {"type": "node", "id": 1834805729, "lat": -33.8918424, "lon": 151.2007019, "tags": {"highway": "traffic_signals"}}, {"type": "node", "id": 1834805735, "lat": -33.8937226, "lon": 151.1997995}, {"type": "node", "id": 1845672258, "lat": -33.8929966, "lon": 151.1991406}, {"type": "node", "id": 1845672262, "lat": -33.8931297, "lon": 151.2001005}, {"type": "node", "id": 1845672267, "lat": -33.8938146, "lon": 151.198739}, {"type": "node", "id": 1845672284, "lat": -33.8951037, "lon": 151.1991297}, {"type": "node", "id": 1845672288, "lat": -33.8955957, "lon": 151.1989524}, {"type": "node", "id": 1845672290, "lat": -33.8956724, "lon": 151.198952}, {"type": "node", "id": 1845672291, "lat": -33.8956869, "lon": 151.1980991}, {"type": "node", "id": 1858009877, "lat": -33.8921555, "lon": 151.1995693}, {"type": "node", "id": 1858050234, "lat": -33.8920094, "lon": 151.2006669}, {"type": "node", "id": 1858244709, "lat": -33.8911518, "lon": 151.2004585}, {"type": "node", "id": 1858244726, "lat": -33.8913915, "lon": 151.2000666}, {"type": "node", "id": 1865252318, "lat": -33.8953336, "lon": 151.1990425}, {"type": "node", "id": 1865252319, "lat": -33.8954588, "lon": 151.1989924}, {"type": "node", "id": 1941652248, "lat": -33.8923805, "lon": 151.2005008, "tags": {"bicycle": "designated", "crossing": "traffic_signals", "highway": "crossing"}}, {"type": "node", "id": 2126206543, "lat": -33.891688, "lon": 151.1998157, "tags": {"highway": "traffic_signals"}}, {"type": "node", "id": 2555305613, "lat": -33.8939545, "lon": 151.199683}, {"type": "node", "id": 2848221442, "lat": -33.8951628, "lon": 151.1991073}, {"type": "node", "id": 3132596533, "lat": -33.8936474, "lon": 151.1998352}, {"type": "node", "id": 3132596536, "lat": -33.8938372, "lon": 151.1997433}, {"type": "node", "id": 3858108479, "lat": -33.9003614, "lon": 151.2005571}, {"type": "node", "id": 4043051390, "lat": -33.8923659, "lon": 151.1994602}, {"type": "node", "id": 4089598725, "lat": -33.892718, "lon": 151.2003197}, {"type": "node", "id": 4112650353, "lat": -33.8965679, "lon": 151.1981839}, {"type": "node", "id": 4159053285, "lat": -33.8967984, "lon": 151.1987611}, {"type": "node", "id": 4160638728, "lat": -33.8932859, "lon": 151.2000175}, {"type": "node", "id": 4160638734, "lat": -33.8961632, "lon": 151.1991044}, {"type": "node", "id": 4160638735, "lat": -33.8962822, "lon": 151.1980968}, {"type": "node", "id": 4160638736, "lat": -33.8963792, "lon": 151.1981232}, {"type": "node", "id": 4160638737, "lat": -33.8967099, "lon": 151.1991024}, {"type": "node", "id": 5114365122, "lat": -33.8916024, "lon": 151.1998747}, {"type": "node", "id": 5601980563, "lat": -33.8965748, "lon": 151.1992488, "tags": {"button_operated": "yes", "crossing": "traffic_signals", "crossing:markings": "dashes", "highway": "crossing"}}, {"type": "node", "id": 6124414181, "lat": -33.8918359, "lon": 151.1997336, "tags": {"button_operated": "yes", "crossing": "traffic_signals", "highway": "crossing", "tactile_paving": "no", "traffic_signals:sound": "yes", "traffic_signals:vibration": "yes"}}, {"type": "node", "id": 6124421945, "lat": -33.8916261, "lon": 151.1998573, "tags": {"crossing": "traffic_signals", "highway": "crossing"}}, {"type": "node", "id": 8195499311, "lat": -33.8916596, "lon": 151.1998333, "tags": {"highway": "crossing"}}, {"type": "node", "id": 8555739149, "lat": -33.8945712, "lon": 151.1983889}, {"type": "node", "id": 8555739150, "lat": -33.8947708, "lon": 151.198303}, {"type": "node", "id": 8744228355, "lat": -33.8921806, "lon": 151.2006051}, {"type": "node", "id": 8744228356, "lat": -33.8921107, "lon": 151.2006345}, {"type": "node", "id": 8744228362, "lat": -33.8914996, "lon": 151.1999571}, {"type": "node", "id": 8744228363, "lat": -33.8912713, "lon": 151.2002419}, {"type": "node", "id": 9742287653, "lat": -33.8950311, "lon": 151.198233, "tags": {"crossing": "traffic_signals", "highway": "crossing"}}, {"type": "node", "id": 9762874759, "lat": -33.8956305, "lon": 151.1981063}, {"type": "node", "id": 9762874760, "lat": -33.8957396, "lon": 151.1980959}, {"type": "node", "id": 9762874761, "lat": -33.8963307, "lon": 151.1981086}, {"type": "node", "id": 9762874762, "lat": -33.8962239, "lon": 151.1980911}, {"type": "node", "id": 9762874781, "lat": -33.8968192, "lon": 151.1982796, "tags": {"crossing": "traffic_signals", "highway": "crossing"}}, {"type": "node", "id": 9762874784, "lat": -33.8968978, "lon": 151.1983992, "tags": {"crossing": "traffic_signals", "highway": "crossing"}}, {"type": "node", "id": 9965394228, "lat": -33.8994836, "lon": 151.2002499}, {"type": "node", "id": 10917043265, "lat": -33.8968495, "lon": 151.198291}, {"type": "node", "id": 10917043266, "lat": -33.8965948, "lon": 151.1992542}, {"type": "node", "id": 11118198990, "lat": -33.8988443, "lon": 151.2000363, "tags": {"crossing": "traffic_signals", "highway": "crossing"}}, {"type": "node", "id": 11118198991, "lat": -33.8986813, "lon": 151.1999783, "tags": {"crossing": "traffic_signals", "highway": "crossing"}}, {"type": "node", "id": 11118810849, "lat": -33.8967578, "lon": 151.1993138, "tags": {"button_operated": "yes", "crossing": "traffic_signals", "crossing:markings": "dashes", "highway": "crossing"}}, {"type": "node", "id": 11118810850, "lat": -33.8966882, "lon": 151.1991913, "tags": {"button_operated": "yes", "crossing": "traffic_signals", "crossing:markings": "dashes", "highway": "crossing"}}, {"type": "node", "id": 11182165061, "lat": -33.8930686, "lon": 151.2001347, "tags": {"button_operated": "yes", "crossing": "traffic_signals", "crossing:island": "no", "crossing:markings": "dashes", "highway": "crossing"}}, {"type": "node", "id": 11224666307, "lat": -33.8968835, "lon": 151.1984512, "tags": {"highway": "traffic_signals", "traffic_signals": "signal", "traffic_signals:direction": "forward"}}, {"type": "node", "id": 11232775910, "lat": -33.8965567, "lon": 151.1992425, "tags": {"highway": "traffic_signals", "traffic_signals": "signal", "traffic_signals:direction": "forward"}}, {"type": "node", "id": 11232775911, "lat": -33.8967821, "lon": 151.1993228, "tags": {"highway": "traffic_signals", "traffic_signals": "signal", "traffic_signals:direction": "backward"}}, {"type": "node", "id": 11232775912, "lat": -33.8966934, "lon": 151.1991686, "tags": {"highway": "traffic_signals", "traffic_signals": "signal", "traffic_signals:direction": "backward"}}, {"type": "node", "id": 11235536336, "lat": -33.8986648, "lon": 151.1999732, "tags": {"highway": "traffic_signals", "traffic_signals": "signal", "traffic_signals:direction": "both"}}, {"type": "node", "id": 11235540638, "lat": -33.898873, "lon": 151.2000459, "tags": {"highway": "traffic_signals", "traffic_signals": "signal", "traffic_signals:direction": "both"}}, {"type": "node", "id": 11243162679, "lat": -33.8920957, "lon": 151.1995993, "tags": {"highway": "traffic_signals", "traffic_signals": "signal", "traffic_signals:direction": "forward"}}, {"type": "node", "id": 11243162682, "lat": -33.8918751, "lon": 151.1997132, "tags": {"highway": "traffic_signals", "traffic_signals": "signal", "traffic_signals:direction": "forward"}}, {"type": "node", "id": 11276993719, "lat": -33.8930401, "lon": 151.1991192, "tags": {"crossing": "traffic_signals", "highway": "crossing"}}, {"type": "node", "id": 11347940252, "lat": -33.895054, "lon": 151.1982279, "tags": {"highway": "traffic_signals", "traffic_signals": "signal", "traffic_signals:direction": "forward"}}, {"type": "node", "id": 11359406719, "lat": -33.892855, "lon": 151.2002474}, {"type": "node", "id": 11359433262, "lat": -33.8931809, "lon": 151.1990501}, {"type": "way", "id": 3189987, "nodes": [15445738, 10917043265, 9762874781, 4112650353], "tags": {"cycleway:left": "no", "highway": "primary", "lanes": "4", "lit": "yes", "maxspeed": "50", "name": "Wyndham Street", "oneway": "yes", "parking:lane:left": "parallel", "parking:lane:right": "clearway @ (mo-fr 06:00-10:00; mo-fr 15:00-19:00)", "sidewalk": "separate", "surface": "asphalt", "width:lanes": "3.1|2.9|2.9|3.3"}}, {"type": "way", "id": 3190039, "nodes": [15445739, 11118810850, 11232775912, 4160638737, 4159053285], "tags": {"highway": "primary", "lanes": "6", "lanes:backward": "2", "lanes:forward": "4", "lit": "yes", "name": "Henderson Road", "sidewalk": "separate", "surface": "asphalt", "turn:lanes:forward": "||right|right", "width": "17.2"}}, {"type": "way", "id": 3190041, "nodes": [15445739, 11118810849, 11232775911, 11235536336, 11118198991, 26378907], "tags": {"highway": "primary", "lanes": "4", "maxspeed": "50", "name": "Botany Road", "oneway": "no", "surface": "paved", "turn:lanes:backward": "left|left"}}, {"type": "way", "id": 32353177, "nodes": [266140148, 266132245, 1845672284], "tags": {"highway": "primary", "lanes": "4", "lit": "yes", "maxspeed": "50", "name": "Regent Street", "oneway": "yes", "parking:lane:both": "parallel", "sidewalk": "right", "surface": "asphalt", "width": "13.2"}}, {"type": "way", "id": 69334167, "nodes": [18458089, 18460271, 8555739150, 8555739149, 1845672267, 11359433262], "tags": {"cycleway": "no", "foot": "designated", "highway": "primary", "lanes": "4", "lit": "yes", "maxspeed": "50", "name": "Gibbons Street", "oneway": "yes", "parking:lane:left": "parallel", "parking:lane:right": "clearway @ (mo-fr 06:00-10:00;mo-fr 15:00-19:00)", "sidewalk": "both", "surface": "asphalt", "width:lanes": "3.1|2.9|2.9|3.3"}}, {"type": "way", "id": 69334168, "nodes": [18462861, 2126206543], "tags": {"highway": "primary", "maxspeed": "50", "name": "Gibbons Street", "oneway": "yes", "surface": "asphalt"}}, {"type": "way", "id": 220554126, "nodes": [1845672284, 2848221442], "tags": {"highway": "primary", "name": "Botany Road", "oneway": "yes", "source:name": "survey at Boundary street of numbering", "surface": "paved"}}, {"type": "way", "id": 252096755, "nodes": [1858009877, 11243162679, 12054680, 11243162682, 6124414181, 18462861], "tags": {"cycleway": "no", "foot": "designated", "highway": "primary", "lanes": "4", "maxspeed": "50", "maxspeed:type": "AU:urban", "name": "Gibbons Street", "oneway": "yes", "surface": "asphalt", "turn:lanes": "left|through|through|through;right"}}, {"type": "way", "id": 252096769, "nodes": [1858050234, 8744228356, 8744228355, 1812123758, 1834805726], "tags": {"highway": "primary", "maxspeed": "50", "name": "Regent Street", "oneway": "yes", "surface": "paved"}}, {"type": "way", "id": 280773522, "nodes": [2848221442, 1865252318, 1865252319, 1845672288, 1845672290, 4160638734], "tags": {"highway": "primary", "lanes": "4", "lit": "yes", "maxspeed": "50", "name": "Botany Road", "oneway": "yes", "parking:lane:both": "parallel", "sidewalk": "right", "source:name": "survey at Boundary street of numbering", "surface": "asphalt", "width": "13.2"}}, {"type": "way", "id": 287514196, "nodes": [2126206543, 8195499311, 6124421945, 5114365122, 8744228362, 1858244726, 8744228363, 1858244709], "tags": {"cycleway": "no", "highway": "primary", "lanes": "3", "maxspeed": "50", "name": "Gibbons Street", "oneway": "yes", "surface": "paved"}}, {"type": "way", "id": 287514197, "nodes": [1834805729, 1858050234], "tags": {"highway": "primary", "lanes": "3", "maxspeed": "50", "name": "Regent Street", "oneway": "yes", "surface": "asphalt"}}, {"type": "way", "id": 287514198, "nodes": [4160638728, 3132596533, 1834805735, 3132596536, 2555305613, 266140148], "tags": {"cycleway": "no", "highway": "primary", "lanes": "4", "lit": "yes", "maxspeed": "50", "name": "Regent Street", "oneway": "yes", "parking:lane:both": "parallel", "sidewalk": "right", "surface": "asphalt", "width": "13.2"}}, {"type": "way", "id": 414933606, "nodes": [4160638734, 11232775910, 5601980563, 10917043266, 15445739], "tags": {"highway": "primary", "lanes": "4", "lit": "yes", "maxspeed": "50", "name": "Botany Road", "oneway": "yes", "parking:lane:both": "parallel", "sidewalk": "right", "source:name": "survey at Boundary street of numbering", "surface": "asphalt", "turn:lanes": "none|none|right|right", "width": "13.2"}}, {"type": "way", "id": 414933607, "nodes": [1941652248, 4089598725, 11359406719], "tags": {"cycleway": "no", "highway": "primary", "lanes": "4", "lit": "yes", "maxspeed": "50", "name": "Regent Street", "oneway": "yes", "parking:lane:right": "parallel", "sidewalk": "right", "surface": "asphalt", "width": "13.2"}}, {"type": "way", "id": 570047005, "nodes": [1834805726, 1941652248], "tags": {"highway": "primary", "maxspeed": "50", "name": "Regent Street", "oneway": "yes", "surface": "paved"}}, {"type": "way", "id": 592220917, "nodes": [4159053285, 11224666307, 9762874784, 15445738], "tags": {"cycleway:both": "no", "highway": "primary", "lanes": "6", "lanes:backward": "2", "lanes:forward": "4", "lit": "yes", "name": "Henderson Road", "sidewalk": "separate", "surface": "asphalt", "turn:lanes:forward": "||right|right", "width": "17.2"}}, {"type": "way", "id": 592220918, "nodes": [4112650353, 4160638736, 9762874761, 4160638735, 9762874762, 12054678, 9762874760, 1845672291, 9762874759, 12054679, 11347940252, 9742287653, 18458089], "tags": {"cycleway:left": "no", "highway": "primary", "lanes": "4", "lit": "yes", "maxspeed": "50", "name": "Wyndham Street", "oneway": "yes", "parking:lane:left": "parallel", "parking:lane:right": "clearway @ (mo-fr 06:00-10:00; mo-fr 15:00-19:00)", "sidewalk": "separate", "surface": "asphalt", "width:lanes": "3.1|2.9|2.9|3.3"}}, {"type": "way", "id": 794989764, "nodes": [26378907, 11118198990, 11235540638, 9965394228, 1825697581, 3858108479, 15445741], "tags": {"highway": "primary", "lanes": "4", "maxspeed": "50", "name": "Botany Road", "oneway": "no", "shoulder": "no", "sidewalk": "both", "surface": "paved"}}, {"type": "way", "id": 1224921536, "nodes": [11359406719, 11182165061, 1845672262, 4160638728], "tags": {"cycleway": "no", "highway": "primary", "lanes": "4", "lit": "yes", "maxspeed": "50", "name": "Regent Street", "oneway": "yes", "parking:lane:right": "parallel", "sidewalk": "right", "surface": "asphalt", "width": "13.2"}}, {"type": "way", "id": 1224926280, "nodes": [11359433262, 11276993719, 1845672258, 4043051390, 1858009877], "tags": {"cycleway": "no", "foot": "designated", "highway": "primary", "lanes": "4", "lit": "yes", "maxspeed": "50", "name": "Gibbons Street", "oneway": "yes", "parking:lane:left": "parallel", "parking:lane:right": "clearway @ (mo-fr 06:00-10:00;mo-fr 15:00-19:00)", "sidewalk": "both", "surface": "asphalt", "width:lanes": "3.1|2.9|2.9|3.3"}}]}