{"version": 0.6, "generator": "Overpass API 0.7.61.5 4133829e", "osm3s": {"timestamp_osm_base": "2023-12-06T10:49:22Z", "copyright": "The data included in this document is from www.openstreetmap.org. The data is made available under ODbL."}, "elements": [{"type": "node", "id": 323772721, "lat": -29.7043318, "lon": 151.7443482}, {"type": "node", "id": 323772737, "lat": -29.7191091, "lon": 151.7415872}, {"type": "node", "id": 323772747, "lat": -29.7240678, "lon": 151.7406688}, {"type": "node", "id": 1582113091, "lat": -29.7222967, "lon": 151.7409968}, {"type": "node", "id": 1834163458, "lat": -29.7266707, "lon": 151.7401825}, {"type": "node", "id": 2318155064, "lat": -29.7110761, "lon": 151.7430881}, {"type": "node", "id": 2318156550, "lat": -29.7202802, "lon": 151.7413493}, {"type": "node", "id": 3734482877, "lat": -29.7269429, "lon": 151.7401309}, {"type": "node", "id": 3734483041, "lat": -29.7276948, "lon": 151.7400121}, {"type": "node", "id": 4338359692, "lat": -29.7313578, "lon": 151.739311}, {"type": "node", "id": 9441661057, "lat": -29.7037584, "lon": 151.7444525}, {"type": "node", "id": 10250551680, "lat": -29.7258969, "lon": 151.740327}, {"type": "way", "id": 35262513, "nodes": [1582113091, 2318156550, 323772737, 2318155064, 323772721, 9441661057], "tags": {"highway": "trunk", "lanes": "2", "maxspeed": "100", "name": "New England Highway", "network": "AU:NSW", "ref": "A15", "source": "survey", "surface": "asphalt"}}, {"type": "way", "id": 172519894, "nodes": [1582113091, 323772747, 10250551680], "tags": {"alt_name": "New England Highway", "highway": "trunk", "lanes": "2", "maxspeed": "100", "name": "Church Street", "network": "AU:NSW", "ref": "A15", "source": "GPS", "source:name": "NSW LPI Base Map", "source:name:date": "2016-03", "surface": "asphalt"}}, {"type": "way", "id": 762129210, "nodes": [1834163458, 3734482877, 3734483041], "tags": {"alt_name": "New England Highway", "highway": "trunk", "lanes": "3", "lanes:backward": "2", "lanes:forward": "1", "maxspeed": "60", "name": "Church Street", "network": "AU:NSW", "ref": "A15", "source": "GPS", "source:name": "NSW LPI Base Map", "source:name:date": "2016-03", "surface": "asphalt", "turn:lanes:backward": "|right"}}, {"type": "way", "id": 762129212, "nodes": [3734483041, 4338359692], "tags": {"alt_name": "New England Highway", "highway": "trunk", "lanes": "2", "maxspeed": "60", "name": "Church Street", "network": "AU:NSW", "ref": "A15", "source": "GPS", "source:name": "NSW LPI Base Map", "source:name:date": "2016-03", "surface": "asphalt"}}, {"type": "way", "id": 1120749578, "nodes": [10250551680, 1834163458], "tags": {"alt_name": "New England Highway", "highway": "trunk", "lanes": "2", "maxspeed": "60", "name": "Church Street", "network": "AU:NSW", "ref": "A15", "source": "GPS", "source:name": "NSW LPI Base Map", "source:name:date": "2016-03", "surface": "asphalt"}}]}