{"version": 0.6, "generator": "Overpass API 0.7.61.5 4133829e", "osm3s": {"timestamp_osm_base": "2023-12-06T14:09:59Z", "copyright": "The data included in this document is from www.openstreetmap.org. The data is made available under ODbL."}, "elements": [{"type": "node", "id": 37118022, "lat": -27.4032503, "lon": 153.031583}, {"type": "node", "id": 37118023, "lat": -27.4000173, "lon": 153.0315084}, {"type": "node", "id": 37118024, "lat": -27.3999399, "lon": 153.0315121}, {"type": "node", "id": 79846211, "lat": -27.4048357, "lon": 153.0319136}, {"type": "node", "id": 79846212, "lat": -27.4038553, "lon": 153.031708}, {"type": "node", "id": 79846216, "lat": -27.4011355, "lon": 153.0314095}, {"type": "node", "id": 79846217, "lat": -27.4007521, "lon": 153.0314218}, {"type": "node", "id": 79847156, "lat": -27.3999944, "lon": 153.0316639}, {"type": "node", "id": 79847518, "lat": -27.400071, "lon": 153.0316543}, {"type": "node", "id": 79848348, "lat": -27.4002442, "lon": 153.0314829}, {"type": "node", "id": 79849009, "lat": -27.3995793, "lon": 153.0315022}, {"type": "node", "id": 79852204, "lat": -27.3983192, "lon": 153.0313154}, {"type": "node", "id": 79852205, "lat": -27.3977358, "lon": 153.0312255}, {"type": "node", "id": 79859988, "lat": -27.3977166, "lon": 153.0313791}, {"type": "node", "id": 79859989, "lat": -27.3983114, "lon": 153.0314684}, {"type": "node", "id": 79859990, "lat": -27.399201, "lon": 153.0316028}, {"type": "node", "id": 79859995, "lat": -27.4009219, "lon": 153.0315605}, {"type": "node", "id": 79859997, "lat": -27.4017963, "lon": 153.0315997}, {"type": "node", "id": 79859999, "lat": -27.4021266, "lon": 153.0316181}, {"type": "node", "id": 79860001, "lat": -27.4027102, "lon": 153.0316603}, {"type": "node", "id": 79860003, "lat": -27.4032217, "lon": 153.0317275}, {"type": "node", "id": 79860004, "lat": -27.4038134, "lon": 153.0318512}, {"type": "node", "id": 79860006, "lat": -27.4039034, "lon": 153.0318688}, {"type": "node", "id": 79860007, "lat": -27.4048069, "lon": 153.0320589}, {"type": "node", "id": 79860008, "lat": -27.4058144, "lon": 153.032284}, {"type": "node", "id": 80487674, "lat": -27.4039514, "lon": 153.0317271}, {"type": "node", "id": 80517089, "lat": -27.4023292, "lon": 153.0314854}, {"type": "node", "id": 80518326, "lat": -27.4025993, "lon": 153.031502}, {"type": "node", "id": 80537981, "lat": -27.4018869, "lon": 153.0314545}, {"type": "node", "id": 80539533, "lat": -27.4018785, "lon": 153.0316027}, {"type": "node", "id": 80539534, "lat": -27.4018045, "lon": 153.0314485}, {"type": "node", "id": 84486920, "lat": -27.4009939, "lon": 153.0314066}, {"type": "node", "id": 2752834648, "lat": -27.4068762, "lon": 153.0325291}, {"type": "node", "id": 4971789245, "lat": -27.4067378, "lon": 153.0325014, "tags": {"crossing": "traffic_signals", "highway": "crossing"}}, {"type": "node", "id": 4971790081, "lat": -27.4066897, "lon": 153.0324892, "tags": {"highway": "traffic_signals", "traffic_signals": "signal"}}, {"type": "node", "id": 5576621501, "lat": -27.3996716, "lon": 153.031668}, {"type": "node", "id": 5576621502, "lat": -27.4014932, "lon": 153.0314277}, {"type": "node", "id": 5576621503, "lat": -27.4013637, "lon": 153.0315719}, {"type": "node", "id": 5576621504, "lat": -27.4030837, "lon": 153.0317008}, {"type": "node", "id": 5576621505, "lat": -27.4029755, "lon": 153.031535}, {"type": "node", "id": 7747854405, "lat": -27.4036162, "lon": 153.0318035, "tags": {"highway": "traffic_signals", "traffic_signals:direction": "forward"}}, {"type": "node", "id": 7747854406, "lat": -27.404111, "lon": 153.0317595, "tags": {"highway": "traffic_signals", "traffic_signals:direction": "forward"}}, {"type": "node", "id": 7747869340, "lat": -27.3998474, "lon": 153.0316746, "tags": {"highway": "traffic_signals", "traffic_signals:direction": "forward"}}, {"type": "node", "id": 7747869341, "lat": -27.4001397, "lon": 153.0314955, "tags": {"highway": "traffic_signals", "traffic_signals:direction": "forward"}}, {"type": "node", "id": 9297754957, "lat": -27.4029002, "lon": 153.0315267}, {"type": "node", "id": 9297754989, "lat": -27.4023484, "lon": 153.0316338}, {"type": "node", "id": 9302000499, "lat": -27.4056388, "lon": 153.0322446}, {"type": "node", "id": 10242215535, "lat": -27.4046761, "lon": 153.0318787}, {"type": "node", "id": 10242215536, "lat": -27.4046106, "lon": 153.0318648}, {"type": "node", "id": 10242215537, "lat": -27.4040316, "lon": 153.031895}, {"type": "node", "id": 10242215538, "lat": -27.4029577, "lon": 153.0316831}, {"type": "node", "id": 10242215539, "lat": -27.4028219, "lon": 153.031669}, {"type": "node", "id": 10242215540, "lat": -27.4025599, "lon": 153.0316523}, {"type": "node", "id": 10242215545, "lat": -27.4036895, "lon": 153.0316735}, {"type": "node", "id": 10244010272, "lat": -27.3996963, "lon": 153.0315128}, {"type": "node", "id": 10244010273, "lat": -27.3997802, "lon": 153.0315164}, {"type": "node", "id": 10244010274, "lat": -27.400191, "lon": 153.0316409}, {"type": "node", "id": 10244010275, "lat": -27.3997649, "lon": 153.0316735}, {"type": "node", "id": 10244010276, "lat": -27.3994211, "lon": 153.0316349}, {"type": "node", "id": 10244026548, "lat": -27.3993592, "lon": 153.0314737}, {"type": "node", "id": 10244026549, "lat": -27.3986852, "lon": 153.0313649}, {"type": "node", "id": 10244026691, "lat": -27.4005056, "lon": 153.0314497}, {"type": "node", "id": 10244026692, "lat": -27.4008682, "lon": 153.031412}, {"type": "node", "id": 10244026696, "lat": -27.4010474, "lon": 153.031556}, {"type": "node", "id": 10244026697, "lat": -27.4012071, "lon": 153.0315617}, {"type": "node", "id": 10244026698, "lat": -27.4015827, "lon": 153.0315866}, {"type": "node", "id": 10244026707, "lat": -27.4020476, "lon": 153.0316131}, {"type": "node", "id": 10244464431, "lat": -27.4061022, "lon": 153.0321928}, {"type": "node", "id": 10244464432, "lat": -27.4061327, "lon": 153.0321995}, {"type": "node", "id": 10244464433, "lat": -27.4069045, "lon": 153.0323765}, {"type": "node", "id": 10244464434, "lat": -27.4066551, "lon": 153.0323195}, {"type": "node", "id": 10244464435, "lat": -27.4063432, "lon": 153.0322394}, {"type": "node", "id": 10244464439, "lat": -27.4067917, "lon": 153.0323509, "tags": {"crossing": "traffic_signals", "highway": "crossing"}}, {"type": "node", "id": 10755343751, "lat": -27.3977684, "lon": 153.0312305, "tags": {"highway": "traffic_signals", "traffic_signals": "signal", "traffic_signals:direction": "forward"}}, {"type": "node", "id": 11009367748, "lat": -27.3998544, "lon": 153.0315144, "tags": {"crossing": "traffic_signals", "highway": "crossing"}}, {"type": "node", "id": 11009367749, "lat": -27.3999002, "lon": 153.0316708, "tags": {"crossing": "traffic_signals", "highway": "crossing"}}, {"type": "node", "id": 11009367764, "lat": -27.4037234, "lon": 153.0316806, "tags": {"crossing": "traffic_signals", "highway": "crossing"}}, {"type": "node", "id": 11009367765, "lat": -27.4036498, "lon": 153.0318116, "tags": {"crossing": "traffic_signals", "highway": "crossing"}}, {"type": "node", "id": 11286193384, "lat": -27.4003813, "lon": 153.0314655}, {"type": "node", "id": 11286193399, "lat": -27.39943, "lon": 153.0314829}, {"type": "way", "id": 9923796, "nodes": [80539533, 10244026707], "tags": {"bicycle": "yes", "foot": "yes", "highway": "trunk", "lanes": "3", "maxspeed": "60", "name": "Gympie Road", "network": "AU:QLD", "oneway": "yes", "ref": "A3", "source:geometry": "Esri World Imagery", "surface": "asphalt"}}, {"type": "way", "id": 273675242, "nodes": [9297754957, 80518326, 80517089], "tags": {"bicycle": "yes", "foot": "yes", "highway": "trunk", "lanes": "3", "maxspeed": "60", "name": "Gympie Road", "network": "AU:QLD", "oneway": "yes", "ref": "A3", "source:geometry": "Esri World Imagery", "surface": "asphalt"}}, {"type": "way", "id": 571413100, "nodes": [37118023, 37118024], "tags": {"bicycle": "yes", "foot": "yes", "highway": "trunk", "lanes": "4", "maxspeed": "60", "name": "Gympie Road", "network": "AU:QLD", "oneway": "yes", "ref": "A3", "source:geometry": "Esri World Imagery", "surface": "asphalt"}}, {"type": "way", "id": 571413102, "nodes": [80539534, 5576621502, 79846216, 84486920], "tags": {"bicycle": "yes", "foot": "yes", "highway": "trunk", "lanes": "3", "maxspeed": "60", "name": "Gympie Road", "network": "AU:QLD", "oneway": "yes", "ref": "A3", "source:geometry": "Esri World Imagery", "surface": "asphalt"}}, {"type": "way", "id": 571413106, "nodes": [79847156, 79847518], "tags": {"bicycle": "yes", "foot": "yes", "highway": "trunk", "lanes": "4", "maxspeed": "60", "name": "Gympie Road", "network": "AU:QLD", "oneway": "yes", "ref": "A3", "source:geometry": "Esri World Imagery", "surface": "asphalt"}}, {"type": "way", "id": 578188981, "nodes": [79860007, 9302000499, 79860008], "tags": {"bicycle": "yes", "foot": "yes", "highway": "trunk", "maxspeed": "60", "name": "Gympie Road", "network": "AU:QLD", "oneway": "yes", "ref": "A3", "source:geometry": "Esri World Imagery", "surface": "paved"}}, {"type": "way", "id": 578188984, "nodes": [10242215536, 7747854406, 80487674], "tags": {"bicycle": "yes", "foot": "yes", "highway": "trunk", "lanes": "5", "maxspeed": "60", "name": "Gympie Road", "network": "AU:QLD", "oneway": "yes", "ref": "A3", "surface": "asphalt", "turn:lanes": "left||||right"}}, {"type": "way", "id": 578188988, "nodes": [10244464434, 10244464435, 10244464432, 10244464431, 79846211], "tags": {"bicycle": "yes", "foot": "yes", "highway": "trunk", "lanes": "3", "maxspeed": "60", "name": "Gympie Road", "network": "AU:QLD", "oneway": "yes", "ref": "A3", "source:geometry": "Esri World Imagery", "surface": "asphalt"}}, {"type": "way", "id": 578188991, "nodes": [79860006, 10242215537, 79860007], "tags": {"bicycle": "yes", "foot": "yes", "highway": "trunk", "lanes": "3", "maxspeed": "60", "name": "Gympie Road", "network": "AU:QLD", "oneway": "yes", "ref": "A3", "source:geometry": "Esri World Imagery", "surface": "asphalt"}}, {"type": "way", "id": 578193457, "nodes": [84486920, 10244026692, 79846217, 10244026691], "tags": {"bicycle": "yes", "foot": "yes", "highway": "trunk", "lanes": "3", "maxspeed": "60", "name": "Gympie Road", "network": "AU:QLD", "oneway": "yes", "ref": "A3", "source:geometry": "Esri World Imagery", "surface": "asphalt"}}, {"type": "way", "id": 578193458, "nodes": [79847518, 10244010274, 79859995], "tags": {"bicycle": "yes", "foot": "yes", "highway": "trunk", "lanes": "3", "maxspeed": "60", "name": "Gympie Road", "network": "AU:QLD", "oneway": "yes", "ref": "A3", "source:geometry": "Esri World Imagery", "surface": "asphalt"}}, {"type": "way", "id": 578193459, "nodes": [79859995, 10244026696, 10244026697, 5576621503, 10244026698, 79859997], "tags": {"bicycle": "yes", "foot": "yes", "highway": "trunk", "lanes": "3", "maxspeed": "60", "name": "Gympie Road", "network": "AU:QLD", "oneway": "yes", "ref": "A3", "source:geometry": "Esri World Imagery", "surface": "asphalt"}}, {"type": "way", "id": 578193460, "nodes": [79860004, 79860006], "tags": {"bicycle": "yes", "foot": "yes", "highway": "trunk", "lanes": "4", "maxspeed": "60", "name": "Gympie Road", "network": "AU:QLD", "oneway": "yes", "ref": "A3", "source:geometry": "Esri World Imagery", "surface": "asphalt"}}, {"type": "way", "id": 578193461, "nodes": [80487674, 79846212], "tags": {"bicycle": "yes", "foot": "yes", "highway": "trunk", "lanes": "4", "maxspeed": "60", "name": "Gympie Road", "network": "AU:QLD", "oneway": "yes", "ref": "A3", "source:geometry": "Esri World Imagery", "surface": "asphalt"}}, {"type": "way", "id": 578193468, "nodes": [79860008, 4971790081, 4971789245, 2752834648], "tags": {"bicycle": "yes", "foot": "yes", "highway": "trunk", "lanes": "3", "maxspeed": "60", "name": "Gympie Road", "network": "AU:QLD", "oneway": "yes", "ref": "A3", "source:geometry": "Esri World Imagery", "surface": "asphalt"}}, {"type": "way", "id": 578193471, "nodes": [79859989, 79859990, 10244010276], "tags": {"bicycle": "yes", "foot": "yes", "highway": "trunk", "lanes": "3", "maxspeed": "60", "name": "Gympie Road", "network": "AU:QLD", "oneway": "yes", "ref": "A3", "source:geometry": "Esri World Imagery", "surface": "asphalt"}}, {"type": "way", "id": 578193472, "nodes": [79859988, 79859989], "tags": {"bicycle": "yes", "foot": "yes", "highway": "trunk", "lanes": "3", "maxspeed": "60", "name": "Gympie Road", "network": "AU:QLD", "oneway": "yes", "ref": "A3", "source:geometry": "Esri World Imagery", "surface": "asphalt"}}, {"type": "way", "id": 578193475, "nodes": [79852204, 10755343751, 79852205], "tags": {"bicycle": "yes", "foot": "yes", "highway": "trunk", "lanes": "4", "maxspeed": "60", "name": "Gympie Road", "network": "AU:QLD", "oneway": "yes", "ref": "A3", "source:geometry": "Esri World Imagery", "surface": "asphalt", "turn:lanes": "|||right"}}, {"type": "way", "id": 578193476, "nodes": [37118024, 11009367748, 10244010273, 10244010272, 79849009, 11286193399, 10244026548, 10244026549], "tags": {"bicycle": "yes", "foot": "yes", "highway": "trunk", "lanes": "3", "maxspeed": "60", "name": "Gympie Road", "network": "AU:QLD", "oneway": "yes", "ref": "A3", "source:geometry": "Esri World Imagery", "surface": "asphalt"}}, {"type": "way", "id": 741056306, "nodes": [80537981, 80539534], "tags": {"bicycle": "yes", "foot": "yes", "highway": "trunk", "lanes": "4", "maxspeed": "60", "name": "Gympie Road", "network": "AU:QLD", "oneway": "yes", "ref": "A3", "source:geometry": "Esri World Imagery", "surface": "asphalt", "turn:lanes": "|||right"}}, {"type": "way", "id": 741133696, "nodes": [79859997, 80539533], "tags": {"bicycle": "yes", "foot": "yes", "highway": "trunk", "lanes": "3", "maxspeed": "60", "name": "Gympie Road", "network": "AU:QLD", "oneway": "yes", "ref": "A3", "source:geometry": "Esri World Imagery", "surface": "asphalt"}}, {"type": "way", "id": 764289433, "nodes": [79848348, 7747869341, 37118023], "tags": {"bicycle": "yes", "foot": "yes", "highway": "trunk", "lanes": "4", "maxspeed": "60", "name": "Gympie Road", "network": "AU:QLD", "oneway": "yes", "ref": "A3", "source:geometry": "Esri World Imagery", "surface": "asphalt", "turn:lanes": "|||right"}}, {"type": "way", "id": 1119832841, "nodes": [79846211, 10242215535], "tags": {"bicycle": "yes", "foot": "yes", "highway": "trunk", "lanes": "3", "maxspeed": "60", "name": "Gympie Road", "network": "AU:QLD", "oneway": "yes", "ref": "A3", "surface": "asphalt"}}, {"type": "way", "id": 1119832842, "nodes": [10242215535, 10242215536], "tags": {"bicycle": "yes", "foot": "yes", "highway": "trunk", "lanes": "4", "maxspeed": "60", "name": "Gympie Road", "network": "AU:QLD", "oneway": "yes", "ref": "A3", "surface": "asphalt", "turn:lanes": "|||right"}}, {"type": "way", "id": 1119832843, "nodes": [79860003, 7747854405, 11009367765, 79860004], "tags": {"bicycle": "yes", "foot": "yes", "highway": "trunk", "lanes": "5", "maxspeed": "60", "name": "Gympie Road", "network": "AU:QLD", "oneway": "yes", "ref": "A3", "source:geometry": "Esri World Imagery", "surface": "asphalt", "turn:lanes": "left||||right"}}, {"type": "way", "id": 1120040456, "nodes": [10244026549, 79852204], "tags": {"bicycle": "yes", "foot": "yes", "highway": "trunk", "lanes": "4", "maxspeed": "60", "name": "Gympie Road", "network": "AU:QLD", "oneway": "yes", "ref": "A3", "source:geometry": "Esri World Imagery", "surface": "asphalt", "turn:lanes": "|||right"}}, {"type": "way", "id": 1120040457, "nodes": [10244010276, 5576621501, 10244010275, 7747869340, 11009367749, 79847156], "tags": {"bicycle": "yes", "foot": "yes", "highway": "trunk", "lanes": "5", "maxspeed": "60", "name": "Gympie Road", "network": "AU:QLD", "oneway": "yes", "ref": "A3", "source:geometry": "Esri World Imagery", "surface": "asphalt", "turn:lanes": "left||||right"}}, {"type": "way", "id": 1120040458, "nodes": [10244026691, 11286193384, 79848348], "tags": {"bicycle": "yes", "foot": "yes", "highway": "trunk", "lanes": "4", "maxspeed": "60", "name": "Gympie Road", "network": "AU:QLD", "oneway": "yes", "ref": "A3", "source:geometry": "Esri World Imagery", "surface": "asphalt", "turn:lanes": "|||right"}}, {"type": "way", "id": 1120040463, "nodes": [79859999, 9297754989, 10242215540, 79860001, 10242215539, 10242215538], "tags": {"bicycle": "yes", "foot": "yes", "highway": "trunk", "lanes": "3", "maxspeed": "60", "name": "Gympie Road", "network": "AU:QLD", "oneway": "yes", "ref": "A3", "source:geometry": "Esri World Imagery", "surface": "asphalt"}}, {"type": "way", "id": 1120040464, "nodes": [10244026707, 79859999], "tags": {"bicycle": "yes", "foot": "yes", "highway": "trunk", "lanes": "3", "maxspeed": "60", "name": "Gympie Road", "network": "AU:QLD", "oneway": "yes", "ref": "A3", "source:geometry": "Esri World Imagery", "surface": "asphalt"}}, {"type": "way", "id": 1120040467, "nodes": [79846212, 11009367764, 10242215545, 37118022, 5576621505, 9297754957], "tags": {"bicycle": "yes", "foot": "yes", "highway": "trunk", "lanes": "3", "maxspeed": "60", "name": "Gympie Road", "network": "AU:QLD", "oneway": "yes", "ref": "A3", "source:geometry": "Esri World Imagery", "surface": "asphalt"}}, {"type": "way", "id": 1120040468, "nodes": [80517089, 80537981], "tags": {"bicycle": "yes", "foot": "yes", "highway": "trunk", "lanes": "4", "maxspeed": "60", "name": "Gympie Road", "network": "AU:QLD", "oneway": "yes", "ref": "A3", "source:geometry": "Esri World Imagery", "surface": "asphalt", "turn:lanes": "|||right"}}, {"type": "way", "id": 1120040469, "nodes": [10242215538, 5576621504, 79860003], "tags": {"bicycle": "yes", "foot": "yes", "highway": "trunk", "lanes": "4", "maxspeed": "60", "name": "Gympie Road", "network": "AU:QLD", "oneway": "yes", "ref": "A3", "source:geometry": "Esri World Imagery", "surface": "asphalt", "turn:lanes": "|||right"}}, {"type": "way", "id": 1120086948, "nodes": [10244464433, 10244464439, 10244464434], "tags": {"access:lanes": "no|||", "bicycle": "yes", "bus:lanes": "permit|||", "emergency:lanes": "yes|||", "foot": "yes", "highway": "trunk", "lanes": "4", "maxspeed": "60", "name": "Gympie Road", "network": "AU:QLD", "oneway": "yes", "ref": "A3", "source:geometry": "Esri World Imagery", "surface": "asphalt"}}]}