{"version": 0.6, "generator": "Overpass API 0.7.61.5 4133829e", "osm3s": {"timestamp_osm_base": "2023-12-06T11:39:22Z", "copyright": "The data included in this document is from www.openstreetmap.org. The data is made available under ODbL."}, "elements": [{"type": "node", "id": 29098417, "lat": -35.3193425, "lon": 149.1332846}, {"type": "node", "id": 29098418, "lat": -35.3196274, "lon": 149.1338531}, {"type": "node", "id": 29098420, "lat": -35.3197105, "lon": 149.1356196}, {"type": "node", "id": 29098421, "lat": -35.3197882, "lon": 149.1361231}, {"type": "node", "id": 30725421, "lat": -35.3191311, "lon": 149.133614}, {"type": "node", "id": 30725422, "lat": -35.3193076, "lon": 149.1339786}, {"type": "node", "id": 30725424, "lat": -35.3194152, "lon": 149.1355237, "tags": {"highway": "traffic_signals"}}, {"type": "node", "id": 30725425, "lat": -35.3194453, "lon": 149.135877}, {"type": "node", "id": 30725653, "lat": -35.3191924, "lon": 149.1331021}, {"type": "node", "id": 30725654, "lat": -35.3189378, "lon": 149.1333793}, {"type": "node", "id": 31202256, "lat": -35.3220986, "lon": 149.1462972}, {"type": "node", "id": 32433554, "lat": -35.3207898, "lon": 149.1411732}, {"type": "node", "id": 32433555, "lat": -35.321061, "lon": 149.1410688}, {"type": "node", "id": 32559181, "lat": -35.3193941, "lon": 149.1343405}, {"type": "node", "id": 33790851, "lat": -35.319698, "lon": 149.1351575, "tags": {"highway": "traffic_signals"}}, {"type": "node", "id": 33790905, "lat": -35.3196876, "lon": 149.1353894, "tags": {"highway": "traffic_signals"}}, {"type": "node", "id": 34021494, "lat": -35.3205805, "lon": 149.1391918}, {"type": "node", "id": 34633898, "lat": -35.3200849, "lon": 149.1372264}, {"type": "node", "id": 34633899, "lat": -35.3198257, "lon": 149.1373309}, {"type": "node", "id": 35130131, "lat": -35.3203123, "lon": 149.1392905}, {"type": "node", "id": 35130169, "lat": -35.3194157, "lon": 149.1353882, "tags": {"highway": "traffic_signals"}}, {"type": "node", "id": 247171053, "lat": -35.3194795, "lon": 149.1334913}, {"type": "node", "id": 247171057, "lat": -35.3197397, "lon": 149.1343421}, {"type": "node", "id": 247171799, "lat": -35.3197441, "lon": 149.1347826}, {"type": "node", "id": 672530594, "lat": -35.3197062, "lon": 149.1350794}, {"type": "node", "id": 672530612, "lat": -35.3194129, "lon": 149.1352938}, {"type": "node", "id": 1039113261, "lat": -35.3194339, "lon": 149.1357705}, {"type": "node", "id": 1534019522, "lat": -35.321767, "lon": 149.145006}, {"type": "node", "id": 1534019523, "lat": -35.3220395, "lon": 149.1449046}, {"type": "node", "id": 4289373039, "lat": -35.3202067, "lon": 149.1377239}, {"type": "node", "id": 4289373048, "lat": -35.3202639, "lon": 149.1379487}, {"type": "node", "id": 4533047221, "lat": -35.3194071, "lon": 149.134781}, {"type": "node", "id": 4533047224, "lat": -35.3196966, "lon": 149.1340852}, {"type": "node", "id": 4533047228, "lat": -35.3197486, "lon": 149.1344687}, {"type": "node", "id": 4533047231, "lat": -35.3192499, "lon": 149.1338297}, {"type": "node", "id": 5190609161, "lat": -35.3200737, "lon": 149.1383027, "tags": {"bus": "yes", "gtfs_id": "2328", "name": "Canberra Avenue Kingston Hotel", "network": "Transport Canberra", "public_transport": "stop_position", "ref": "2328"}}, {"type": "node", "id": 6191688813, "lat": -35.3193109, "lon": 149.133988}, {"type": "node", "id": 6191688814, "lat": -35.319653, "lon": 149.1339371}, {"type": "node", "id": 6198271747, "lat": -35.3202903, "lon": 149.1392049}, {"type": "node", "id": 6198271748, "lat": -35.3205573, "lon": 149.139106}, {"type": "node", "id": 6198301915, "lat": -35.3195926, "lon": 149.1353305}, {"type": "node", "id": 6198301916, "lat": -35.3195373, "lon": 149.1352786, "tags": {"highway": "traffic_signals"}}, {"type": "node", "id": 6198301917, "lat": -35.3194953, "lon": 149.1352151}, {"type": "node", "id": 6198301918, "lat": -35.3194565, "lon": 149.1351306}, {"type": "node", "id": 6198301919, "lat": -35.3194094, "lon": 149.1349846}, {"type": "node", "id": 6243937358, "lat": -35.3197587, "lon": 149.1359963}, {"type": "node", "id": 6244156459, "lat": -35.3191862, "lon": 149.1337066}, {"type": "node", "id": 6244214837, "lat": -35.3212686, "lon": 149.1430499}, {"type": "node", "id": 6244214838, "lat": -35.32129, "lon": 149.1431352}, {"type": "node", "id": 6244214839, "lat": -35.3215613, "lon": 149.1430324}, {"type": "node", "id": 6244214840, "lat": -35.3215371, "lon": 149.1429375}, {"type": "node", "id": 6590586846, "lat": -35.3196974, "lon": 149.1354906}, {"type": "node", "id": 6590586847, "lat": -35.3194203, "lon": 149.1356332}, {"type": "node", "id": 6639821209, "lat": -35.320533, "lon": 149.1390052, "tags": {"crossing": "unmarked", "highway": "crossing", "kerb": "lowered", "tactile_paving": "no"}}, {"type": "node", "id": 6639821210, "lat": -35.3202661, "lon": 149.1390974, "tags": {"crossing": "unmarked", "highway": "crossing", "kerb": "lowered", "tactile_paving": "no"}}, {"type": "node", "id": 6640174014, "lat": -35.3206099, "lon": 149.1393069, "tags": {"crossing": "unmarked", "highway": "crossing", "kerb": "lowered", "tactile_paving": "no"}}, {"type": "node", "id": 6640174015, "lat": -35.3203404, "lon": 149.1394043, "tags": {"crossing": "unmarked", "highway": "crossing", "kerb": "lowered", "tactile_paving": "no"}}, {"type": "node", "id": 6640174066, "lat": -35.3215912, "lon": 149.1431489}, {"type": "node", "id": 6640174067, "lat": -35.3213172, "lon": 149.1432416}, {"type": "node", "id": 6640216031, "lat": -35.3207506, "lon": 149.1410215}, {"type": "node", "id": 6640216032, "lat": -35.3210219, "lon": 149.14092}, {"type": "node", "id": 6640216051, "lat": -35.3201213, "lon": 149.1373755, "tags": {"crossing": "unmarked", "highway": "crossing", "tactile_paving": "no"}}, {"type": "node", "id": 6640216052, "lat": -35.3198647, "lon": 149.1374762, "tags": {"highway": "crossing"}}, {"type": "node", "id": 6641549148, "lat": -35.3211009, "lon": 149.1412256}, {"type": "node", "id": 6641549149, "lat": -35.3208277, "lon": 149.1413209}, {"type": "node", "id": 7302324895, "lat": -35.3208382, "lon": 149.140192}, {"type": "node", "id": 7302324897, "lat": -35.3202079, "lon": 149.1388528}, {"type": "node", "id": 7302324898, "lat": -35.3206714, "lon": 149.1395483}, {"type": "node", "id": 7302324899, "lat": -35.320714, "lon": 149.1397147}, {"type": "node", "id": 7305380960, "lat": -35.321199, "lon": 149.1416105}, {"type": "node", "id": 7305380961, "lat": -35.3205349, "lon": 149.1401626}, {"type": "node", "id": 7305380962, "lat": -35.3206632, "lon": 149.1406746}, {"type": "node", "id": 7366723597, "lat": -35.3192671, "lon": 149.1331878}, {"type": "node", "id": 8395362362, "lat": -35.3190709, "lon": 149.1335292}, {"type": "node", "id": 8395362363, "lat": -35.319581, "lon": 149.1337174}, {"type": "node", "id": 8395362364, "lat": -35.3195362, "lon": 149.1336055}, {"type": "node", "id": 8395362365, "lat": -35.3194148, "lon": 149.1333852}, {"type": "node", "id": 8395362366, "lat": -35.3194045, "lon": 149.1345454}, {"type": "node", "id": 10254870057, "lat": -35.3197199, "lon": 149.1341949}, {"type": "node", "id": 10254870058, "lat": -35.3197333, "lon": 149.1342755}, {"type": "node", "id": 10254870059, "lat": -35.3197509, "lon": 149.1345956}, {"type": "node", "id": 10254870060, "lat": -35.3192158, "lon": 149.1337585}, {"type": "node", "id": 10254870061, "lat": -35.3193696, "lon": 149.1341919}, {"type": "node", "id": 10254870062, "lat": -35.3193817, "lon": 149.1342569}, {"type": "node", "id": 10254870063, "lat": -35.319403, "lon": 149.1344346}, {"type": "node", "id": 10254870064, "lat": -35.3194732, "lon": 149.1351707}, {"type": "node", "id": 10254870065, "lat": -35.3194413, "lon": 149.135085}, {"type": "node", "id": 10254870066, "lat": -35.319461, "lon": 149.135965}, {"type": "node", "id": 10254870067, "lat": -35.3194821, "lon": 149.13606}, {"type": "node", "id": 10254870088, "lat": -35.3197274, "lon": 149.1357971}, {"type": "node", "id": 10254870089, "lat": -35.3197032, "lon": 149.1355414}, {"type": "node", "id": 10254870090, "lat": -35.3194737, "lon": 149.1354861}, {"type": "node", "id": 10254870091, "lat": -35.3195286, "lon": 149.1354572}, {"type": "node", "id": 10254870092, "lat": -35.3195946, "lon": 149.13543}, {"type": "node", "id": 10254870093, "lat": -35.3196897, "lon": 149.1352499}, {"type": "node", "id": 10254870094, "lat": -35.3196871, "lon": 149.1353171}, {"type": "node", "id": 10254870095, "lat": -35.3196904, "lon": 149.1354375}, {"type": "node", "id": 10254870097, "lat": -35.3197469, "lon": 149.1359274}, {"type": "node", "id": 10254870098, "lat": -35.3197356, "lon": 149.1358609}, {"type": "node", "id": 10254870099, "lat": -35.3197752, "lon": 149.136066}, {"type": "node", "id": 10254870100, "lat": -35.3195109, "lon": 149.1352417}, {"type": "node", "id": 10254870101, "lat": -35.3195261, "lon": 149.1352636}, {"type": "node", "id": 10254870102, "lat": -35.3195641, "lon": 149.1353058}, {"type": "node", "id": 10254870103, "lat": -35.3196305, "lon": 149.1353575}, {"type": "node", "id": 10254870104, "lat": -35.3196547, "lon": 149.1353727}, {"type": "node", "id": 10254870105, "lat": -35.3195654, "lon": 149.1352544}, {"type": "node", "id": 10254870106, "lat": -35.319595, "lon": 149.1352318}, {"type": "node", "id": 10254870109, "lat": -35.3193337, "lon": 149.1340536}, {"type": "node", "id": 10254870110, "lat": -35.3193504, "lon": 149.1341141}, {"type": "node", "id": 10254870115, "lat": -35.319015, "lon": 149.1334601}, {"type": "node", "id": 10254871962, "lat": -35.321473, "lon": 149.1429841}, {"type": "node", "id": 10254871963, "lat": -35.3213473, "lon": 149.1430333}, {"type": "node", "id": 10254871964, "lat": -35.3213507, "lon": 149.1430962}, {"type": "node", "id": 10254871965, "lat": -35.3214807, "lon": 149.1430468}, {"type": "node", "id": 11363894398, "lat": -35.3219175, "lon": 149.1455906}, {"type": "node", "id": 11363894422, "lat": -35.3219495, "lon": 149.1457146}, {"type": "node", "id": 11363894441, "lat": -35.322019, "lon": 149.1459846}, {"type": "node", "id": 11363894442, "lat": -35.3220496, "lon": 149.1461035}, {"type": "way", "id": 5117414, "nodes": [30725424, 10254870090, 10254870091, 10254870092, 33790905], "tags": {"highway": "trunk", "lanes": "2", "name": "Captain Cook Crescent", "oneway": "yes", "source:lanes": "ACTmapi Imagery 2018", "surface": "paved", "turn:lanes": "|right"}}, {"type": "way", "id": 5117415, "nodes": [33790851, 10254870106, 10254870105, 6198301916, 35130169], "tags": {"highway": "trunk", "lanes": "2", "name": "Manuka Circle", "oneway": "yes", "source:lanes": "ACTmapi Imagery 2018", "surface": "paved"}}, {"type": "way", "id": 5119371, "nodes": [35130131, 34021494], "tags": {"highway": "trunk", "maxspeed": "50", "oneway": "yes", "surface": "asphalt"}}, {"type": "way", "id": 22905519, "nodes": [30725424, 6590586847], "tags": {"highway": "trunk", "lanes": "2", "maxspeed": "60", "name": "Canberra Avenue", "network": "AU:ACT", "oneway": "yes", "ref": "A23", "source:lanes": "ACTmapi Imagery 2018", "surface": "paved"}}, {"type": "way", "id": 22905520, "nodes": [247171799, 10254870059, 4533047228, 247171057], "tags": {"alt_name": "Manuka Circle", "highway": "trunk", "lanes": "2", "maxspeed": "60", "name": "Canberra Avenue", "network": "AU:ACT", "oneway": "yes", "ref": "A23", "source:lanes": "ACTmapi Imagery 2018", "surface": "paved"}}, {"type": "way", "id": 89661404, "nodes": [32433555, 32433554], "tags": {"highway": "trunk", "maxspeed": "50", "source:geometry": "ACT mapi Imagery 2018", "surface": "paved"}}, {"type": "way", "id": 89661595, "nodes": [6198271748, 6198271747], "tags": {"highway": "trunk", "maxspeed": "50", "oneway": "yes", "surface": "asphalt"}}, {"type": "way", "id": 333933977, "nodes": [33790905, 10254870094, 10254870093, 33790851], "tags": {"highway": "trunk", "lanes": "3", "maxspeed": "60", "name": "Canberra Avenue", "network": "AU:ACT", "oneway": "yes", "ref": "A23", "source:lanes": "ACTmapi Imagery 2018", "surface": "paved", "turn:lanes": "||right"}}, {"type": "way", "id": 333933978, "nodes": [34633898, 29098421, 10254870099, 6243937358], "tags": {"highway": "trunk", "lanes": "2", "lit": "yes", "maxspeed": "60", "name": "Canberra Avenue", "network": "AU:ACT", "oneway": "yes", "ref": "A23", "shoulder": "no", "sidewalk:left": "separate", "sidewalk:right": "no", "source:lanes": "ACTmapi Imagery 2018", "surface": "paved"}}, {"type": "way", "id": 488671179, "nodes": [34633899, 6640216052, 5190609161, 7302324897], "tags": {"highway": "trunk", "lanes": "2", "maxspeed": "60", "name": "Canberra Avenue", "network": "AU:ACT", "oneway": "yes", "ref": "A23", "source:lanes": "ACTmapi Imagery 2018", "surface": "paved"}}, {"type": "way", "id": 488671182, "nodes": [6198271748, 6639821209, 4289373048, 4289373039, 6640216051, 34633898], "tags": {"highway": "trunk", "lanes": "2", "maxspeed": "60", "name": "Canberra Avenue", "network": "AU:ACT", "oneway": "yes", "ref": "A23", "source:lanes": "ACTmapi Imagery 2018", "surface": "paved"}}, {"type": "way", "id": 488671681, "nodes": [30725654, 10254870115, 8395362362, 30725421, 6244156459], "tags": {"alt_name": "Manuka Circle", "highway": "trunk", "lanes": "2", "maxspeed": "60", "name": "Canberra Avenue", "network": "AU:ACT", "oneway": "yes", "ref": "A23", "source:lanes": "ACTmapi Imagery 2018", "surface": "paved"}}, {"type": "way", "id": 488671936, "nodes": [32559181, 10254870063, 8395362366, 4533047221, 6198301919], "tags": {"alt_name": "Manuka Circle", "highway": "trunk", "lanes": "3", "maxspeed": "60", "name": "Canberra Avenue", "network": "AU:ACT", "oneway": "yes", "ref": "A23", "surface": "paved", "turn:lanes": "||right"}}, {"type": "way", "id": 488671937, "nodes": [247171053, 8395362365, 29098417, 7366723597, 30725653], "tags": {"alt_name": "Manuka Circle", "highway": "trunk", "lanes": "2", "maxspeed": "60", "name": "Canberra Avenue", "network": "AU:ACT", "oneway": "yes", "ref": "A23", "source:lanes": "ACTmapi Imagery 2018", "surface": "paved"}}, {"type": "way", "id": 569718209, "nodes": [32433554, 6641549149, 6244214837, 6244214838, 6640174067, 1534019522, 11363894398, 11363894422, 11363894441, 11363894442, 31202256], "tags": {"highway": "trunk", "lanes": "2", "maxspeed": "60", "name": "Canberra Avenue", "network": "AU:ACT", "oneway": "yes", "ref": "A23", "source:lanes": "ACTmapi Imagery 2018", "surface": "paved"}}, {"type": "way", "id": 662059212, "nodes": [6198271747, 35130131], "tags": {"highway": "trunk", "lanes": "2", "lit": "yes", "maxspeed": "60", "name": "Canberra Avenue", "network": "AU:ACT", "oneway": "yes", "ref": "A23", "shoulder": "no", "sidewalk:left": "separate", "sidewalk:right": "no", "surface": "paved"}}, {"type": "way", "id": 662062793, "nodes": [6198301919, 10254870065, 6198301918, 10254870064, 6198301917, 10254870100, 10254870101, 6198301916, 10254870102, 6198301915, 10254870103, 10254870104, 33790905], "tags": {"destination": "Griffith", "destination:street": "Captain Cook Crescent", "highway": "trunk", "lanes": "1", "oneway": "yes", "source:geometry": "ACTmapi Imagery 2018", "source:oneway": "ACTmapi Imagery 2018"}}, {"type": "way", "id": 666869534, "nodes": [6243937358, 10254870097, 10254870098, 10254870088, 29098420, 10254870089, 6590586846, 10254870095, 33790905], "tags": {"highway": "trunk", "lanes": "3", "maxspeed": "60", "name": "Canberra Avenue", "network": "AU:ACT", "oneway": "yes", "ref": "A23", "surface": "paved", "turn:lanes": "through||right"}}, {"type": "way", "id": 666895315, "nodes": [6198301919, 672530612, 35130169], "tags": {"alt_name": "Manuka Circle", "highway": "trunk", "lanes": "2", "maxspeed": "60", "name": "Canberra Avenue", "network": "AU:ACT", "oneway": "yes", "ref": "A23", "surface": "paved"}}, {"type": "way", "id": 666895316, "nodes": [6191688813, 10254870109, 10254870110, 10254870061, 10254870062, 32559181], "tags": {"alt_name": "Manuka Circle", "highway": "trunk", "lanes": "2", "maxspeed": "60", "name": "Canberra Avenue", "network": "AU:ACT", "oneway": "yes", "ref": "A23", "source:lanes": "ACTmapi Imagery 2018", "surface": "paved"}}, {"type": "way", "id": 666895317, "nodes": [6244156459, 10254870060, 4533047231, 30725422], "tags": {"alt_name": "Manuka Circle", "highway": "trunk", "lanes": "3", "maxspeed": "60", "name": "Canberra Avenue", "network": "AU:ACT", "oneway": "yes", "ref": "A23", "source:lanes": "ACTmapi Imagery 2018", "surface": "paved", "turn:lanes": "||right"}}, {"type": "way", "id": 666895318, "nodes": [30725422, 6191688813], "tags": {"alt_name": "Manuka Circle", "highway": "trunk", "lanes": "2", "maxspeed": "60", "name": "Canberra Avenue", "network": "AU:ACT", "oneway": "yes", "ref": "A23", "surface": "paved"}}, {"type": "way", "id": 666902028, "nodes": [6244214838, 10254871964, 10254871965, 6244214839], "tags": {"highway": "trunk", "lit": "yes", "oneway": "yes", "source:geometry": "ACT mapi Imagery 2018", "source:oneway": "ACT mapi Imagery 2018", "surface": "paved"}}, {"type": "way", "id": 666902030, "nodes": [6244214840, 10254871962, 10254871963, 6244214837], "tags": {"highway": "trunk", "lit": "yes", "oneway": "yes", "source:geometry": "ACT mapi Imagery 2018", "source:oneway": "ACT mapi Imagery 2018", "surface": "paved"}}, {"type": "way", "id": 706638366, "nodes": [6244214840, 7305380960, 6641549148, 32433555], "tags": {"highway": "trunk", "lanes": "2", "maxspeed": "60", "name": "Canberra Avenue", "network": "AU:ACT", "oneway": "yes", "ref": "A23", "source:lanes": "ACTmapi Imagery 2018", "surface": "paved"}}, {"type": "way", "id": 721743411, "nodes": [35130169, 30725424], "tags": {"highway": "trunk", "lanes": "2", "maxspeed": "60", "name": "Canberra Avenue", "network": "AU:ACT", "oneway": "yes", "ref": "A23", "source:lanes": "ACTmapi Imagery 2018", "surface": "paved"}}, {"type": "way", "id": 738061296, "nodes": [34021494, 6198271748], "tags": {"highway": "trunk", "lanes": "2", "lit": "yes", "maxspeed": "60", "name": "Canberra Avenue", "network": "AU:ACT", "oneway": "yes", "ref": "A23", "shoulder": "no", "sidewalk:left": "separate", "sidewalk:right": "no", "source:lanes": "ACTmapi Imagery 2018", "surface": "paved"}}, {"type": "way", "id": 738294270, "nodes": [35130131, 6640174015, 7305380961, 7305380962, 6640216031, 32433554], "tags": {"highway": "trunk", "lanes": "2", "maxspeed": "60", "name": "Canberra Avenue", "network": "AU:ACT", "oneway": "yes", "ref": "A23", "shoulder": "no", "source:lanes": "ACTmapi Imagery 2018", "surface": "paved"}}, {"type": "way", "id": 738666368, "nodes": [1534019523, 6640174066, 6244214839], "tags": {"highway": "trunk", "lanes": "2", "maxspeed": "60", "name": "Canberra Avenue", "network": "AU:ACT", "oneway": "yes", "ref": "A23", "source:lanes": "ACTmapi Imagery 2018", "surface": "paved"}}, {"type": "way", "id": 782115791, "nodes": [7302324897, 6639821210, 6198271747], "tags": {"highway": "trunk", "lanes": "2", "lit": "yes", "maxspeed": "60", "name": "Canberra Avenue", "network": "AU:ACT", "oneway": "yes", "ref": "A23", "shoulder": "no", "sidewalk:left": "separate", "sidewalk:right": "no", "source:lanes": "ACTmapi Imagery 2018", "surface": "paved"}}, {"type": "way", "id": 782115793, "nodes": [7302324899, 7302324898, 6640174014, 34021494], "tags": {"highway": "trunk", "lanes": "2", "lit": "yes", "maxspeed": "60", "name": "Canberra Avenue", "network": "AU:ACT", "oneway": "yes", "ref": "A23", "shoulder": "no", "sidewalk:left": "separate", "sidewalk:right": "no", "source:lanes": "ACTmapi Imagery 2018", "surface": "paved"}}, {"type": "way", "id": 782337561, "nodes": [6244214839, 6244214840], "tags": {"highway": "trunk", "lanes": "2", "maxspeed": "60", "name": "Canberra Avenue", "network": "AU:ACT", "oneway": "yes", "ref": "A23", "source:lanes": "ACTmapi Imagery 2018", "surface": "paved"}}, {"type": "way", "id": 782337562, "nodes": [32433555, 6640216032, 7302324895, 7302324899], "tags": {"highway": "trunk", "lanes": "2", "lit": "yes", "maxspeed": "60", "name": "Canberra Avenue", "network": "AU:ACT", "oneway": "yes", "ref": "A23", "shoulder": "no", "sidewalk:left": "separate", "sidewalk:right": "no", "source:lanes": "ACTmapi Imagery 2018", "surface": "paved"}}, {"type": "way", "id": 787947376, "nodes": [247171057, 10254870058, 10254870057, 4533047224, 6191688814, 29098418], "tags": {"alt_name": "Manuka Circle", "highway": "trunk", "lanes": "2", "maxspeed": "60", "name": "Canberra Avenue", "network": "AU:ACT", "oneway": "yes", "ref": "A23", "source:lanes": "ACTmapi Imagery 2018", "surface": "paved"}}, {"type": "way", "id": 787947377, "nodes": [33790851, 672530594, 247171799], "tags": {"alt_name": "Manuka Circle", "highway": "trunk", "lanes": "2", "maxspeed": "60", "name": "Canberra Avenue", "network": "AU:ACT", "oneway": "yes", "ref": "A23", "source:lanes": "ACTmapi Imagery 2018", "surface": "paved"}}, {"type": "way", "id": 787948477, "nodes": [6590586847, 1039113261, 30725425, 10254870066, 10254870067, 34633899], "tags": {"highway": "trunk", "lanes": "2", "lit": "yes", "maxspeed": "60", "name": "Canberra Avenue", "network": "AU:ACT", "oneway": "yes", "ref": "A23", "shoulder": "no", "sidewalk:left": "separate", "sidewalk:right": "no", "source:lanes": "ACTmapi Imagery 2018", "surface": "paved"}}, {"type": "way", "id": 787954183, "nodes": [29098418, 8395362363, 8395362364, 247171053], "tags": {"alt_name": "Manuka Circle", "highway": "trunk", "lanes": "2", "maxspeed": "60", "name": "Canberra Avenue", "network": "AU:ACT", "oneway": "yes", "ref": "A23", "source:lanes": "ACTmapi Imagery 2018", "surface": "paved"}}, {"type": "way", "id": 1121140586, "nodes": [34633899, 34633898], "tags": {"highway": "trunk", "lanes": "2", "lit": "yes", "maxspeed": "40", "sidewalk": "separate", "surface": "asphalt"}}]}