{"version": 0.6, "generator": "Overpass API 0.7.61.5 4133829e", "osm3s": {"timestamp_osm_base": "2023-12-06T10:24:50Z", "copyright": "The data included in this document is from www.openstreetmap.org. The data is made available under ODbL."}, "elements": [{"type": "node", "id": 276879271, "lat": -32.9816346, "lon": 151.6453069}, {"type": "node", "id": 276879302, "lat": -32.9879408, "lon": 151.6378653}, {"type": "node", "id": 276879303, "lat": -32.9871307, "lon": 151.6388321}, {"type": "node", "id": 276879304, "lat": -32.9864518, "lon": 151.6397413}, {"type": "node", "id": 276879305, "lat": -32.9861494, "lon": 151.6408252}, {"type": "node", "id": 276879306, "lat": -32.9857566, "lon": 151.6418556, "tags": {"curve_geometry": "yes"}}, {"type": "node", "id": 276879307, "lat": -32.9844313, "lon": 151.6431657}, {"type": "node", "id": 276879308, "lat": -32.9839002, "lon": 151.6435701}, {"type": "node", "id": 277083549, "lat": -32.9805919, "lon": 151.6455849}, {"type": "node", "id": 277083567, "lat": -32.9772347, "lon": 151.6448983}, {"type": "node", "id": 285874534, "lat": -32.9859493, "lon": 151.6415505}, {"type": "node", "id": 365234511, "lat": -32.9765576, "lon": 151.644881}, {"type": "node", "id": 762166893, "lat": -32.9881781, "lon": 151.637581}, {"type": "node", "id": 762198659, "lat": -32.9803075, "lon": 151.6456408, "tags": {"crossing": "unmarked", "crossing:island": "yes", "highway": "crossing"}}, {"type": "node", "id": 762198672, "lat": -32.984275, "lon": 151.6432872}, {"type": "node", "id": 775429693, "lat": -32.9817038, "lon": 151.645248}, {"type": "node", "id": 775429716, "lat": -32.9816383, "lon": 151.6453736}, {"type": "node", "id": 775429730, "lat": -32.9816778, "lon": 151.6454164}, {"type": "node", "id": 939836424, "lat": -32.9816546, "lon": 151.6453995}, {"type": "node", "id": 939836427, "lat": -32.9817045, "lon": 151.645422}, {"type": "node", "id": 939836437, "lat": -32.9817662, "lon": 151.64538}, {"type": "node", "id": 939836441, "lat": -32.9817763, "lon": 151.6453264}, {"type": "node", "id": 939836442, "lat": -32.9817575, "lon": 151.6452763}, {"type": "node", "id": 939836448, "lat": -32.9817331, "lon": 151.6452554}, {"type": "node", "id": 939836456, "lat": -32.9816744, "lon": 151.6452553}, {"type": "node", "id": 939836459, "lat": -32.9816499, "lon": 151.6452761}, {"type": "node", "id": 939836462, "lat": -32.981631, "lon": 151.6453424}, {"type": "node", "id": 1733930974, "lat": -32.9767447, "lon": 151.6448874}, {"type": "node", "id": 1733931016, "lat": -32.9784597, "lon": 151.6452835}, {"type": "node", "id": 1733931018, "lat": -32.9790298, "lon": 151.6454657}, {"type": "node", "id": 1733931040, "lat": -32.9763844, "lon": 151.6448743}, {"type": "node", "id": 1839431856, "lat": -32.9776333, "lon": 151.6449546}, {"type": "node", "id": 1839431859, "lat": -32.9817311, "lon": 151.6454157}, {"type": "node", "id": 2608920782, "lat": -32.9824351, "lon": 151.6447083}, {"type": "node", "id": 2608920785, "lat": -32.9833573, "lon": 151.6439839}, {"type": "node", "id": 2608920805, "lat": -32.9860216, "lon": 151.6413691}, {"type": "node", "id": 2608920816, "lat": -32.986305, "lon": 151.6401187}, {"type": "node", "id": 2608920820, "lat": -32.9866598, "lon": 151.6393936}, {"type": "node", "id": 2609117418, "lat": -32.9811289, "lon": 151.6454458}, {"type": "node", "id": 2609117419, "lat": -32.9813568, "lon": 151.6454108}, {"type": "node", "id": 2609117420, "lat": -32.9816969, "lon": 151.6451407}, {"type": "node", "id": 4409599881, "lat": -32.9759516, "lon": 151.6448625}, {"type": "node", "id": 5211700536, "lat": -32.9813377, "lon": 151.6453223}, {"type": "node", "id": 5211700537, "lat": -32.981407, "lon": 151.6453307}, {"type": "node", "id": 5318143450, "lat": -32.980405, "lon": 151.6456263}, {"type": "node", "id": 6965192070, "lat": -32.9807922, "lon": 151.6455379}, {"type": "node", "id": 8404024057, "lat": -32.9823487, "lon": 151.644825}, {"type": "node", "id": 8404024058, "lat": -32.982069, "lon": 151.6451156}, {"type": "node", "id": 8404024059, "lat": -32.9818673, "lon": 151.6453066}, {"type": "node", "id": 8404024060, "lat": -32.9823013, "lon": 151.6447748}, {"type": "node", "id": 8404024061, "lat": -32.9820856, "lon": 151.6449237}, {"type": "node", "id": 8404024062, "lat": -32.9814024, "lon": 151.6452717}, {"type": "node", "id": 8404024063, "lat": -32.9820285, "lon": 151.6450096}, {"type": "node", "id": 8404024064, "lat": -32.9818767, "lon": 151.6451306}, {"type": "node", "id": 8404024065, "lat": -32.9817676, "lon": 151.6451966}, {"type": "node", "id": 8404024066, "lat": -32.9799406, "lon": 151.6456348}, {"type": "node", "id": 8404024067, "lat": -32.9795653, "lon": 151.6455866}, {"type": "node", "id": 8404024068, "lat": -32.9787431, "lon": 151.6453884}, {"type": "node", "id": 8404024069, "lat": -32.9774345, "lon": 151.6449106}, {"type": "node", "id": 8721737932, "lat": -32.9860737, "lon": 151.641202}, {"type": "node", "id": 9491489485, "lat": -32.984791, "lon": 151.6428642}, {"type": "node", "id": 9491489486, "lat": -32.9851285, "lon": 151.6425236}, {"type": "node", "id": 10074849599, "lat": -32.9882424, "lon": 151.6374982}, {"type": "node", "id": 10839524093, "lat": -32.9877846, "lon": 151.6380518}, {"type": "way", "id": 25424705, "nodes": [2609117418, 2609117419, 775429716], "tags": {"highway": "primary", "maxspeed": "60", "name": "The Esplanade", "network": "AU:NSW", "old_network": "S", "old_ref": "131", "old_ref:end_date": "2013-06", "oneway": "yes", "ref": "B89", "ref:start_date": "2013-06", "surface": "asphalt"}}, {"type": "way", "id": 48102936, "nodes": [285874534, 276879306, 9491489486, 9491489485, 276879307], "tags": {"highway": "primary", "maxspeed": "60", "name": "The Esplanade", "network": "AU:NSW", "old_network": "S", "old_ref": "131", "old_ref:end_date": "2013-06", "ref": "B89", "ref:start_date": "2013-06", "surface": "asphalt"}}, {"type": "way", "id": 62153803, "nodes": [939836441, 939836442, 939836448, 775429693, 939836456, 939836459], "tags": {"highway": "primary", "junction": "roundabout", "maxspeed": "60", "network": "AU:NSW", "old_network": "S", "old_ref": "131", "old_ref:end_date": "2013-06", "ref": "B89", "ref:start_date": "2013-06", "surface": "asphalt"}}, {"type": "way", "id": 170594940, "nodes": [10074849599, 762166893, 276879302, 10839524093, 276879303, 2608920820, 276879304, 2608920816, 276879305], "tags": {"highway": "primary", "maxspeed": "60", "name": "Macquarie Drive", "network": "AU:NSW", "old_network": "S", "old_ref": "131", "old_ref:end_date": "2013-06", "ref": "B89", "ref:start_date": "2013-06", "surface": "asphalt"}}, {"type": "way", "id": 255164749, "nodes": [276879307, 762198672], "tags": {"bridge": "yes", "highway": "primary", "layer": "1", "maxspeed": "60", "name": "The Esplanade", "network": "AU:NSW", "old_network": "S", "old_ref": "131", "old_ref:end_date": "2013-06", "ref": "B89", "ref:start_date": "2013-06", "surface": "asphalt"}}, {"type": "way", "id": 255164751, "nodes": [762198672, 276879308, 2608920785, 2608920782], "tags": {"highway": "primary", "maxspeed": "60", "name": "The Esplanade", "network": "AU:NSW", "old_network": "S", "old_ref": "131", "old_ref:end_date": "2013-06", "ref": "B89", "ref:start_date": "2013-06", "surface": "asphalt"}}, {"type": "way", "id": 255189784, "nodes": [8404024061, 2609117420, 8404024062, 5211700536], "tags": {"highway": "primary", "maxspeed": "60", "name": "The Esplanade", "network": "AU:NSW", "oneway": "yes", "ref": "B89", "surface": "asphalt"}}, {"type": "way", "id": 332382909, "nodes": [2609117418, 6965192070], "tags": {"highway": "primary", "lanes": "4", "maxspeed": "60", "name": "The Esplanade", "network": "AU:NSW", "old_network": "S", "old_ref": "131", "old_ref:end_date": "2013-06", "ref": "B89", "ref:start_date": "2013-06", "surface": "asphalt"}}, {"type": "way", "id": 332382910, "nodes": [939836441, 8404024059, 8404024058, 8404024057, 2608920782], "tags": {"highway": "primary", "maxspeed": "60", "name": "The Esplanade", "network": "AU:NSW", "old_network": "S", "old_ref": "131", "old_ref:end_date": "2013-06", "oneway": "yes", "ref": "B89", "ref:start_date": "2013-06", "surface": "asphalt"}}, {"type": "way", "id": 538437585, "nodes": [5211700536, 2609117418], "tags": {"highway": "primary", "maxspeed": "60", "name": "The Esplanade", "network": "AU:NSW", "oneway": "yes", "ref": "B89", "surface": "asphalt"}}, {"type": "way", "id": 538437590, "nodes": [939836459, 276879271, 939836462, 775429716], "tags": {"highway": "primary", "junction": "roundabout", "maxspeed": "60", "network": "AU:NSW", "old_network": "S", "old_ref": "131", "old_ref:end_date": "2013-06", "ref": "B89", "ref:start_date": "2013-06", "surface": "asphalt"}}, {"type": "way", "id": 538437595, "nodes": [939836459, 5211700537, 5211700536], "tags": {"highway": "primary", "maxspeed": "60", "name": "The Esplanade", "network": "AU:NSW", "noname": "yes", "oneway": "yes", "ref": "B89", "surface": "asphalt"}}, {"type": "way", "id": 538437597, "nodes": [775429716, 939836424, 775429730, 939836427, 1839431859], "tags": {"highway": "primary", "junction": "roundabout", "maxspeed": "60", "network": "AU:NSW", "old_network": "S", "old_ref": "131", "old_ref:end_date": "2013-06", "ref": "B89", "ref:start_date": "2013-06", "surface": "asphalt"}}, {"type": "way", "id": 577229446, "nodes": [276879305, 8721737932, 2608920805, 285874534], "tags": {"highway": "primary", "maxspeed": "60", "name": "Macquarie Drive", "network": "AU:NSW", "old_network": "S", "old_ref": "131", "old_ref:end_date": "2013-06", "ref": "B89", "ref:start_date": "2013-06", "surface": "asphalt"}}, {"type": "way", "id": 725995394, "nodes": [1839431859, 939836437, 939836441], "tags": {"highway": "primary", "junction": "roundabout", "maxspeed": "60", "network": "AU:NSW", "old_network": "S", "old_ref": "131", "old_ref:end_date": "2013-06", "ref": "B89", "ref:start_date": "2013-06", "surface": "asphalt"}}, {"type": "way", "id": 904941169, "nodes": [8404024061, 8404024063, 8404024064, 8404024065, 775429693], "tags": {"highway": "primary", "maxspeed": "60", "name": "The Esplanade", "network": "AU:NSW", "oneway": "yes", "ref": "B89", "surface": "asphalt"}}, {"type": "way", "id": 904941170, "nodes": [2608920782, 8404024060, 8404024061], "tags": {"highway": "primary", "maxspeed": "60", "name": "The Esplanade", "network": "AU:NSW", "oneway": "yes", "ref": "B89", "surface": "asphalt"}}, {"type": "way", "id": 1100823428, "nodes": [6965192070, 277083549, 5318143450, 762198659, 8404024066, 8404024067, 1733931018, 8404024068, 1733931016, 1839431856, 8404024069, 277083567, 1733930974, 365234511, 1733931040, 4409599881], "tags": {"highway": "primary", "lanes": "4", "maxspeed": "60", "name": "The Esplanade", "network": "AU:NSW", "old_network": "S", "old_ref": "131", "old_ref:end_date": "2013-06", "ref": "B89", "ref:start_date": "2013-06", "surface": "asphalt"}}]}