{"version": 0.6, "generator": "Overpass API 0.7.61.5 4133829e", "osm3s": {"timestamp_osm_base": "2023-12-08T07:58:44Z", "copyright": "The data included in this document is from www.openstreetmap.org. The data is made available under ODbL."}, "elements": [{"type": "node", "id": 278126559, "lat": -32.0172647, "lon": 115.839439}, {"type": "node", "id": 278126560, "lat": -32.0173749, "lon": 115.839521}, {"type": "node", "id": 278126987, "lat": -32.0161515, "lon": 115.84178}, {"type": "node", "id": 278127169, "lat": -32.0155153, "lon": 115.8430862}, {"type": "node", "id": 278127424, "lat": -32.0185228, "lon": 115.8370565}, {"type": "node", "id": 278128546, "lat": -32.0179, "lon": 115.8381947}, {"type": "node", "id": 278128547, "lat": -32.017995, "lon": 115.8382779}, {"type": "node", "id": 278128851, "lat": -32.0167155, "lon": 115.8406108}, {"type": "node", "id": 278131934, "lat": -32.0149141, "lon": 115.8443333}, {"type": "node", "id": 278131942, "lat": -32.0142968, "lon": 115.8456303}, {"type": "node", "id": 296083005, "lat": -32.0120123, "lon": 115.8505782}, {"type": "node", "id": 296083492, "lat": -32.0122127, "lon": 115.8501852}, {"type": "node", "id": 296084943, "lat": -32.0132761, "lon": 115.8481603}, {"type": "node", "id": 296085589, "lat": -32.0156282, "lon": 115.8431585}, {"type": "node", "id": 296085810, "lat": -32.0168102, "lon": 115.8406928}, {"type": "node", "id": 298967068, "lat": -32.0129528, "lon": 115.8487774}, {"type": "node", "id": 298967522, "lat": -32.0127396, "lon": 115.8491879}, {"type": "node", "id": 1836820385, "lat": -32.0126475, "lon": 115.8490887}, {"type": "node", "id": 1836820386, "lat": -32.0131791, "lon": 115.8480788}, {"type": "node", "id": 1836820389, "lat": -32.0138182, "lon": 115.8471188, "tags": {"highway": "traffic_signals", "traffic_signals:direction": "forward"}}, {"type": "node", "id": 1836820415, "lat": -32.0142779, "lon": 115.8460137}, {"type": "node", "id": 1836820419, "lat": -32.0144116, "lon": 115.8456879}, {"type": "node", "id": 1836820422, "lat": -32.0145686, "lon": 115.8453449}, {"type": "node", "id": 1836820425, "lat": -32.0177213, "lon": 115.8385191}, {"type": "node", "id": 4171855998, "lat": -32.0135401, "lon": 115.8476547}, {"type": "node", "id": 4171856002, "lat": -32.0137246, "lon": 115.8470291, "tags": {"crossing": "traffic_signals", "highway": "crossing"}}, {"type": "node", "id": 4171856005, "lat": -32.0137754, "lon": 115.8469101}, {"type": "node", "id": 4171856006, "lat": -32.0138045, "lon": 115.8468352}, {"type": "node", "id": 4171856009, "lat": -32.0138464, "lon": 115.8467353, "tags": {"highway": "traffic_signals", "traffic_signals:direction": "forward"}}, {"type": "node", "id": 4171856012, "lat": -32.0138878, "lon": 115.8469689}, {"type": "node", "id": 4171856013, "lat": -32.0139235, "lon": 115.8468848}, {"type": "node", "id": 4171856014, "lat": -32.0139091, "lon": 115.8469178}, {"type": "node", "id": 4171856019, "lat": -32.0139528, "lon": 115.846819, "tags": {"crossing": "traffic_signals", "highway": "crossing"}}, {"type": "node", "id": 4171856022, "lat": -32.0140073, "lon": 115.8463378}, {"type": "node", "id": 4171856023, "lat": -32.0140028, "lon": 115.84669}, {"type": "node", "id": 4171856048, "lat": -32.0152947, "lon": 115.8438379}, {"type": "node", "id": 4171856049, "lat": -32.0154584, "lon": 115.8432133}, {"type": "node", "id": 4171856050, "lat": -32.01621, "lon": 115.8419359}, {"type": "node", "id": 4924304597, "lat": -32.0157225, "lon": 115.8429682}, {"type": "node", "id": 4924304598, "lat": -32.0155717, "lon": 115.8432821, "tags": {"highway": "traffic_signals", "traffic_signals": "signal", "traffic_signals:direction": "forward"}}, {"type": "node", "id": 4924304601, "lat": -32.0155983, "lon": 115.8429009, "tags": {"highway": "traffic_signals", "traffic_signals": "signal", "traffic_signals:direction": "forward"}}, {"type": "node", "id": 6257575139, "lat": -32.0173005, "lon": 115.8393606}, {"type": "node", "id": 6257575140, "lat": -32.0174141, "lon": 115.8394391}, {"type": "node", "id": 6263220070, "lat": -32.0156608, "lon": 115.8430922}, {"type": "node", "id": 6263220071, "lat": -32.0155461, "lon": 115.8430174}, {"type": "node", "id": 6285440929, "lat": -32.0169656, "lon": 115.8403673}, {"type": "node", "id": 6285440930, "lat": -32.0158263, "lon": 115.8424308}, {"type": "node", "id": 6351792830, "lat": -32.0188632, "lon": 115.836692}, {"type": "node", "id": 6936157616, "lat": -32.0173174, "lon": 115.8396443, "tags": {"highway": "traffic_signals", "traffic_signals": "signal", "traffic_signals:direction": "forward"}}, {"type": "node", "id": 6936157621, "lat": -32.0173664, "lon": 115.8392171, "tags": {"highway": "traffic_signals", "traffic_signals": "signal", "traffic_signals:direction": "forward"}}, {"type": "node", "id": 9574268670, "lat": -32.0138355, "lon": 115.8467613, "tags": {"crossing": "traffic_signals", "highway": "crossing"}}, {"type": "node", "id": 9574268671, "lat": -32.0138282, "lon": 115.8470973, "tags": {"crossing": "traffic_signals", "highway": "crossing"}}, {"type": "node", "id": 9574268679, "lat": -32.0131616, "lon": 115.8483789}, {"type": "node", "id": 9574268680, "lat": -32.0130102, "lon": 115.8486677}, {"type": "node", "id": 9574268694, "lat": -32.0127988, "lon": 115.8488013}, {"type": "node", "id": 9582973176, "lat": -32.0186444, "lon": 115.8368338}, {"type": "node", "id": 9582973180, "lat": -32.017544, "lon": 115.838858}, {"type": "node", "id": 9582973181, "lat": -32.0178101, "lon": 115.838618}, {"type": "node", "id": 9582973189, "lat": -32.0172148, "lon": 115.8395504}, {"type": "node", "id": 9582973190, "lat": -32.0174712, "lon": 115.8393194}, {"type": "node", "id": 9582973194, "lat": -32.0163588, "lon": 115.8416288}, {"type": "node", "id": 9582973195, "lat": -32.0160475, "lon": 115.8419962}, {"type": "node", "id": 9582973197, "lat": -32.0152943, "lon": 115.8435471}, {"type": "node", "id": 9582973198, "lat": -32.0151548, "lon": 115.8438356}, {"type": "node", "id": 9582973200, "lat": -32.0150898, "lon": 115.8442631}, {"type": "node", "id": 9582973201, "lat": -32.0149152, "lon": 115.8446256}, {"type": "node", "id": 10857502524, "lat": -32.0152477, "lon": 115.8436436}, {"type": "node", "id": 11244970461, "lat": -32.014018, "lon": 115.8463115}, {"type": "way", "id": 4834565, "nodes": [9582973176, 278127424, 278128546, 1836820425], "tags": {"highway": "trunk", "lanes": "2", "maxspeed": "60", "name": "Canning Highway", "network": "AU:WA:S", "oneway": "yes", "ref": "6", "source:ref": "OpenStreetCam", "surface": "paved"}}, {"type": "way", "id": 416442725, "nodes": [296083005, 296083492, 298967522, 298967068, 9574268680], "tags": {"highway": "trunk", "lanes": "2", "maxspeed": "60", "name": "Canning Highway", "network": "AU:WA:S", "oneway": "yes", "ref": "6", "source:ref": "OpenStreetCam", "surface": "paved"}}, {"type": "way", "id": 416442726, "nodes": [4171856013, 4171856019], "tags": {"highway": "trunk", "lanes": "2", "maxspeed": "60", "name": "Canning Highway", "network": "AU:WA:S", "oneway": "yes", "ref": "6", "source:ref": "OpenStreetCam", "surface": "paved"}}, {"type": "way", "id": 416442728, "nodes": [4171855998, 1836820389], "tags": {"highway": "trunk", "lanes": "3", "maxspeed": "60", "name": "Canning Highway", "network": "AU:WA:S", "oneway": "yes", "placement": "left_of:2", "ref": "6", "source:ref": "OpenStreetCam", "surface": "paved", "turn:lanes": "||right"}}, {"type": "way", "id": 416442729, "nodes": [4171856022, 4171856009], "tags": {"highway": "trunk", "lanes": "4", "maxspeed": "60", "name": "Canning Highway", "network": "AU:WA:S", "oneway": "yes", "placement": "middle_of:2", "ref": "6", "source:ref": "OpenStreetCam", "surface": "paved", "turn:lanes": "none|none|none|right"}}, {"type": "way", "id": 416442730, "nodes": [4171856009, 9574268670, 4171856006], "tags": {"highway": "trunk", "lanes": "4", "maxspeed": "60", "name": "Canning Highway", "network": "AU:WA:S", "oneway": "yes", "placement": "middle_of:2", "ref": "6", "source:ref": "OpenStreetCam", "surface": "paved", "turn:lanes": "|||right"}}, {"type": "way", "id": 416442733, "nodes": [1836820389, 9574268671, 4171856012], "tags": {"highway": "trunk", "lanes": "3", "maxspeed": "60", "name": "Canning Highway", "network": "AU:WA:S", "oneway": "yes", "placement": "right_of:1", "ref": "6", "source:ref": "OpenStreetCam", "surface": "paved", "turn:lanes": "||right"}}, {"type": "way", "id": 416442745, "nodes": [4171856006, 4171856005], "tags": {"highway": "trunk", "lanes": "3", "maxspeed": "60", "name": "Canning Highway", "network": "AU:WA:S", "oneway": "yes", "ref": "6", "source:ref": "OpenStreetCam", "surface": "paved", "turn:lanes": "||right"}}, {"type": "way", "id": 416442748, "nodes": [4171856005, 4171856002], "tags": {"highway": "trunk", "lanes": "3", "maxspeed": "60", "name": "Canning Highway", "network": "AU:WA:S", "oneway": "yes", "ref": "6", "source:ref": "OpenStreetCam", "surface": "paved"}}, {"type": "way", "id": 416442751, "nodes": [4171856012, 4171856014, 4171856013], "tags": {"highway": "trunk", "lanes": "3", "maxspeed": "60", "name": "Canning Highway", "network": "AU:WA:S", "oneway": "yes", "ref": "6", "source:ref": "OpenStreetCam", "surface": "paved", "turn:lanes": "||right"}}, {"type": "way", "id": 416442755, "nodes": [9582973198, 278131934, 278131942, 11244970461, 4171856022], "tags": {"highway": "trunk", "lanes": "3", "maxspeed": "60", "name": "Canning Highway", "network": "AU:WA:S", "oneway": "yes", "ref": "6", "source:ref": "OpenStreetCam", "surface": "paved"}}, {"type": "way", "id": 416442757, "nodes": [4171856019, 4171856023, 1836820415, 1836820419, 1836820422, 9582973201], "tags": {"highway": "trunk", "lanes": "2", "maxspeed": "60", "name": "Canning Highway", "network": "AU:WA:S", "oneway": "yes", "ref": "6", "source:ref": "OpenStreetCam", "surface": "paved"}}, {"type": "way", "id": 502654485, "nodes": [4171856048, 4924304598, 296085589], "tags": {"highway": "trunk", "lanes": "3", "maxspeed": "60", "name": "Canning Highway", "network": "AU:WA:S", "oneway": "yes", "placement": "right_of:1", "ref": "6", "source:lanes": "Esri World Imagery", "source:ref": "OpenStreetCam", "surface": "paved", "turn:lanes": "||right"}}, {"type": "way", "id": 579725380, "nodes": [6263220070, 4924304597, 4171856050], "tags": {"highway": "trunk", "lanes": "2", "maxspeed": "60", "name": "Canning Highway", "network": "AU:WA:S", "oneway": "yes", "ref": "6", "source:lanes": "Esri World Imagery", "source:ref": "OpenStreetCam", "surface": "paved"}}, {"type": "way", "id": 579725382, "nodes": [278126559, 9582973189, 278128851, 278126987, 9582973195, 6285440930], "tags": {"highway": "trunk", "lanes": "2", "maxspeed": "60", "name": "Canning Highway", "network": "AU:WA:S", "oneway": "yes", "ref": "6", "source:lanes": "Esri World Imagery", "source:ref": "OpenStreetCam", "surface": "paved"}}, {"type": "way", "id": 671195391, "nodes": [6285440929, 6936157616, 278126560], "tags": {"highway": "trunk", "lanes": "3", "maxspeed": "60", "name": "Canning Highway", "network": "AU:WA:S", "oneway": "yes", "placement": "right_of:1", "ref": "6", "source:lanes": "Esri World Imagery", "source:ref": "OpenStreetCam", "surface": "paved", "turn:lanes": "||right"}}, {"type": "way", "id": 671195392, "nodes": [6285440930, 4924304601, 6263220071, 278127169], "tags": {"highway": "trunk", "lanes": "3", "maxspeed": "60", "name": "Canning Highway", "network": "AU:WA:S", "oneway": "yes", "placement": "right_of:1", "ref": "6", "source:lanes": "Esri World Imagery", "source:ref": "OpenStreetCam", "surface": "paved", "turn:lanes": "||right"}}, {"type": "way", "id": 671195393, "nodes": [278127169, 4171856049], "tags": {"highway": "trunk", "lanes": "3", "maxspeed": "60", "name": "Canning Highway", "network": "AU:WA:S", "oneway": "yes", "ref": "6", "source:lanes": "Esri World Imagery", "source:ref": "OpenStreetCam", "surface": "paved"}}, {"type": "way", "id": 671195394, "nodes": [296085589, 6263220070], "tags": {"highway": "trunk", "lanes": "3", "maxspeed": "60", "name": "Canning Highway", "network": "AU:WA:S", "oneway": "yes", "ref": "6", "source:lanes": "Esri World Imagery", "source:ref": "OpenStreetCam", "surface": "paved", "turn:lanes": "||right"}}, {"type": "way", "id": 678353897, "nodes": [1836820425, 9582973180, 6936157621, 6257575139, 278126559], "tags": {"highway": "trunk", "lanes": "3", "maxspeed": "60", "name": "Canning Highway", "network": "AU:WA:S", "oneway": "yes", "placement": "right_of:1", "ref": "6", "source:ref": "OpenStreetCam", "surface": "paved", "turn:lanes": "||right"}}, {"type": "way", "id": 678353911, "nodes": [278126560, 6257575140, 9582973190, 9582973181, 278128547, 6351792830], "tags": {"highway": "trunk", "lanes": "2", "maxspeed": "60", "name": "Canning Highway", "network": "AU:WA:S", "oneway": "yes", "ref": "6", "source:ref": "OpenStreetCam", "surface": "paved"}}, {"type": "way", "id": 1039768679, "nodes": [9574268679, 296084943, 4171855998], "tags": {"highway": "trunk", "lanes": "2", "maxspeed": "60", "name": "Canning Highway", "network": "AU:WA:S", "oneway": "yes", "ref": "6", "source:ref": "OpenStreetCam", "surface": "paved"}}, {"type": "way", "id": 1039768680, "nodes": [9574268680, 9574268679], "tags": {"bus_bay": "left", "highway": "trunk", "lanes": "2", "maxspeed": "60", "name": "Canning Highway", "network": "AU:WA:S", "oneway": "yes", "ref": "6", "source:ref": "OpenStreetCam", "surface": "paved"}}, {"type": "way", "id": 1039768682, "nodes": [9574268694, 1836820385], "tags": {"bus_bay": "left", "highway": "trunk", "lanes": "3", "maxspeed": "60", "name": "Canning Highway", "network": "AU:WA:S", "oneway": "yes", "ref": "6", "source:ref": "OpenStreetCam", "surface": "paved"}}, {"type": "way", "id": 1039768683, "nodes": [4171856002, 1836820386, 9574268694], "tags": {"highway": "trunk", "lanes": "3", "maxspeed": "60", "name": "Canning Highway", "network": "AU:WA:S", "oneway": "yes", "ref": "6", "source:ref": "OpenStreetCam", "surface": "paved"}}, {"type": "way", "id": 1040822495, "nodes": [9582973194, 296085810, 6285440929], "tags": {"highway": "trunk", "lanes": "2", "maxspeed": "60", "name": "Canning Highway", "network": "AU:WA:S", "oneway": "yes", "ref": "6", "source:lanes": "Esri World Imagery", "source:ref": "OpenStreetCam", "surface": "paved"}}, {"type": "way", "id": 1040822496, "nodes": [4171856050, 9582973194], "tags": {"highway": "trunk", "lanes": "2", "maxspeed": "60", "name": "Canning Highway", "network": "AU:WA:S", "oneway": "yes", "ref": "6", "source:lanes": "Esri World Imagery", "source:ref": "OpenStreetCam", "surface": "paved"}}, {"type": "way", "id": 1040822497, "nodes": [9582973197, 10857502524, 9582973198], "tags": {"bus_bay": "left", "highway": "trunk", "lanes": "3", "maxspeed": "60", "name": "Canning Highway", "network": "AU:WA:S", "oneway": "yes", "ref": "6", "source:ref": "OpenStreetCam", "surface": "paved"}}, {"type": "way", "id": 1040822498, "nodes": [4171856049, 9582973197], "tags": {"highway": "trunk", "lanes": "3", "maxspeed": "60", "name": "Canning Highway", "network": "AU:WA:S", "oneway": "yes", "ref": "6", "source:ref": "OpenStreetCam", "surface": "paved"}}, {"type": "way", "id": 1040822499, "nodes": [9582973200, 4171856048], "tags": {"highway": "trunk", "lanes": "2", "maxspeed": "60", "name": "Canning Highway", "network": "AU:WA:S", "oneway": "yes", "ref": "6", "source:ref": "OpenStreetCam", "surface": "paved"}}, {"type": "way", "id": 1040822500, "nodes": [9582973201, 9582973200], "tags": {"bus_bay": "left", "highway": "trunk", "lanes": "2", "maxspeed": "60", "name": "Canning Highway", "network": "AU:WA:S", "oneway": "yes", "ref": "6", "source:ref": "OpenStreetCam", "surface": "paved"}}]}