{"version": 0.6, "generator": "Overpass API 0.7.61.5 4133829e", "osm3s": {"timestamp_osm_base": "2023-12-06T09:32:41Z", "copyright": "The data included in this document is from www.openstreetmap.org. The data is made available under ODbL."}, "elements": [{"type": "node", "id": 326888844, "lat": -36.084241, "lon": 146.9098456}, {"type": "node", "id": 326888845, "lat": -36.0842256, "lon": 146.9097131}, {"type": "node", "id": 326888847, "lat": -36.0841573, "lon": 146.9097252}, {"type": "node", "id": 326888848, "lat": -36.0841731, "lon": 146.9098576}, {"type": "node", "id": 326888849, "lat": -36.0844772, "lon": 146.9123428}, {"type": "node", "id": 326888850, "lat": -36.0847863, "lon": 146.9149047}, {"type": "node", "id": 331960869, "lat": -36.0832324, "lon": 146.9099852}, {"type": "node", "id": 667730191, "lat": -36.0835215, "lon": 146.9098666}, {"type": "node", "id": 667730193, "lat": -36.0833921, "lon": 146.9099036}, {"type": "node", "id": 667730216, "lat": -36.0838473, "lon": 146.9097869}, {"type": "node", "id": 667730217, "lat": -36.0836815, "lon": 146.9098218}, {"type": "node", "id": 667730219, "lat": -36.083739, "lon": 146.9099398}, {"type": "node", "id": 667732269, "lat": -36.0848368, "lon": 146.9144574}, {"type": "node", "id": 667732287, "lat": -36.0847466, "lon": 146.9139159}, {"type": "node", "id": 1834036235, "lat": -36.0843104, "lon": 146.9110181}, {"type": "node", "id": 2491785442, "lat": -36.0846355, "lon": 146.9136617}, {"type": "node", "id": 2865696477, "lat": -36.0847616, "lon": 146.914721, "tags": {"highway": "traffic_signals", "traffic_signals:direction": "forward"}}, {"type": "node", "id": 2865696481, "lat": -36.0848695, "lon": 146.9147009}, {"type": "node", "id": 2865826486, "lat": -36.084579, "lon": 146.9125143, "tags": {"highway": "traffic_signals", "traffic_signals:direction": "forward"}}, {"type": "node", "id": 2865826487, "lat": -36.0845284, "lon": 146.9121059}, {"type": "node", "id": 2865826488, "lat": -36.0844563, "lon": 146.9121494, "tags": {"highway": "traffic_signals", "traffic_signals:direction": "forward"}}, {"type": "node", "id": 2865826490, "lat": -36.0844941, "lon": 146.9124991, "tags": {"crossing": "traffic_signals", "highway": "crossing"}}, {"type": "node", "id": 2983987778, "lat": -36.0840292, "lon": 146.9098838, "tags": {"highway": "traffic_signals", "traffic_signals:direction": "forward"}}, {"type": "node", "id": 2983987803, "lat": -36.0842552, "lon": 146.9099693, "tags": {"highway": "traffic_signals", "traffic_signals:direction": "forward"}}, {"type": "node", "id": 3374298887, "lat": -36.0845641, "lon": 146.9130119}, {"type": "node", "id": 3940665119, "lat": -36.0848937, "lon": 146.9148859}, {"type": "node", "id": 3940665122, "lat": -36.0845593, "lon": 146.9123268}, {"type": "node", "id": 6328272157, "lat": -36.0843428, "lon": 146.9106093}, {"type": "node", "id": 6632749009, "lat": -36.0848725, "lon": 146.9147235}, {"type": "node", "id": 6632749010, "lat": -36.0847652, "lon": 146.9147477}, {"type": "node", "id": 6632749017, "lat": -36.0845393, "lon": 146.912183, "tags": {"crossing": "traffic_signals", "highway": "crossing"}}, {"type": "node", "id": 6632749018, "lat": -36.0844612, "lon": 146.9121946, "tags": {"crossing": "traffic_signals", "highway": "crossing"}}, {"type": "node", "id": 6632749023, "lat": -36.0845762, "lon": 146.9124875, "tags": {"crossing": "traffic_signals", "highway": "crossing"}}, {"type": "node", "id": 6634736928, "lat": -36.0841838, "lon": 146.9099479, "tags": {"crossing": "traffic_signals", "highway": "crossing"}}, {"type": "node", "id": 6634736929, "lat": -36.0842516, "lon": 146.9099382, "tags": {"crossing": "traffic_signals", "highway": "crossing"}}, {"type": "node", "id": 6634736930, "lat": -36.0840969, "lon": 146.9098715}, {"type": "node", "id": 6634736931, "lat": -36.0840822, "lon": 146.9097401}, {"type": "node", "id": 7514287473, "lat": -36.0844017, "lon": 146.911726}, {"type": "way", "id": 30124228, "nodes": [326888847, 326888848], "tags": {"highway": "primary", "maxspeed": "60", "name": "Hume Street", "network": "AU:NSW", "oneway": "yes", "ref": "B58", "source:name": "NSW LPI Base Map", "source:name:date": "2016-02", "surface": "paved"}}, {"type": "way", "id": 205000721, "nodes": [326888847, 6634736931, 667730216, 667730217, 667730191, 667730193, 331960869], "tags": {"highway": "primary", "lanes": "2", "maxspeed": "60", "name": "Wodonga Place", "network": "AU:NSW", "oneway": "yes", "ref": "B58", "source": "nearmap", "surface": "paved"}}, {"type": "way", "id": 218812864, "nodes": [3940665119, 6632749009, 2865696481, 667732269, 667732287, 2865826486, 6632749023, 3940665122], "tags": {"alt_name": "Riverina Highway", "highway": "primary", "lanes": "2", "maxspeed": "60", "name": "Hume Street", "network": "AU:NSW", "old_name": "Hume Highway", "oneway": "yes", "ref": "B58", "source": "nearmap", "surface": "paved"}}, {"type": "way", "id": 218816789, "nodes": [326888848, 6634736928, 1834036235, 7514287473, 2865826488, 6632749018, 326888849], "tags": {"alt_name": "Riverina Highway", "highway": "primary", "lanes": "2", "maxspeed": "60", "name": "Hume Street", "network": "AU:NSW", "old_name": "Hume Highway", "oneway": "yes", "ref": "B58", "source": "survey;nearmap", "surface": "paved"}}, {"type": "way", "id": 282640453, "nodes": [326888849, 2865826490, 3374298887, 2491785442, 2865696477, 6632749010, 326888850], "tags": {"alt_name": "Riverina Highway", "highway": "primary", "lanes": "2", "maxspeed": "60", "name": "Hume Street", "network": "AU:NSW", "old_name": "Hume Highway", "oneway": "yes", "ref": "B58", "source": "survey;nearmap", "surface": "paved"}}, {"type": "way", "id": 282640687, "nodes": [3940665122, 6632749017, 2865826487, 6328272157], "tags": {"alt_name": "Riverina Highway", "highway": "primary", "lanes": "2", "maxspeed": "60", "name": "Hume Street", "network": "AU:NSW", "old_name": "Hume Highway", "oneway": "yes", "ref": "B58", "source": "nearmap", "surface": "paved"}}, {"type": "way", "id": 398076887, "nodes": [326888844, 326888845], "tags": {"highway": "primary", "maxspeed": "60", "name": "Hume Street", "network": "AU:NSW", "oneway": "yes", "ref": "B58", "source:name": "NSW LPI Base Map", "source:name:date": "2016-02", "surface": "paved"}}, {"type": "way", "id": 398076905, "nodes": [326888848, 326888844], "tags": {"highway": "primary", "maxspeed": "60", "name": "Wodonga Place", "network": "AU:NSW", "oneway": "yes", "ref": "B58", "source:name": "NSW LPI Base Map", "source:name:date": "2016-02", "surface": "paved"}}, {"type": "way", "id": 398076907, "nodes": [326888845, 326888847], "tags": {"highway": "primary", "maxspeed": "60", "name": "Wodonga Place", "network": "AU:NSW", "oneway": "yes", "ref": "B58", "source:name": "NSW LPI Base Map", "source:name:date": "2016-02", "surface": "paved"}}, {"type": "way", "id": 576463985, "nodes": [3940665122, 326888849], "tags": {"highway": "primary", "name": "Townsend Street", "surface": "paved"}}, {"type": "way", "id": 675748390, "nodes": [6328272157, 2983987803, 6634736929, 326888844], "tags": {"alt_name": "Riverina Highway", "highway": "primary", "lanes": "3", "maxspeed": "60", "name": "Hume Street", "network": "AU:NSW", "old_name": "Hume Highway", "oneway": "yes", "placement": "right_of:2", "ref": "B58", "source": "nearmap", "surface": "paved", "turn:lanes": "left|left|through;right"}}, {"type": "way", "id": 675748391, "nodes": [667730219, 2983987778, 6634736930, 326888848], "tags": {"highway": "primary", "lanes": "4", "maxspeed": "60", "name": "Wodonga Place", "network": "AU:NSW", "oneway": "yes", "placement": "right_of:2", "ref": "B58", "source": "nearmap", "surface": "paved", "turn:lanes": "left|none|none|right"}}]}