{"version": 0.6, "generator": "Overpass API 0.7.61.5 4133829e", "osm3s": {"timestamp_osm_base": "2023-12-06T12:51:28Z", "copyright": "The data included in this document is from www.openstreetmap.org. The data is made available under ODbL."}, "elements": [{"type": "node", "id": 12341217, "lat": -27.9494628, "lon": 153.4085125}, {"type": "node", "id": 12342116, "lat": -27.9532652, "lon": 153.4079202, "tags": {"highway": "traffic_signals", "source": "Bing"}}, {"type": "node", "id": 12342121, "lat": -27.9553557, "lon": 153.4087564}, {"type": "node", "id": 12342141, "lat": -27.9541225, "lon": 153.4081296}, {"type": "node", "id": 12344299, "lat": -27.9557792, "lon": 153.4091367}, {"type": "node", "id": 251605318, "lat": -27.9603984, "lon": 153.4119376}, {"type": "node", "id": 251605319, "lat": -27.9603266, "lon": 153.411888}, {"type": "node", "id": 291704758, "lat": -27.9621002, "lon": 153.413162}, {"type": "node", "id": 291704885, "lat": -27.9609762, "lon": 153.410907}, {"type": "node", "id": 304512529, "lat": -27.9551528, "lon": 153.4086561}, {"type": "node", "id": 304708201, "lat": -27.9522744, "lon": 153.4080565}, {"type": "node", "id": 304708594, "lat": -27.9608718, "lon": 153.4109017}, {"type": "node", "id": 570617782, "lat": -27.9545897, "lon": 153.4084548}, {"type": "node", "id": 1368810110, "lat": -27.9609491, "lon": 153.4109568}, {"type": "node", "id": 1869070361, "lat": -27.9532841, "lon": 153.4080329, "tags": {"highway": "traffic_signals", "source": "Bing"}}, {"type": "node", "id": 1869070362, "lat": -27.9538542, "lon": 153.4081431}, {"type": "node", "id": 1869070377, "lat": -27.9541849, "lon": 153.4082612}, {"type": "node", "id": 1869070381, "lat": -27.9553555, "lon": 153.4089246}, {"type": "node", "id": 1869070387, "lat": -27.9569986, "lon": 153.4097375}, {"type": "node", "id": 1869070442, "lat": -27.9613833, "lon": 153.4099851}, {"type": "node", "id": 1869070445, "lat": -27.9614298, "lon": 153.412785}, {"type": "node", "id": 1869070448, "lat": -27.9614563, "lon": 153.4100406}, {"type": "node", "id": 1882364826, "lat": -27.9570741, "lon": 153.4096179}, {"type": "node", "id": 1885116502, "lat": -27.9510923, "lon": 153.4082164}, {"type": "node", "id": 1885116525, "lat": -27.9577637, "lon": 153.4100526}, {"type": "node", "id": 1885116533, "lat": -27.9578478, "lon": 153.4101159}, {"type": "node", "id": 1885116560, "lat": -27.9537957, "lon": 153.4080157}, {"type": "node", "id": 1885116613, "lat": -27.9557571, "lon": 153.4089553}, {"type": "node", "id": 1885116646, "lat": -27.9527974, "lon": 153.407954}, {"type": "node", "id": 1885116655, "lat": -27.9516424, "lon": 153.4081719}, {"type": "node", "id": 2031632519, "lat": -27.9515793, "lon": 153.408263}, {"type": "node", "id": 2031632643, "lat": -27.9511997, "lon": 153.4082933}, {"type": "node", "id": 2031632705, "lat": -27.950062, "lon": 153.4083569}, {"type": "node", "id": 2031632720, "lat": -27.9523194, "lon": 153.4081448}, {"type": "node", "id": 2031632722, "lat": -27.950332, "lon": 153.4083147}, {"type": "node", "id": 2031632767, "lat": -27.9527837, "lon": 153.408064}, {"type": "node", "id": 2031632769, "lat": -27.9502207, "lon": 153.4082408}, {"type": "node", "id": 2031632807, "lat": -27.9494462, "lon": 153.4084021}, {"type": "node", "id": 2031632931, "lat": -27.9499814, "lon": 153.4082706}, {"type": "node", "id": 2272202410, "lat": -27.9563913, "lon": 153.4094433, "tags": {"highway": "speed_camera", "maxspeed": "60"}}, {"type": "node", "id": 2641928942, "lat": -27.9495814, "lon": 153.4083709, "tags": {"highway": "traffic_signals", "traffic_signals:direction": "forward"}}, {"type": "node", "id": 3604105671, "lat": -27.9578004, "lon": 153.410249}, {"type": "node", "id": 3604105673, "lat": -27.9575879, "lon": 153.4100972, "tags": {"highway": "traffic_signals", "traffic_signals:direction": "forward"}}, {"type": "node", "id": 3604105676, "lat": -27.957946, "lon": 153.4101862, "tags": {"highway": "traffic_signals", "traffic_signals:direction": "forward"}}, {"type": "node", "id": 3604123195, "lat": -27.9613787, "lon": 153.4101842, "tags": {"highway": "traffic_signals", "traffic_signals:direction": "forward"}}, {"type": "node", "id": 5093529961, "lat": -27.9566084, "lon": 153.4093798}, {"type": "node", "id": 7389369069, "lat": -27.9602743, "lon": 153.4119893}, {"type": "node", "id": 7389402302, "lat": -27.9583413, "lon": 153.41047}, {"type": "node", "id": 7389419645, "lat": -27.9609001, "lon": 153.4110393}, {"type": "node", "id": 7566538836, "lat": -27.9552087, "lon": 153.4088408}, {"type": "node", "id": 8869041015, "lat": -27.9560168, "lon": 153.4090877}, {"type": "node", "id": 8869041016, "lat": -27.956034, "lon": 153.409268}, {"type": "node", "id": 8869054117, "lat": -27.9550391, "lon": 153.4087361}, {"type": "node", "id": 8869056798, "lat": -27.9517631, "lon": 153.4082354}, {"type": "node", "id": 8869094446, "lat": -27.9495866, "lon": 153.4084836}, {"type": "node", "id": 10200979658, "lat": -27.9611162, "lon": 153.4124616}, {"type": "node", "id": 10200979661, "lat": -27.9611659, "lon": 153.4124972}, {"type": "node", "id": 10200979808, "lat": -27.9610671, "lon": 153.4124268}, {"type": "node", "id": 10201038267, "lat": -27.9591727, "lon": 153.4110689}, {"type": "node", "id": 10201042829, "lat": -27.9599339, "lon": 153.4116091}, {"type": "node", "id": 10201042857, "lat": -27.9594967, "lon": 153.4112964}, {"type": "node", "id": 10201042905, "lat": -27.9593135, "lon": 153.4111708}, {"type": "node", "id": 10201042910, "lat": -27.957345, "lon": 153.409765}, {"type": "node", "id": 10201042911, "lat": -27.9572813, "lon": 153.4098927}, {"type": "node", "id": 10201042912, "lat": -27.9566465, "lon": 153.4095665}, {"type": "node", "id": 10201059212, "lat": -27.9606849, "lon": 153.4112423}, {"type": "node", "id": 10201059224, "lat": -27.9605943, "lon": 153.4114076}, {"type": "node", "id": 10201094491, "lat": -27.961162, "lon": 153.4103809}, {"type": "node", "id": 10201094494, "lat": -27.9610783, "lon": 153.4105311}, {"type": "node", "id": 10201634706, "lat": -27.9577275, "lon": 153.4101975}, {"type": "node", "id": 10201634709, "lat": -27.9578827, "lon": 153.4103088}, {"type": "node", "id": 10201634714, "lat": -27.9576013, "lon": 153.4099387}, {"type": "node", "id": 10205504580, "lat": -27.9535483, "lon": 153.4080692}, {"type": "node", "id": 10205504581, "lat": -27.9537252, "lon": 153.4081056}, {"type": "node", "id": 10205504582, "lat": -27.9540138, "lon": 153.4081974}, {"type": "node", "id": 10205504583, "lat": -27.954395, "lon": 153.4083543}, {"type": "node", "id": 10205504584, "lat": -27.9548172, "lon": 153.4085851}, {"type": "node", "id": 10205504585, "lat": -27.9545103, "lon": 153.4083271}, {"type": "node", "id": 10205504586, "lat": -27.9541902, "lon": 153.4081587}, {"type": "node", "id": 10205504587, "lat": -27.9539534, "lon": 153.4080667}, {"type": "node", "id": 10205504588, "lat": -27.9536071, "lon": 153.407972}, {"type": "node", "id": 10205504597, "lat": -27.9529339, "lon": 153.4079371}, {"type": "node", "id": 10205504598, "lat": -27.953076, "lon": 153.407925}, {"type": "node", "id": 10205504599, "lat": -27.9531302, "lon": 153.4080315}, {"type": "node", "id": 10205504600, "lat": -27.9529484, "lon": 153.4080405}, {"type": "node", "id": 10205504601, "lat": -27.9513799, "lon": 153.4082836}, {"type": "node", "id": 10205504602, "lat": -27.9514305, "lon": 153.408199}, {"type": "node", "id": 10205504603, "lat": -27.9512549, "lon": 153.4082125}, {"type": "node", "id": 10205504604, "lat": -27.9504459, "lon": 153.4083092}, {"type": "node", "id": 10205504605, "lat": -27.9503925, "lon": 153.4082317}, {"type": "node", "id": 10205504606, "lat": -27.9502231, "lon": 153.4083265}, {"type": "node", "id": 10205504607, "lat": -27.9501399, "lon": 153.4083405}, {"type": "node", "id": 10205504608, "lat": -27.9501032, "lon": 153.4082508}, {"type": "node", "id": 10205647225, "lat": -27.9526026, "lon": 153.4080955}, {"type": "node", "id": 10230117944, "lat": -27.9569559, "lon": 153.4095574}, {"type": "node", "id": 10800391209, "lat": -27.9612124, "lon": 153.410483}, {"type": "node", "id": 10800497399, "lat": -27.9603419, "lon": 153.4120358}, {"type": "node", "id": 10800497404, "lat": -27.9603845, "lon": 153.4117799, "tags": {"highway": "traffic_signals", "traffic_signals:direction": "forward"}}, {"type": "node", "id": 10800497405, "lat": -27.9604891, "lon": 153.4120093, "tags": {"highway": "traffic_signals", "traffic_signals:direction": "forward"}}, {"type": "node", "id": 10800497406, "lat": -27.9601666, "lon": 153.4119085, "tags": {"highway": "traffic_signals", "traffic_signals:direction": "forward"}}, {"type": "node", "id": 10800497408, "lat": -27.9604805, "lon": 153.4117848}, {"type": "node", "id": 10801795030, "lat": -27.9579159, "lon": 153.410167, "tags": {"button_operated": "yes", "crossing": "traffic_signals", "highway": "crossing", "tactile_paving": "no", "traffic_signals:sound": "yes", "traffic_signals:vibration": "yes"}}, {"type": "node", "id": 10801795031, "lat": -27.9578716, "lon": 153.4103007, "tags": {"button_operated": "yes", "crossing": "traffic_signals", "highway": "crossing", "tactile_paving": "no", "traffic_signals:sound": "yes", "traffic_signals:vibration": "yes"}}, {"type": "node", "id": 10801795034, "lat": -27.9567771, "lon": 153.4096289}, {"type": "node", "id": 10801795036, "lat": -27.9591232, "lon": 153.4111668}, {"type": "node", "id": 10801795037, "lat": -27.9583799, "lon": 153.4106635}, {"type": "node", "id": 10801795038, "lat": -27.9586686, "lon": 153.4108655}, {"type": "node", "id": 10801795039, "lat": -27.9604459, "lon": 153.4121159}, {"type": "node", "id": 10801795040, "lat": -27.9607409, "lon": 153.4121891}, {"type": "node", "id": 10801795041, "lat": -27.9609051, "lon": 153.4123064}, {"type": "node", "id": 10801795042, "lat": -27.9610347, "lon": 153.412508}, {"type": "node", "id": 10801795083, "lat": -27.9549076, "lon": 153.4085304}, {"type": "node", "id": 10801795084, "lat": -27.9552956, "lon": 153.4087267, "tags": {"highway": "traffic_signals", "traffic_signals:direction": "forward"}}, {"type": "node", "id": 10801795089, "lat": -27.9548869, "lon": 153.4086327, "tags": {"highway": "traffic_signals", "traffic_signals:direction": "forward"}}, {"type": "node", "id": 10801795090, "lat": -27.9546899, "lon": 153.4085109}, {"type": "node", "id": 10801795110, "lat": -27.9549733, "lon": 153.4085641, "tags": {"crossing": "traffic_signals", "highway": "crossing"}}, {"type": "node", "id": 10801795111, "lat": -27.9549223, "lon": 153.4086567, "tags": {"crossing": "traffic_signals", "highway": "crossing"}}, {"type": "node", "id": 11273276588, "lat": -27.9533653, "lon": 153.4079354, "tags": {"crossing": "traffic_signals", "highway": "crossing"}}, {"type": "node", "id": 11273276589, "lat": -27.9533814, "lon": 153.4080463, "tags": {"crossing": "traffic_signals", "highway": "crossing"}}, {"type": "node", "id": 11273276595, "lat": -27.9531603, "lon": 153.4079229, "tags": {"crossing": "traffic_signals", "highway": "crossing"}}, {"type": "node", "id": 11273276596, "lat": -27.9531698, "lon": 153.4080319, "tags": {"crossing": "traffic_signals", "highway": "crossing"}}, {"type": "node", "id": 11273276788, "lat": -27.9495504, "lon": 153.4083781, "tags": {"crossing": "traffic_signals", "highway": "crossing"}}, {"type": "node", "id": 11273276789, "lat": -27.9495683, "lon": 153.4084879, "tags": {"crossing": "traffic_signals", "highway": "crossing"}}, {"type": "way", "id": 2728321, "nodes": [12342121, 10801795084, 304512529], "tags": {"alt_name": "Gold Coast Highway", "highway": "trunk", "lanes": "3", "maxspeed": "60", "name": "Frank Street", "network": "AU:QLD:S", "oneway": "yes", "ref": "2", "source": "bing", "surface": "asphalt"}}, {"type": "way", "id": 2728945, "nodes": [12341217, 11273276789, 8869094446, 2031632705, 10205504607, 10205504606, 2031632722, 10205504604, 2031632643, 10205504601, 2031632519, 8869056798, 2031632720, 10205647225, 2031632767, 10205504600, 10205504599, 11273276596, 1869070361, 11273276589, 10205504580, 10205504581, 1869070362, 10205504582, 1869070377, 10205504583, 570617782, 10801795090, 10205504584, 10801795089, 10801795111, 8869054117], "tags": {"alt_name": "Gold Coast Highway", "highway": "trunk", "lanes": "2", "maxspeed": "60", "name": "Frank Street", "network": "AU:QLD:S", "oneway": "yes", "ref": "2", "source": "bing", "surface": "asphalt"}}, {"type": "way", "id": 176378090, "nodes": [1869070381, 12344299], "tags": {"alt_name": "Gold Coast Highway", "bridge": "yes", "highway": "trunk", "lanes": "2", "layer": "1", "maxspeed": "60", "name": "Frank Street", "network": "AU:QLD:S", "oneway": "yes", "ref": "2", "source": "bing", "surface": "asphalt"}}, {"type": "way", "id": 176378094, "nodes": [8869041016, 2272202410, 10201042912, 10801795034], "tags": {"alt_name": "Gold Coast Highway", "highway": "trunk", "lanes": "2", "maxspeed": "60", "name": "Marine Parade", "network": "AU:QLD:S", "oneway": "yes", "ref": "2", "surface": "asphalt"}}, {"type": "way", "id": 178135582, "nodes": [1885116613, 12342121], "tags": {"alt_name": "Gold Coast Highway", "bridge": "yes", "highway": "trunk", "lanes": "3", "layer": "1", "maxspeed": "60", "name": "Frank Street", "network": "AU:QLD:S", "oneway": "yes", "ref": "2", "source": "bing", "surface": "asphalt"}}, {"type": "way", "id": 424045825, "nodes": [1885116525, 10201634714, 10201042910, 1882364826, 10230117944, 5093529961, 8869041015], "tags": {"alt_name": "Gold Coast Highway", "highway": "trunk", "lanes": "2", "maxspeed": "60", "name": "Marine Parade", "network": "AU:QLD:S", "oneway": "yes", "ref": "2", "surface": "asphalt"}}, {"type": "way", "id": 424045842, "nodes": [251605319, 7389369069], "tags": {"highway": "trunk", "lanes": "2", "maxspeed": "60", "name": "North Street", "network": "AU:QLD:S", "oneway": "yes", "ref": "10", "surface": "asphalt"}}, {"type": "way", "id": 431484437, "nodes": [7566538836, 1869070381], "tags": {"highway": "trunk", "lanes": "2", "maxspeed": "60", "name": "Gold Coast Highway", "network": "AU:QLD:S", "oneway": "yes", "ref": "2", "source": "bing", "surface": "asphalt"}}, {"type": "way", "id": 431484438, "nodes": [304512529, 10801795110, 10801795083, 10205504585, 10205504586, 12342141, 10205504587, 1885116560, 10205504588, 11273276588, 12342116, 11273276595, 10205504598, 10205504597, 1885116646, 304708201, 1885116655, 10205504602, 10205504603, 1885116502, 10205504605, 2031632769, 10205504608, 2031632931, 2641928942, 11273276788, 2031632807], "tags": {"alt_name": "Gold Coast Highway", "highway": "trunk", "lanes": "2", "maxspeed": "60", "name": "Frank Street", "network": "AU:QLD:S", "oneway": "yes", "ref": "2", "source": "bing", "surface": "asphalt"}}, {"type": "way", "id": 740018378, "nodes": [10800497399, 251605318], "tags": {"highway": "trunk", "lanes": "2", "maxspeed": "60", "name": "North Street", "network": "AU:QLD:S", "oneway": "yes", "ref": "10", "surface": "asphalt"}}, {"type": "way", "id": 740827677, "nodes": [7389369069, 10800497399], "tags": {"alt_name": "Gold Coast Highway", "highway": "trunk", "lanes": "3", "maxspeed": "60", "name": "Marine Parade", "network": "AU:QLD:S", "oneway": "yes", "ref": "2", "source": "bing", "surface": "asphalt"}}, {"type": "way", "id": 740827678, "nodes": [10201634706, 3604105671], "tags": {"alt_name": "Gold Coast Highway", "highway": "trunk", "lanes": "4", "maxspeed": "60", "name": "Marine Parade", "network": "AU:QLD:S", "oneway": "yes", "ref": "2", "surface": "asphalt"}}, {"type": "way", "id": 741099945, "nodes": [10800391209, 3604123195, 1869070448], "tags": {"highway": "trunk", "lanes": "4", "maxspeed": "60", "name": "North Street", "network": "AU:QLD:S", "oneway": "yes", "ref": "10", "surface": "asphalt"}}, {"type": "way", "id": 741102547, "nodes": [1368810110, 291704885, 10800391209], "tags": {"highway": "trunk", "lanes": "2", "maxspeed": "60", "name": "North Street", "network": "AU:QLD:S", "oneway": "yes", "ref": "10", "surface": "asphalt"}}, {"type": "way", "id": 741108589, "nodes": [251605318, 251605319], "tags": {"alt_name": "Gold Coast Highway", "highway": "trunk", "lanes": "3", "maxspeed": "60", "name": "Marine Parade", "network": "AU:QLD:S", "oneway": "yes", "ref": "2", "surface": "asphalt"}}, {"type": "way", "id": 742311403, "nodes": [10800497399, 10801795039, 10801795042, 1869070445], "tags": {"alt_name": "Gold Coast Highway", "cycleway:left": "lane", "highway": "trunk", "lanes": "2", "maxspeed": "60", "name": "Marine Parade", "network": "AU:QLD:S", "oneway": "yes", "ref": "2", "surface": "asphalt"}}, {"type": "way", "id": 765191664, "nodes": [7389402302, 3604105676, 10801795030, 1885116533], "tags": {"alt_name": "Gold Coast Highway", "highway": "trunk", "lanes": "3", "maxspeed": "60", "name": "Marine Parade", "network": "AU:QLD:S", "oneway": "yes", "ref": "2", "surface": "asphalt"}}, {"type": "way", "id": 790393399, "nodes": [291704758, 10200979661, 10200979658, 10200979808, 10801795041], "tags": {"alt_name": "Gold Coast Highway", "highway": "trunk", "lanes": "2", "maxspeed": "60", "name": "Marine Parade", "network": "AU:QLD:S", "oneway": "yes", "ref": "2", "surface": "asphalt"}}, {"type": "way", "id": 790393400, "nodes": [251605318, 10800497408, 7389419645], "tags": {"highway": "trunk", "lanes": "2", "maxspeed": "60", "name": "North Street", "network": "AU:QLD:S", "oneway": "yes", "ref": "10", "surface": "asphalt"}}, {"type": "way", "id": 790393402, "nodes": [1869070442, 10201094491, 10201094494, 304708594, 10201059212, 10201059224, 10800497404, 251605319], "tags": {"highway": "trunk", "lanes": "2", "maxspeed": "60", "name": "North Street", "network": "AU:QLD:S", "oneway": "yes", "ref": "10", "surface": "asphalt"}}, {"type": "way", "id": 790393403, "nodes": [7389419645, 1368810110], "tags": {"highway": "trunk", "lanes": "3", "maxspeed": "60", "name": "North Street", "network": "AU:QLD:S", "oneway": "yes", "ref": "10", "surface": "asphalt"}}, {"type": "way", "id": 790393847, "nodes": [3604105671, 10801795031, 10201634709, 10801795037, 10801795038, 10801795036], "tags": {"alt_name": "Gold Coast Highway", "highway": "trunk", "lanes": "2", "maxspeed": "60", "name": "Marine Parade", "network": "AU:QLD:S", "oneway": "yes", "ref": "2", "surface": "asphalt"}}, {"type": "way", "id": 790394117, "nodes": [251605319, 10201042829, 10201042857, 10201042905, 10201038267, 7389402302], "tags": {"alt_name": "Gold Coast Highway", "highway": "trunk", "lanes": "2", "maxspeed": "60", "name": "Marine Parade", "network": "AU:QLD:S", "oneway": "yes", "ref": "2", "surface": "asphalt"}}, {"type": "way", "id": 958538393, "nodes": [8869041015, 1885116613], "tags": {"alt_name": "Gold Coast Highway", "highway": "trunk", "lanes": "3", "maxspeed": "60", "name": "Frank Street", "network": "AU:QLD:S", "oneway": "yes", "ref": "2", "surface": "asphalt"}}, {"type": "way", "id": 958538394, "nodes": [12344299, 8869041016], "tags": {"alt_name": "Gold Coast Highway", "highway": "trunk", "lanes": "2", "maxspeed": "60", "name": "Frank Street", "network": "AU:QLD:S", "oneway": "yes", "ref": "2", "surface": "asphalt"}}, {"type": "way", "id": 1161354800, "nodes": [1885116533, 1885116525], "tags": {"alt_name": "Gold Coast Highway", "highway": "trunk", "lanes": "3", "maxspeed": "60", "name": "Marine Parade", "network": "AU:QLD:S", "oneway": "yes", "ref": "2", "surface": "asphalt"}}, {"type": "way", "id": 1161354807, "nodes": [1869070387, 10201042911, 3604105673, 10201634706], "tags": {"alt_name": "Gold Coast Highway", "highway": "trunk", "lanes": "4", "maxspeed": "60", "name": "Marine Parade", "network": "AU:QLD:S", "oneway": "yes", "ref": "2", "surface": "asphalt"}}, {"type": "way", "id": 1161354808, "nodes": [10801795034, 1869070387], "tags": {"alt_name": "Gold Coast Highway", "highway": "trunk", "lanes": "3", "maxspeed": "60", "name": "Marine Parade", "network": "AU:QLD:S", "oneway": "yes", "ref": "2", "surface": "asphalt"}}, {"type": "way", "id": 1161354809, "nodes": [10801795036, 10800497406, 7389369069], "tags": {"alt_name": "Gold Coast Highway", "highway": "trunk", "lanes": "3", "maxspeed": "60", "name": "Marine Parade", "network": "AU:QLD:S", "oneway": "yes", "ref": "2", "source": "bing", "surface": "asphalt"}}, {"type": "way", "id": 1161354810, "nodes": [10801795040, 10800497405, 251605318], "tags": {"alt_name": "Gold Coast Highway", "highway": "trunk", "lanes": "4", "maxspeed": "60", "name": "Marine Parade", "network": "AU:QLD:S", "oneway": "yes", "ref": "2", "surface": "asphalt"}}, {"type": "way", "id": 1161354811, "nodes": [10801795041, 10801795040], "tags": {"alt_name": "Gold Coast Highway", "highway": "trunk", "lanes": "3", "maxspeed": "60", "name": "Marine Parade", "network": "AU:QLD:S", "oneway": "yes", "ref": "2", "surface": "asphalt"}}, {"type": "way", "id": 1161354831, "nodes": [8869054117, 7566538836], "tags": {"alt_name": "Gold Coast Highway", "highway": "trunk", "lanes": "2", "maxspeed": "60", "name": "Frank Street", "network": "AU:QLD:S", "oneway": "yes", "ref": "2", "source": "bing", "surface": "asphalt"}}]}