{"version": 0.6, "generator": "Overpass API 0.7.61.5 4133829e", "osm3s": {"timestamp_osm_base": "2023-12-06T13:05:45Z", "copyright": "The data included in this document is from www.openstreetmap.org. The data is made available under ODbL."}, "elements": [{"type": "node", "id": 87837427, "lat": -27.5584876, "lon": 153.020073}, {"type": "node", "id": 87838147, "lat": -27.5579466, "lon": 153.0164492}, {"type": "node", "id": 87839062, "lat": -27.5580382, "lon": 153.0178654}, {"type": "node", "id": 92206609, "lat": -27.5505395, "lon": 153.0202804}, {"type": "node", "id": 168705779, "lat": -27.5508549, "lon": 153.0203697}, {"type": "node", "id": 250832027, "lat": -27.5579941, "lon": 153.0168499}, {"type": "node", "id": 250832114, "lat": -27.5578863, "lon": 153.0168716}, {"type": "node", "id": 250832265, "lat": -27.5575776, "lon": 153.0148473}, {"type": "node", "id": 259753605, "lat": -27.557731, "lon": 153.0158527}, {"type": "node", "id": 353700765, "lat": -27.5583833, "lon": 153.0202889}, {"type": "node", "id": 1617220538, "lat": -27.5568038, "lon": 153.0102782}, {"type": "node", "id": 1617222961, "lat": -27.5566862, "lon": 153.0095467}, {"type": "node", "id": 1617222963, "lat": -27.5568479, "lon": 153.0100563}, {"type": "node", "id": 1617223005, "lat": -27.5573658, "lon": 153.0125969}, {"type": "node", "id": 1617223011, "lat": -27.5569738, "lon": 153.010496}, {"type": "node", "id": 1617223017, "lat": -27.5562498, "lon": 153.0083904}, {"type": "node", "id": 1617223026, "lat": -27.5570465, "lon": 153.0106377}, {"type": "node", "id": 1617231673, "lat": -27.5569494, "lon": 153.010873}, {"type": "node", "id": 1617231680, "lat": -27.5570861, "lon": 153.0116545}, {"type": "node", "id": 1617231681, "lat": -27.5572375, "lon": 153.012611}, {"type": "node", "id": 1835497559, "lat": -27.5557517, "lon": 153.0205308}, {"type": "node", "id": 1835497562, "lat": -27.5562352, "lon": 153.0205821}, {"type": "node", "id": 1835497563, "lat": -27.5544923, "lon": 153.0205397}, {"type": "node", "id": 1835497565, "lat": -27.5565574, "lon": 153.0206098}, {"type": "node", "id": 1993226891, "lat": -27.552917, "lon": 153.0205191}, {"type": "node", "id": 3621522494, "lat": -27.5584426, "lon": 153.0206902, "tags": {"highway": "traffic_signals", "traffic_signals:direction": "forward"}}, {"type": "node", "id": 3640126807, "lat": -27.5584189, "lon": 153.0196173}, {"type": "node", "id": 4800748166, "lat": -27.5579563, "lon": 153.0173298}, {"type": "node", "id": 5545918530, "lat": -27.5580466, "lon": 153.0170936}, {"type": "node", "id": 6275691860, "lat": -27.5578299, "lon": 153.0156664}, {"type": "node", "id": 6275691866, "lat": -27.5579078, "lon": 153.0161967}, {"type": "node", "id": 7372963392, "lat": -27.558172, "lon": 153.0187935}, {"type": "node", "id": 7384390229, "lat": -27.5582148, "lon": 153.0182245}, {"type": "node", "id": 7980130279, "lat": -27.5571757, "lon": 153.0122431}, {"type": "node", "id": 7980130280, "lat": -27.5573295, "lon": 153.0123462}, {"type": "node", "id": 7980132385, "lat": -27.5573934, "lon": 153.0128012, "tags": {"highway": "traffic_signals", "traffic_signals:direction": "forward"}}, {"type": "node", "id": 7980132386, "lat": -27.55721, "lon": 153.0124472, "tags": {"highway": "traffic_signals", "traffic_signals:direction": "forward"}}, {"type": "node", "id": 7980132388, "lat": -27.5573499, "lon": 153.0124931, "tags": {"crossing": "traffic_signals", "highway": "crossing"}}, {"type": "node", "id": 7980132389, "lat": -27.5572204, "lon": 153.0125091, "tags": {"crossing": "traffic_signals", "highway": "crossing"}}, {"type": "node", "id": 8181463829, "lat": -27.557476, "lon": 153.0141901}, {"type": "node", "id": 8181463830, "lat": -27.5582881, "lon": 153.0196223}, {"type": "node", "id": 8181463831, "lat": -27.5581188, "lon": 153.0175912}, {"type": "node", "id": 8181463832, "lat": -27.5574827, "lon": 153.013399}, {"type": "node", "id": 9057489216, "lat": -27.5548241, "lon": 153.0205295}, {"type": "node", "id": 9546809173, "lat": -27.5506866, "lon": 153.0203293}, {"type": "node", "id": 9546809174, "lat": -27.5510511, "lon": 153.0204041}, {"type": "node", "id": 9546809189, "lat": -27.5528562, "lon": 153.0205154}, {"type": "node", "id": 9546809238, "lat": -27.5554206, "lon": 153.0205175}, {"type": "node", "id": 9546809239, "lat": -27.5551433, "lon": 153.0205215}, {"type": "node", "id": 9641955228, "lat": -27.557052, "lon": 153.0114452}, {"type": "node", "id": 9681548342, "lat": -27.558591, "lon": 153.0207676, "tags": {"crossing": "traffic_signals", "highway": "crossing"}}, {"type": "node", "id": 9681548351, "lat": -27.558604, "lon": 153.0208634}, {"type": "node", "id": 9702015948, "lat": -27.55321, "lon": 153.0205402}, {"type": "node", "id": 9791820768, "lat": -27.5562535, "lon": 153.008398, "tags": {"highway": "traffic_signals", "traffic_signals:direction": "forward"}}, {"type": "node", "id": 10083125838, "lat": -27.5578627, "lon": 153.0167167, "tags": {"highway": "traffic_signals", "traffic_signals": "signal", "traffic_signals:direction": "forward"}}, {"type": "node", "id": 10083125840, "lat": -27.5580172, "lon": 153.0169868, "tags": {"highway": "traffic_signals", "traffic_signals": "signal", "traffic_signals:direction": "forward"}}, {"type": "node", "id": 10083125843, "lat": -27.5579785, "lon": 153.0167486, "tags": {"crossing": "traffic_signals", "highway": "crossing"}}, {"type": "node", "id": 10083125844, "lat": -27.5578708, "lon": 153.0167698, "tags": {"crossing": "traffic_signals", "highway": "crossing"}}, {"type": "node", "id": 10694584225, "lat": -27.5571939, "lon": 153.011486}, {"type": "node", "id": 10694584229, "lat": -27.5572709, "lon": 153.0128205}, {"type": "node", "id": 10694584232, "lat": -27.55796, "lon": 153.0166258}, {"type": "node", "id": 10694584242, "lat": -27.5580233, "lon": 153.0170144}, {"type": "way", "id": 10360481, "nodes": [87838147, 6275691866, 6275691860, 8181463832], "tags": {"foot": "yes", "highway": "trunk", "lanes": "3", "maxspeed": "60", "name": "Granard Road", "network": "AU:QLD:MR", "oneway": "yes", "ref": "2", "surface": "asphalt"}}, {"type": "way", "id": 10360531, "nodes": [8181463829, 250832265, 259753605], "tags": {"foot": "yes", "highway": "trunk", "lanes": "4", "maxspeed": "60", "name": "Granard Road", "network": "AU:QLD:MR", "oneway": "yes", "ref": "2", "surface": "asphalt", "turn:lanes": "none|none|none|right"}}, {"type": "way", "id": 134727486, "nodes": [1835497565, 1835497562, 1835497559, 9546809238, 9546809239, 9057489216, 1835497563], "tags": {"highway": "trunk", "lanes": "2", "maxspeed": "60", "name": "Beaudesert Road", "network": "AU:QLD:NR", "oneway": "yes", "ref": "13", "surface": "asphalt"}}, {"type": "way", "id": 148647844, "nodes": [1617223005, 7980132388, 7980130280], "tags": {"highway": "trunk", "lanes": "3", "maxspeed": "60", "name": "Granard Road", "network": "AU:QLD:MR", "oneway": "yes", "ref": "2", "shoulder": "no", "surface": "asphalt"}}, {"type": "way", "id": 463027242, "nodes": [1617220538, 1617231673, 9641955228, 1617231680], "tags": {"highway": "trunk", "lanes": "3", "maxspeed": "60", "name": "Granard Road", "network": "AU:QLD:MR", "oneway": "yes", "ref": "2", "surface": "asphalt"}}, {"type": "way", "id": 463027243, "nodes": [1617223026, 1617223011, 1617222963, 1617222961, 9791820768, 1617223017], "tags": {"destination": "City", "destination:ref": "A7", "destination:street": "Ipswich Road", "highway": "trunk", "lanes": "2", "lit": "yes", "maxspeed": "60", "name": "Granard Road", "network": "AU:QLD:MR", "oneway": "yes", "ref": "2", "shoulder": "no", "surface": "asphalt"}}, {"type": "way", "id": 721955731, "nodes": [353700765, 3621522494], "tags": {"destination:lanes": "Upper Mount Gravatt;QEII Jubilee Hospital;Riawena Road|Upper Mount Gravatt;QEII Jubilee Hospital;Riawena Road|Gold Coast;Beaudesert;Beaudesert Road|Gold Coast;Beaudesert;Beaudesert Road", "foot": "yes", "highway": "trunk", "lanes": "4", "maxspeed": "60", "name": "Granard Road", "network": "AU:QLD:MR", "oneway": "yes", "ref": "2", "surface": "asphalt", "turn:lanes": "through|through|right|right"}}, {"type": "way", "id": 739618733, "nodes": [5545918530, 10694584242, 10083125840, 250832027], "tags": {"foot": "yes", "highway": "trunk", "lanes": "3", "maxspeed": "60", "name": "Granard Road", "network": "AU:QLD:MR", "oneway": "yes", "ref": "2", "surface": "asphalt", "turn:lanes": "none|none|right"}}, {"type": "way", "id": 739618734, "nodes": [87837427, 3640126807, 7384390229], "tags": {"destination:lanes": "Archerfield;Beatty Road|Ipswich;City;Ipswich Motorway|Ipswich;City;Ipswich Motorway;Rocklea;Beatty Road", "foot": "yes", "highway": "trunk", "lanes": "3", "maxspeed": "60", "name": "Granard Road", "network": "AU:QLD:MR", "oneway": "yes", "ref": "2", "surface": "asphalt"}}, {"type": "way", "id": 739642478, "nodes": [87839062, 7372963392, 8181463830], "tags": {"foot": "yes", "highway": "trunk", "lanes": "3", "maxspeed": "60", "name": "Granard Road", "network": "AU:QLD:MR", "oneway": "yes", "ref": "2", "surface": "asphalt", "turn:lanes": "through|through|right"}}, {"type": "way", "id": 763245068, "nodes": [9681548351, 9681548342, 87837427], "tags": {"foot": "yes", "highway": "trunk", "lanes": "3", "maxspeed": "60", "name": "Granard Road", "network": "AU:QLD:MR", "oneway": "yes", "ref": "2", "surface": "asphalt"}}, {"type": "way", "id": 787659959, "nodes": [259753605, 10083125838, 10083125844, 250832114], "tags": {"foot": "yes", "highway": "trunk", "lanes": "4", "maxspeed": "60", "name": "Granard Road", "network": "AU:QLD:MR", "oneway": "yes", "ref": "2", "surface": "asphalt", "turn:lanes": "none|none|none|right"}}, {"type": "way", "id": 788615942, "nodes": [250832114, 4800748166, 87839062], "tags": {"foot": "yes", "highway": "trunk", "lanes": "3", "maxspeed": "60", "name": "Granard Road", "network": "AU:QLD:MR", "oneway": "yes", "ref": "2", "surface": "asphalt", "turn:lanes": "through|through|right"}}, {"type": "way", "id": 789800858, "nodes": [8181463831, 5545918530], "tags": {"destination:lanes": "Archerfield;Beatty Road|Ipswich;City;Ipswich Motorway|Ipswich;City;Ipswich Motorway|Rocklea;Beatty Road", "foot": "yes", "highway": "trunk", "lanes": "4", "maxspeed": "60", "name": "Granard Road", "network": "AU:QLD:MR", "oneway": "yes", "ref": "2", "surface": "asphalt", "turn:lanes": "left|none|none|right"}}, {"type": "way", "id": 879491503, "nodes": [1617231680, 7980130279], "tags": {"highway": "trunk", "lanes": "4", "maxspeed": "60", "name": "Granard Road", "network": "AU:QLD:MR", "oneway": "yes", "ref": "2", "shoulder": "no", "surface": "asphalt", "turn:lanes": "none|none|none|right"}}, {"type": "way", "id": 879491504, "nodes": [1617231681, 10694584229, 8181463829], "tags": {"foot": "yes", "highway": "trunk", "lanes": "3", "maxspeed": "60", "name": "Granard Road", "network": "AU:QLD:MR", "oneway": "yes", "ref": "2", "surface": "asphalt"}}, {"type": "way", "id": 879491506, "nodes": [7384390229, 8181463831], "tags": {"destination:lanes": "Archerfield;Beatty Road|Ipswich;City;Ipswich Motorway|Ipswich;City;Ipswich Motorway;Rocklea;Beatty Road", "foot": "yes", "highway": "trunk", "lanes": "3", "maxspeed": "60", "name": "Granard Road", "network": "AU:QLD:MR", "oneway": "yes", "ref": "2", "surface": "asphalt", "turn:lanes": "left|none|none"}}, {"type": "way", "id": 879491507, "nodes": [250832027, 10083125843, 10694584232, 87838147], "tags": {"foot": "yes", "highway": "trunk", "lanes": "2", "maxspeed": "60", "name": "Granard Road", "network": "AU:QLD:MR", "oneway": "yes", "ref": "2", "surface": "asphalt"}}, {"type": "way", "id": 879491508, "nodes": [8181463832, 7980132385, 1617223005], "tags": {"foot": "yes", "highway": "trunk", "lanes": "4", "maxspeed": "60", "name": "Granard Road", "network": "AU:QLD:MR", "oneway": "yes", "ref": "2", "surface": "asphalt", "turn:lanes": "none|none|none|right"}}, {"type": "way", "id": 1053491723, "nodes": [8181463830, 353700765], "tags": {"destination:lanes": "City;Beaudesert Road;Upper Mount Gravatt;QEII Jubilee Hospital;Riawena Road|Upper Mount Gravatt;QEII Jubilee Hospital;Riawena Road|Gold Coast;Beaudesert;Beaudesert Road|Gold Coast;Beaudesert;Beaudesert Road", "foot": "yes", "highway": "trunk", "lanes": "4", "maxspeed": "60", "name": "Granard Road", "network": "AU:QLD:MR", "oneway": "yes", "ref": "2", "surface": "asphalt", "turn:lanes": "through|through|right|right"}}, {"type": "way", "id": 1055865841, "nodes": [9546809189, 9546809174, 168705779, 9546809173, 92206609], "tags": {"highway": "trunk", "lanes": "2", "maxspeed": "60", "name": "Beaudesert Road", "network": "AU:QLD:NR", "oneway": "yes", "ref": "13", "surface": "asphalt"}}, {"type": "way", "id": 1055865842, "nodes": [9702015948, 1993226891], "tags": {"highway": "trunk", "lanes": "3", "maxspeed": "60", "name": "Beaudesert Road", "network": "AU:QLD:NR", "oneway": "yes", "ref": "13", "surface": "asphalt", "turn:lanes": "through|through|right"}}, {"type": "way", "id": 1178718549, "nodes": [7980130280, 10694584225, 1617223026], "tags": {"destination:lanes": "Ipswich;Toowoomba|Ipswich;Toowoomba|City", "highway": "trunk", "lanes": "3", "maxspeed": "60", "name": "Granard Road", "network": "AU:QLD:MR", "oneway": "yes", "ref": "2", "shoulder": "no", "surface": "asphalt"}}, {"type": "way", "id": 1178718551, "nodes": [7980130279, 7980132386, 7980132389, 1617231681], "tags": {"highway": "trunk", "lanes": "4", "maxspeed": "60", "name": "Granard Road", "network": "AU:QLD:MR", "oneway": "yes", "ref": "2", "shoulder": "no", "surface": "asphalt", "turn:lanes": "none|none|none|right"}}, {"type": "way", "id": 1184111327, "nodes": [1993226891, 9546809189], "tags": {"highway": "trunk", "lanes": "3", "maxspeed": "60", "name": "Beaudesert Road", "network": "AU:QLD:NR", "oneway": "yes", "ref": "13", "surface": "asphalt", "turn:lanes": "none|none|right"}}]}