{"version": 0.6, "generator": "Overpass API 0.7.61.5 4133829e", "osm3s": {"timestamp_osm_base": "2023-12-08T07:41:05Z", "copyright": "The data included in this document is from www.openstreetmap.org. The data is made available under ODbL."}, "elements": [{"type": "node", "id": 31091776, "lat": -31.9522929, "lon": 115.9157157}, {"type": "node", "id": 31091777, "lat": -31.9520372, "lon": 115.9162281}, {"type": "node", "id": 31091788, "lat": -31.9457243, "lon": 115.9198934}, {"type": "node", "id": 31396540, "lat": -31.9550127, "lon": 115.9087749}, {"type": "node", "id": 59241716, "lat": -31.9517515, "lon": 115.9169986}, {"type": "node", "id": 255279709, "lat": -31.9527947, "lon": 115.9144387}, {"type": "node", "id": 268627578, "lat": -31.9548664, "lon": 115.9091341}, {"type": "node", "id": 268627636, "lat": -31.953473, "lon": 115.9125256}, {"type": "node", "id": 268790186, "lat": -31.9453995, "lon": 115.9247426}, {"type": "node", "id": 310554618, "lat": -31.9482281, "lon": 115.9189379}, {"type": "node", "id": 553018357, "lat": -31.9464122, "lon": 115.9193298}, {"type": "node", "id": 760076700, "lat": -31.943649, "lon": 115.9227743}, {"type": "node", "id": 760076706, "lat": -31.9440762, "lon": 115.923262}, {"type": "node", "id": 1575463753, "lat": -31.9452544, "lon": 115.9203944}, {"type": "node", "id": 1575463809, "lat": -31.9455357, "lon": 115.9200742}, {"type": "node", "id": 1575463845, "lat": -31.9451521, "lon": 115.9205112}, {"type": "node", "id": 1835249336, "lat": -31.9522657, "lon": 115.9161577}, {"type": "node", "id": 1835249337, "lat": -31.9540092, "lon": 115.9114353}, {"type": "node", "id": 1835249340, "lat": -31.9525089, "lon": 115.915677}, {"type": "node", "id": 1835250033, "lat": -31.9441735, "lon": 115.9232459}, {"type": "node", "id": 1836758946, "lat": -31.944039, "lon": 115.9221325}, {"type": "node", "id": 1836758948, "lat": -31.9439279, "lon": 115.9219916}, {"type": "node", "id": 1836758950, "lat": -31.944142, "lon": 115.9219787}, {"type": "node", "id": 1836758952, "lat": -31.9441069, "lon": 115.921743}, {"type": "node", "id": 1836758954, "lat": -31.9442983, "lon": 115.9218061}, {"type": "node", "id": 1836758956, "lat": -31.9443082, "lon": 115.921483}, {"type": "node", "id": 1836758958, "lat": -31.9450668, "lon": 115.920899}, {"type": "node", "id": 1836758960, "lat": -31.9458562, "lon": 115.9199612}, {"type": "node", "id": 1836758962, "lat": -31.9459129, "lon": 115.9197125}, {"type": "node", "id": 1836758963, "lat": -31.9460561, "lon": 115.9197818}, {"type": "node", "id": 1836758964, "lat": -31.946044, "lon": 115.9195807}, {"type": "node", "id": 1836758965, "lat": -31.9462921, "lon": 115.9196022}, {"type": "node", "id": 1836758966, "lat": -31.9461399, "lon": 115.9195091}, {"type": "node", "id": 1836758967, "lat": -31.9462421, "lon": 115.9194338}, {"type": "node", "id": 1836758968, "lat": -31.9463444, "lon": 115.9193697}, {"type": "node", "id": 1836758973, "lat": -31.9465553, "lon": 115.919432}, {"type": "node", "id": 1836758975, "lat": -31.9465234, "lon": 115.9192643}, {"type": "node", "id": 1836758977, "lat": -31.946757, "lon": 115.9193236}, {"type": "node", "id": 1836758979, "lat": -31.946696, "lon": 115.9191663}, {"type": "node", "id": 1836758980, "lat": -31.9469236, "lon": 115.9192481}, {"type": "node", "id": 1836758982, "lat": -31.9470525, "lon": 115.9189991}, {"type": "node", "id": 1836758984, "lat": -31.9471369, "lon": 115.9191672}, {"type": "node", "id": 1836758986, "lat": -31.9472421, "lon": 115.9191299}, {"type": "node", "id": 1836758988, "lat": -31.9474003, "lon": 115.9189027}, {"type": "node", "id": 1836758990, "lat": -31.9473513, "lon": 115.919097}, {"type": "node", "id": 1836758992, "lat": -31.9475476, "lon": 115.9190485}, {"type": "node", "id": 1836758993, "lat": -31.9476203, "lon": 115.918862}, {"type": "node", "id": 1836758999, "lat": -31.9484737, "lon": 115.9188938}, {"type": "node", "id": 1836759002, "lat": -31.9486625, "lon": 115.918851}, {"type": "node", "id": 1836759004, "lat": -31.9488896, "lon": 115.9187897}, {"type": "node", "id": 1836759006, "lat": -31.9493158, "lon": 115.9186467}, {"type": "node", "id": 1836759019, "lat": -31.9502726, "lon": 115.9180063}, {"type": "node", "id": 1836759021, "lat": -31.950544, "lon": 115.918019}, {"type": "node", "id": 1836759022, "lat": -31.9506178, "lon": 115.9177614}, {"type": "node", "id": 1836759024, "lat": -31.9507113, "lon": 115.9179306}, {"type": "node", "id": 1836759026, "lat": -31.950871, "lon": 115.917833}, {"type": "node", "id": 1836759028, "lat": -31.9508863, "lon": 115.9175542}, {"type": "node", "id": 1836759030, "lat": -31.9511809, "lon": 115.9175875}, {"type": "node", "id": 1836759032, "lat": -31.9510653, "lon": 115.9173998}, {"type": "node", "id": 1836759034, "lat": -31.9514934, "lon": 115.9172799}, {"type": "node", "id": 1836759036, "lat": -31.9514041, "lon": 115.9170495}, {"type": "node", "id": 1836759040, "lat": -31.9520479, "lon": 115.9165328}, {"type": "node", "id": 1836804067, "lat": -31.9446451, "lon": 115.9238522}, {"type": "node", "id": 1836804070, "lat": -31.9480014, "lon": 115.9189736}, {"type": "node", "id": 1836804077, "lat": -31.9483716, "lon": 115.9187422}, {"type": "node", "id": 1836804083, "lat": -31.9481392, "lon": 115.9189535}, {"type": "node", "id": 1884447263, "lat": -31.9516197, "lon": 115.9168323}, {"type": "node", "id": 1884447339, "lat": -31.9526839, "lon": 115.9147229}, {"type": "node", "id": 3528560016, "lat": -31.9544197, "lon": 115.9102851}, {"type": "node", "id": 3528560017, "lat": -31.9535558, "lon": 115.9127435}, {"type": "node", "id": 3528560019, "lat": -31.9497427, "lon": 115.9182831}, {"type": "node", "id": 3528560020, "lat": -31.9492647, "lon": 115.9184881}, {"type": "node", "id": 3528560021, "lat": -31.949909, "lon": 115.9183903}, {"type": "node", "id": 3528560022, "lat": -31.9489083, "lon": 115.9186142}, {"type": "node", "id": 3528560034, "lat": -31.9478776, "lon": 115.9188208, "tags": {"crossing": "traffic_signals", "highway": "crossing"}}, {"type": "node", "id": 3528560037, "lat": -31.9478397, "lon": 115.9189992, "tags": {"crossing": "traffic_signals", "highway": "crossing"}}, {"type": "node", "id": 3528560041, "lat": -31.953384, "lon": 115.912763, "tags": {"crossing": "traffic_signals", "highway": "crossing"}}, {"type": "node", "id": 3528560044, "lat": -31.9534894, "lon": 115.9129276, "tags": {"crossing": "traffic_signals", "highway": "crossing"}}, {"type": "node", "id": 5726194279, "lat": -31.9444136, "lon": 115.9213617}, {"type": "node", "id": 5726194280, "lat": -31.9448878, "lon": 115.9208156}, {"type": "node", "id": 5732222874, "lat": -31.9474524, "lon": 115.919072}, {"type": "node", "id": 5732222875, "lat": -31.9500089, "lon": 115.9181495}, {"type": "node", "id": 5732222876, "lat": -31.9509757, "lon": 115.91775}, {"type": "node", "id": 5732222877, "lat": -31.9525162, "lon": 115.9151476}, {"type": "node", "id": 5732222878, "lat": -31.9524521, "lon": 115.9153108}, {"type": "node", "id": 5732222879, "lat": -31.9528632, "lon": 115.9142441}, {"type": "node", "id": 5732222880, "lat": -31.9526145, "lon": 115.9148974}, {"type": "node", "id": 5732241884, "lat": -31.9518852, "lon": 115.9168279}, {"type": "node", "id": 6200527690, "lat": -31.9517017, "lon": 115.9170529}, {"type": "node", "id": 6200527692, "lat": -31.9515741, "lon": 115.9168776}, {"type": "node", "id": 6200527695, "lat": -31.9525728, "lon": 115.9150036}, {"type": "node", "id": 6215604654, "lat": -31.9455281, "lon": 115.9248938}, {"type": "node", "id": 6215604658, "lat": -31.9453081, "lon": 115.9246347}, {"type": "node", "id": 6215604660, "lat": -31.945194, "lon": 115.9207584}, {"type": "node", "id": 6215604662, "lat": -31.9444129, "lon": 115.9216727}, {"type": "node", "id": 6257758770, "lat": -31.953943, "lon": 115.9116432}, {"type": "node", "id": 6257767764, "lat": -31.9536016, "lon": 115.9126172}, {"type": "node", "id": 6257771209, "lat": -31.9529239, "lon": 115.9145775}, {"type": "node", "id": 6257771210, "lat": -31.9530007, "lon": 115.9143695}, {"type": "node", "id": 6286210503, "lat": -31.9547889, "lon": 115.9093338}, {"type": "node", "id": 6286210507, "lat": -31.9543427, "lon": 115.9105009}, {"type": "node", "id": 6307093460, "lat": -31.9468217, "lon": 115.9191009}, {"type": "node", "id": 6432108806, "lat": -31.9477742, "lon": 115.9190102, "tags": {"highway": "traffic_signals", "traffic_signals": "signal", "traffic_signals:direction": "forward"}}, {"type": "node", "id": 6432108810, "lat": -31.9534541, "lon": 115.9130317, "tags": {"highway": "traffic_signals", "traffic_signals": "signal", "traffic_signals:direction": "forward"}}, {"type": "node", "id": 6432108815, "lat": -31.9517596, "lon": 115.9166553, "tags": {"highway": "traffic_signals", "traffic_signals": "signal", "traffic_signals:direction": "forward"}}, {"type": "node", "id": 6432108820, "lat": -31.9487314, "lon": 115.9186611}, {"type": "node", "id": 6432108824, "lat": -31.9533887, "lon": 115.9127505, "tags": {"highway": "traffic_signals", "traffic_signals": "signal", "traffic_signals:direction": "forward"}}, {"type": "node", "id": 6432108830, "lat": -31.9515886, "lon": 115.9171761, "tags": {"highway": "traffic_signals", "traffic_signals": "signal", "traffic_signals:direction": "forward"}}, {"type": "node", "id": 7699370017, "lat": -31.9492045, "lon": 115.9186841}, {"type": "node", "id": 8869618229, "lat": -31.9460027, "lon": 115.9198297}, {"type": "node", "id": 8930741626, "lat": -31.9548874, "lon": 115.9090826}, {"type": "node", "id": 9954443198, "lat": -31.9517337, "lon": 115.9166881, "tags": {"crossing": "traffic_signals", "highway": "crossing"}}, {"type": "node", "id": 9954443199, "lat": -31.9518256, "lon": 115.916904, "tags": {"highway": "crossing"}}, {"type": "node", "id": 11054207467, "lat": -31.9437316, "lon": 115.9228686, "tags": {"highway": "crossing"}}, {"type": "node", "id": 11159981065, "lat": -31.9521217, "lon": 115.9164057}, {"type": "node", "id": 11159981097, "lat": -31.9524485, "lon": 115.9157964}, {"type": "node", "id": 11159995964, "lat": -31.9508408, "lon": 115.9175893}, {"type": "way", "id": 60712394, "nodes": [760076700, 11054207467, 760076706, 1836804067], "tags": {"highway": "primary", "lanes": "2", "maxspeed": "60", "name": "Belgravia Street", "network": "AU:WA:S", "oneway": "yes", "ref": "55", "source:maxspeed": "https://portal-mainroads.opendata.arcgis.com/datasets", "surface": "asphalt"}}, {"type": "way", "id": 61729744, "nodes": [1575463809, 1575463753, 1575463845, 5726194280], "tags": {"highway": "trunk", "lanes": "3", "maxspeed": "60", "name": "Great Eastern Highway", "network": "AU:WA:NH;AU:WA:NR", "oneway": "yes", "ref": "94;1", "surface": "paved"}}, {"type": "way", "id": 172639537, "nodes": [1836759006, 3528560021, 1836759021], "tags": {"highway": "trunk", "lanes": "3", "maxspeed": "60", "maxspeed:type": "sign", "name": "Great Eastern Highway", "network": "AU:WA:NH;AU:WA:NR", "oneway": "yes", "ref": "94;1", "surface": "paved"}}, {"type": "way", "id": 172824679, "nodes": [3528560020, 3528560022, 6432108820, 1836804077], "tags": {"highway": "trunk", "lanes": "4", "maxspeed": "60", "name": "Great Eastern Highway", "network": "AU:WA:NH;AU:WA:NR", "oneway": "yes", "ref": "94;1", "surface": "paved", "turn:lanes": "none|none|none|right"}}, {"type": "way", "id": 603086472, "nodes": [5726194279, 1836758956, 1836758952, 1836758948], "tags": {"highway": "trunk", "lanes": "5", "lanes:bus": "1", "maxspeed": "60", "name": "Great Eastern Highway", "network": "AU:WA:NH;AU:WA:NR", "oneway": "yes", "ref": "94;1", "source:geometry": "Esri World Imagery", "source:oneway": "Esri World Imagery", "surface": "paved", "turn:lanes": "left;through|none|none|none|right;reverse"}}, {"type": "way", "id": 603086473, "nodes": [5726194280, 5726194279], "tags": {"highway": "trunk", "lanes": "4", "maxspeed": "60", "name": "Great Eastern Highway", "network": "AU:WA:NH;AU:WA:NR", "oneway": "yes", "ref": "94;1", "surface": "paved", "turn:lanes": "none|none|none|right;reverse"}}, {"type": "way", "id": 604011738, "nodes": [1836758946, 1836758950, 1836758954, 6215604662, 1836758958, 6215604660, 1836758960, 8869618229, 1836758963, 1836758965, 1836758973, 1836758977, 1836758980], "tags": {"highway": "trunk", "lanes": "3", "maxspeed": "60", "name": "Great Eastern Highway", "network": "AU:WA:NH;AU:WA:NR", "oneway": "yes", "ref": "94;1", "source:geometry": "Esri World Imagery", "source:oneway": "Esri World Imagery", "surface": "paved"}}, {"type": "way", "id": 604011740, "nodes": [1836758980, 1836758984], "tags": {"highway": "trunk", "lanes": "4", "maxspeed": "60", "name": "Great Eastern Highway", "network": "AU:WA:NH;AU:WA:NR", "oneway": "yes", "placement": "middle_of:2", "ref": "94;1", "surface": "paved", "turn:lanes": "none|none|none|reverse"}}, {"type": "way", "id": 604011741, "nodes": [5732222874, 1836758992], "tags": {"highway": "trunk", "lanes": "4", "maxspeed": "60", "name": "Great Eastern Highway", "network": "AU:WA:NH;AU:WA:NR", "oneway": "yes", "placement": "middle_of:3", "ref": "94;1", "surface": "paved", "turn:lanes": "left|none|none|none"}}, {"type": "way", "id": 604011742, "nodes": [1836758984, 1836758986, 1836758990, 5732222874], "tags": {"highway": "trunk", "lanes": "5", "maxspeed": "60", "name": "Great Eastern Highway", "network": "AU:WA:NH;AU:WA:NR", "oneway": "yes", "ref": "94;1", "surface": "paved", "turn:lanes": "left|none|none|none|reverse"}}, {"type": "way", "id": 604011743, "nodes": [1836758992, 6432108806, 3528560037, 1836804070, 1836804083, 310554618, 1836758999, 1836759002, 1836759004, 7699370017, 1836759006], "tags": {"highway": "trunk", "lanes": "3", "maxspeed": "60", "name": "Great Eastern Highway", "network": "AU:WA:NH;AU:WA:NR", "oneway": "yes", "ref": "94;1", "surface": "paved"}}, {"type": "way", "id": 604011744, "nodes": [1836804077, 3528560034, 1836758993, 1836758988, 1836758982, 6307093460, 1836758979, 1836758975, 553018357, 1836758968, 1836758967, 1836758966, 1836758964, 1836758962, 31091788], "tags": {"highway": "trunk", "lanes": "3", "maxspeed": "60", "name": "Great Eastern Highway", "network": "AU:WA:NH;AU:WA:NR", "oneway": "yes", "ref": "94;1", "surface": "paved"}}, {"type": "way", "id": 604011745, "nodes": [5732222875, 3528560019, 3528560020], "tags": {"highway": "trunk", "lanes": "4", "maxspeed": "60", "name": "Great Eastern Highway", "network": "AU:WA:NH;AU:WA:NR", "oneway": "yes", "ref": "94;1", "surface": "paved", "turn:lanes": "none|none|none|right"}}, {"type": "way", "id": 604011746, "nodes": [1836759021, 1836759024, 1836759026, 5732222876], "tags": {"highway": "trunk", "lanes": "4", "lanes:bus": "1", "maxspeed": "60", "maxspeed:type": "sign", "name": "Great Eastern Highway", "network": "AU:WA:NH;AU:WA:NR", "oneway": "yes", "ref": "94;1", "surface": "paved", "turn:lanes": "left;through|none|none|none"}}, {"type": "way", "id": 604011747, "nodes": [5732222876, 1836759030, 1836759034, 6432108830, 6200527690, 59241716], "tags": {"highway": "trunk", "lanes": "5", "lanes:bus": "1", "maxspeed": "60", "maxspeed:type": "sign", "name": "Great Eastern Highway", "network": "AU:WA:NH;AU:WA:NR", "oneway": "yes", "ref": "94;1", "surface": "paved", "turn:lanes": "left;through|none|none|none|right;reverse"}}, {"type": "way", "id": 604011749, "nodes": [5732241884, 1836759040], "tags": {"highway": "trunk", "lanes": "4", "lanes:bus": "1", "maxspeed": "60", "maxspeed:type": "sign", "name": "Great Eastern Highway", "network": "AU:WA:NH;AU:WA:NR", "oneway": "yes", "ref": "94;1", "surface": "paved"}}, {"type": "way", "id": 604011750, "nodes": [1835249336, 11159981097, 1835249340, 6257771209, 6257771210, 6432108810, 3528560044, 3528560017, 6257767764, 6257758770, 1835249337, 6286210507, 3528560016, 6286210503, 268627578, 8930741626, 31396540], "tags": {"highway": "trunk", "lanes": "3", "maxspeed": "60", "maxspeed:type": "sign", "name": "Great Eastern Highway", "network": "AU:WA:NH;AU:WA:NR", "oneway": "yes", "ref": "94;1", "source:lanes": "Esri World Imagery", "surface": "paved"}}, {"type": "way", "id": 604011751, "nodes": [6200527692, 1836759036, 1836759032, 1836759028, 11159995964, 1836759022, 1836759019, 5732222875], "tags": {"highway": "trunk", "lanes": "3", "maxspeed": "60", "name": "Great Eastern Highway", "network": "AU:WA:NH;AU:WA:NR", "oneway": "yes", "ref": "94;1", "surface": "paved"}}, {"type": "way", "id": 604011752, "nodes": [5732222877, 5732222878], "tags": {"highway": "trunk", "lanes": "5", "maxspeed": "60", "name": "Great Eastern Highway", "network": "AU:WA:NH;AU:WA:NR", "oneway": "yes", "ref": "94;1", "surface": "paved", "turn:lanes": "none|none|none|right|right"}}, {"type": "way", "id": 604011753, "nodes": [5732222878, 31091776, 31091777, 6432108815, 9954443198, 1884447263], "tags": {"bus:lanes": "designated|||||", "highway": "trunk", "lanes": "6", "lanes:bus": "1", "maxspeed": "60", "name": "Great Eastern Highway", "network": "AU:WA:NH;AU:WA:NR", "oneway": "yes", "ref": "94;1", "surface": "paved", "turn:lanes": "left;through|none|none|none|right|right"}}, {"type": "way", "id": 604011754, "nodes": [5732222879, 255279709, 1884447339], "tags": {"highway": "trunk", "lanes": "4", "maxspeed": "60", "name": "Great Eastern Highway", "network": "AU:WA:NH;AU:WA:NR", "oneway": "yes", "ref": "94;1", "surface": "paved", "turn:lanes": "left|none|none|none"}}, {"type": "way", "id": 604011755, "nodes": [5732222880, 6200527695, 5732222877], "tags": {"highway": "trunk", "lanes": "3", "maxspeed": "60", "name": "Great Eastern Highway", "network": "AU:WA:NH;AU:WA:NR", "oneway": "yes", "ref": "94;1", "surface": "paved"}}, {"type": "way", "id": 604011757, "nodes": [268627636, 6432108824, 3528560041, 5732222879], "tags": {"highway": "trunk", "lanes": "3", "maxspeed": "60", "name": "Great Eastern Highway", "network": "AU:WA:NH;AU:WA:NR", "oneway": "yes", "ref": "94;1", "surface": "paved"}}, {"type": "way", "id": 671266949, "nodes": [1884447339, 5732222880], "tags": {"highway": "trunk", "lanes": "3", "maxspeed": "60", "name": "Great Eastern Highway", "network": "AU:WA:NH;AU:WA:NR", "oneway": "yes", "ref": "94;1", "surface": "paved"}}, {"type": "way", "id": 671267863, "nodes": [1836759040, 11159981065, 1835249336], "tags": {"bus:lanes": "designated|||", "highway": "trunk", "lanes": "4", "lanes:bus": "1", "maxspeed": "60", "maxspeed:type": "sign", "name": "Great Eastern Highway", "network": "AU:WA:NH;AU:WA:NR", "oneway": "yes", "ref": "94;1", "surface": "paved"}}, {"type": "way", "id": 671982215, "nodes": [1836804067, 6215604658, 268790186, 6215604654], "tags": {"highway": "primary", "lanes": "4", "maxspeed": "60", "name": "Belgravia Street", "network": "AU:WA:S", "ref": "55", "source:maxspeed": "https://portal-mainroads.opendata.arcgis.com/datasets", "surface": "asphalt"}}, {"type": "way", "id": 787875790, "nodes": [31091788, 1575463809], "tags": {"highway": "trunk", "lanes": "3", "maxspeed": "60", "name": "Great Eastern Highway", "network": "AU:WA:NH;AU:WA:NR", "oneway": "yes", "ref": "94;1", "surface": "paved"}}, {"type": "way", "id": 787876876, "nodes": [1836804067, 1835250033], "tags": {"highway": "primary", "maxspeed": "60", "name": "Belgravia Street", "network": "AU:WA:S", "oneway": "yes", "ref": "55", "surface": "paved"}}, {"type": "way", "id": 1154205211, "nodes": [1884447263, 6200527692], "tags": {"highway": "trunk", "lanes": "3", "maxspeed": "60", "name": "Great Eastern Highway", "network": "AU:WA:NH;AU:WA:NR", "oneway": "yes", "ref": "94;1", "surface": "paved"}}, {"type": "way", "id": 1154205219, "nodes": [59241716, 9954443199, 5732241884], "tags": {"highway": "trunk", "lanes": "4", "lanes:bus": "1", "maxspeed": "60", "maxspeed:type": "sign", "name": "Great Eastern Highway", "network": "AU:WA:NH;AU:WA:NR", "oneway": "yes", "ref": "94;1", "surface": "paved"}}]}