{"version": 0.6, "generator": "Overpass API 0.7.61.5 4133829e", "osm3s": {"timestamp_osm_base": "2023-12-06T13:44:12Z", "copyright": "The data included in this document is from www.openstreetmap.org. The data is made available under ODbL."}, "elements": [{"type": "node", "id": 241460683, "lat": -27.8276829, "lon": 153.0290017}, {"type": "node", "id": 241460686, "lat": -27.829736, "lon": 153.0287786}, {"type": "node", "id": 241460689, "lat": -27.8310946, "lon": 153.0285326}, {"type": "node", "id": 596034762, "lat": -27.8320751, "lon": 153.0282726}, {"type": "node", "id": 1238378974, "lat": -27.8370133, "lon": 153.0262604}, {"type": "node", "id": 1845078477, "lat": -27.8362396, "lon": 153.0265886}, {"type": "node", "id": 1845093341, "lat": -27.8304418, "lon": 153.0286713}, {"type": "node", "id": 1845093342, "lat": -27.8318324, "lon": 153.028347}, {"type": "node", "id": 1845093343, "lat": -27.8297447, "lon": 153.0288651}, {"type": "node", "id": 1845093344, "lat": -27.8323728, "lon": 153.0281671}, {"type": "node", "id": 1845093346, "lat": -27.8303132, "lon": 153.028782}, {"type": "node", "id": 1845093347, "lat": -27.8332167, "lon": 153.0278053}, {"type": "node", "id": 1845093348, "lat": -27.8311035, "lon": 153.028593}, {"type": "node", "id": 1845093349, "lat": -27.8281327, "lon": 153.0290068}, {"type": "node", "id": 1845093351, "lat": -27.8329494, "lon": 153.0279482}, {"type": "node", "id": 1845093352, "lat": -27.8278927, "lon": 153.0289551}, {"type": "node", "id": 1845093354, "lat": -27.8352288, "lon": 153.0270675}, {"type": "node", "id": 1845093356, "lat": -27.8231493, "lon": 153.0293946}, {"type": "node", "id": 1845093358, "lat": -27.830708, "lon": 153.0287026}, {"type": "node", "id": 1845093361, "lat": -27.8313476, "lon": 153.028496}, {"type": "node", "id": 1845093363, "lat": -27.8333402, "lon": 153.0278373}, {"type": "node", "id": 1883465957, "lat": -27.8345487, "lon": 153.0272418}, {"type": "node", "id": 1883465958, "lat": -27.8345788, "lon": 153.0273349}, {"type": "node", "id": 1883465964, "lat": -27.8346374, "lon": 153.0271997}, {"type": "node", "id": 1883465967, "lat": -27.8346615, "lon": 153.0273016}, {"type": "node", "id": 3931757164, "lat": -27.8375888, "lon": 153.0259591}, {"type": "node", "id": 4324660629, "lat": -27.8299684, "lon": 153.0287464, "tags": {"crossing": "unmarked", "highway": "crossing", "supervised": "yes"}}, {"type": "node", "id": 4324660640, "lat": -27.8299759, "lon": 153.0288361, "tags": {"crossing": "unmarked", "highway": "crossing", "supervised": "yes"}}, {"type": "node", "id": 5515256172, "lat": -27.8352712, "lon": 153.0269496}, {"type": "node", "id": 5570913275, "lat": -27.8281216, "lon": 153.0289287}, {"type": "node", "id": 10684671425, "lat": -27.8283662, "lon": 153.0289913}, {"type": "node", "id": 10684671426, "lat": -27.8284239, "lon": 153.028902}, {"type": "node", "id": 10684671427, "lat": -27.8295351, "lon": 153.0287997}, {"type": "node", "id": 10684671428, "lat": -27.8307017, "lon": 153.0286227}, {"type": "node", "id": 10684671437, "lat": -27.8295677, "lon": 153.0288904}, {"type": "node", "id": 10684671457, "lat": -27.8305236, "lon": 153.0287447}, {"type": "node", "id": 10684671458, "lat": -27.8309448, "lon": 153.0286373}, {"type": "node", "id": 10684671460, "lat": -27.8316737, "lon": 153.0283958}, {"type": "node", "id": 10684671478, "lat": -27.8348147, "lon": 153.0271307, "tags": {"highway": "traffic_signals", "traffic_signals:direction": "forward"}}, {"type": "node", "id": 10684671479, "lat": -27.8344414, "lon": 153.0272937}, {"type": "node", "id": 10684671480, "lat": -27.8344737, "lon": 153.0273732, "tags": {"highway": "traffic_signals", "traffic_signals:direction": "forward"}}, {"type": "node", "id": 10684671498, "lat": -27.833887, "lon": 153.0276099}, {"type": "node", "id": 10684671499, "lat": -27.8336229, "lon": 153.0277274}, {"type": "node", "id": 10684671500, "lat": -27.8339846, "lon": 153.0274806}, {"type": "node", "id": 10684671501, "lat": -27.8348327, "lon": 153.0272299}, {"type": "node", "id": 10684702522, "lat": -27.8347231, "lon": 153.0271663, "tags": {"crossing": "traffic_signals", "highway": "crossing"}}, {"type": "node", "id": 10684702523, "lat": -27.8347478, "lon": 153.0272655, "tags": {"crossing": "traffic_signals", "highway": "crossing"}}, {"type": "node", "id": 10684702525, "lat": -27.8279189, "lon": 153.0290104}, {"type": "node", "id": 10684702526, "lat": -27.8272397, "lon": 153.0290336}, {"type": "node", "id": 10684702546, "lat": -27.8366917, "lon": 153.0264136}, {"type": "node", "id": 10684702547, "lat": -27.8373005, "lon": 153.026113}, {"type": "node", "id": 10684702548, "lat": -27.8357416, "lon": 153.0267521}, {"type": "node", "id": 10684702549, "lat": -27.8359975, "lon": 153.026653}, {"type": "node", "id": 10684702550, "lat": -27.8360177, "lon": 153.0267051}, {"type": "node", "id": 10684702551, "lat": -27.8331105, "lon": 153.0279149}, {"type": "node", "id": 10684702552, "lat": -27.8330892, "lon": 153.0278573}, {"type": "node", "id": 10684702554, "lat": -27.8291944, "lon": 153.0289281}, {"type": "node", "id": 10684702555, "lat": -27.8287204, "lon": 153.0289642}, {"type": "node", "id": 10684702556, "lat": -27.8289315, "lon": 153.0288575}, {"type": "way", "id": 46520314, "nodes": [1883465958, 1883465967], "tags": {"highway": "trunk", "lanes": "3", "maxspeed": "70", "name": "Mount Lindesay Highway", "network": "AU:QLD:NR", "oneway": "yes", "ref": "13", "surface": "asphalt"}}, {"type": "way", "id": 144078015, "nodes": [1845093346, 10684671457, 1845093358, 10684671458, 1845093348, 1845093361], "tags": {"highway": "trunk", "lanes": "1", "maxspeed": "70", "maxspeed:conditional": "40 @ (Mo-Fr 07:00-09:00, 14:00-16:00; PH off; SH off)", "name": "Mount Lindesay Highway", "network": "AU:QLD:NR", "oneway": "yes", "ref": "13", "surface": "asphalt"}}, {"type": "way", "id": 173746166, "nodes": [1845093361, 10684671460], "tags": {"highway": "trunk", "lanes": "2", "maxspeed": "70", "maxweight:signed": "no", "name": "Mount Lindesay Highway", "network": "AU:QLD:NR", "oneway": "no", "ref": "13", "source": "Bing", "surface": "asphalt"}}, {"type": "way", "id": 173746169, "nodes": [5515256172, 10684671478, 10684702522, 1883465964], "tags": {"highway": "trunk", "lanes": "3", "maxspeed": "70", "motor_vehicle": "designated", "name": "Mount Lindesay Highway", "network": "AU:QLD:NR", "oneway": "yes", "ref": "13", "surface": "asphalt"}}, {"type": "way", "id": 173746170, "nodes": [1845078477, 10684702546, 1238378974, 10684702547, 3931757164], "tags": {"highway": "trunk", "lanes": "2", "maxspeed": "70", "motor_vehicle": "designated", "name": "Mount Lindesay Highway", "network": "AU:QLD:NR", "oneway": "no", "ref": "13", "surface": "asphalt"}}, {"type": "way", "id": 173746171, "nodes": [1845093361, 241460689, 10684671428, 1845093341], "tags": {"highway": "trunk", "lanes": "1", "maxspeed": "70", "maxspeed:conditional": "40 @ (Mo-Fr 07:00-09:00, 14:00-16:00; PH off; SH off)", "name": "Mount Lindesay Highway", "network": "AU:QLD:NR", "oneway": "yes", "ref": "13", "surface": "asphalt"}}, {"type": "way", "id": 173746172, "nodes": [1845093342, 596034762, 1845093344, 1845093351], "tags": {"highway": "trunk", "lanes": "2", "maxspeed": "70", "name": "Mount Lindesay Highway", "network": "AU:QLD:NR", "oneway": "no", "ref": "13", "source": "Bing", "surface": "asphalt"}}, {"type": "way", "id": 173746173, "nodes": [241460683, 10684702526, 1845093356], "tags": {"highway": "trunk", "lanes": "2", "maxspeed": "70", "name": "Mount Lindesay Highway", "network": "AU:QLD:NR", "ref": "13", "surface": "asphalt"}}, {"type": "way", "id": 574621700, "nodes": [1845078477, 10684702549, 10684702548, 5515256172], "tags": {"highway": "trunk", "lanes": "1", "maxspeed": "70", "motor_vehicle": "designated", "name": "Mount Lindesay Highway", "network": "AU:QLD:NR", "oneway": "yes", "ref": "13", "surface": "asphalt"}}, {"type": "way", "id": 574621701, "nodes": [1845093354, 10684702550, 1845078477], "tags": {"highway": "trunk", "lanes": "1", "maxspeed": "70", "name": "Mount Lindesay Highway", "network": "AU:QLD:NR", "oneway": "yes", "ref": "13", "surface": "asphalt"}}, {"type": "way", "id": 582520019, "nodes": [5570913275, 1845093352, 241460683], "tags": {"highway": "trunk", "maxspeed": "70", "name": "Mount Lindesay Highway", "network": "AU:QLD:NR", "oneway": "yes", "ref": "13", "surface": "asphalt"}}, {"type": "way", "id": 582520020, "nodes": [241460683, 10684702525, 1845093349], "tags": {"highway": "trunk", "maxspeed": "70", "name": "Mount Lindesay Highway", "network": "AU:QLD:NR", "oneway": "yes", "ref": "13", "surface": "asphalt"}}, {"type": "way", "id": 741048017, "nodes": [1845093349, 10684671425, 10684702555], "tags": {"highway": "trunk", "lanes": "1", "maxspeed": "70", "maxspeed:conditional": "40 @ (Mo-Fr 07:00-09:00, 14:00-16:00; PH off; SH off)", "name": "Mount Lindesay Highway", "network": "AU:QLD:NR", "oneway": "yes", "ref": "13", "surface": "asphalt"}}, {"type": "way", "id": 741996505, "nodes": [1845093351, 10684702551, 1845093363, 10684671499], "tags": {"highway": "trunk", "lanes": "1", "maxspeed": "70", "name": "Mount Lindesay Highway", "network": "AU:QLD:NR", "oneway": "yes", "ref": "13", "surface": "asphalt"}}, {"type": "way", "id": 1148389091, "nodes": [10684671460, 1845093342], "tags": {"bridge": "yes", "highway": "trunk", "lanes": "2", "layer": "1", "maxspeed": "70", "maxweight:signed": "no", "name": "Mount Lindesay Highway", "network": "AU:QLD:NR", "oneway": "no", "ref": "13", "source": "Bing", "surface": "asphalt"}}, {"type": "way", "id": 1148389096, "nodes": [1883465957, 10684671479, 10684671500, 1845093347, 10684702552, 1845093351], "tags": {"highway": "trunk", "lanes": "1", "maxspeed": "70", "motor_vehicle": "designated", "name": "Mount Lindesay Highway", "network": "AU:QLD:NR", "oneway": "yes", "ref": "13", "surface": "asphalt"}}, {"type": "way", "id": 1148389101, "nodes": [1883465964, 1883465957], "tags": {"highway": "trunk", "lanes": "2", "maxspeed": "70", "motor_vehicle": "designated", "name": "Mount Lindesay Highway", "network": "AU:QLD:NR", "oneway": "yes", "ref": "13", "surface": "asphalt"}}, {"type": "way", "id": 1148389102, "nodes": [1883465967, 10684702523, 10684671501, 1845093354], "tags": {"highway": "trunk", "lanes": "2", "maxspeed": "70", "name": "Mount Lindesay Highway", "network": "AU:QLD:NR", "oneway": "yes", "ref": "13", "surface": "asphalt"}}, {"type": "way", "id": 1148389110, "nodes": [10684702556, 10684671426, 5570913275], "tags": {"highway": "trunk", "lanes": "1", "maxspeed": "70", "maxspeed:conditional": "40 @ (Mo-Fr 07:00-09:00, 14:00-16:00; PH off; SH off)", "name": "Mount Lindesay Highway", "network": "AU:QLD:NR", "oneway": "yes", "ref": "13", "surface": "asphalt"}}, {"type": "way", "id": 1148389113, "nodes": [10684671498, 10684671480, 1883465958], "tags": {"highway": "trunk", "lanes": "3", "maxspeed": "70", "name": "Mount Lindesay Highway", "network": "AU:QLD:NR", "oneway": "yes", "ref": "13", "surface": "asphalt"}}, {"type": "way", "id": 1148389114, "nodes": [10684671499, 10684671498], "tags": {"highway": "trunk", "lanes": "2", "maxspeed": "70", "name": "Mount Lindesay Highway", "network": "AU:QLD:NR", "oneway": "yes", "ref": "13", "surface": "asphalt"}}, {"type": "way", "id": 1148389116, "nodes": [1845093343, 4324660640, 1845093346], "tags": {"highway": "trunk", "lanes": "2", "maxspeed": "70", "maxspeed:conditional": "40 @ (Mo-Fr 07:00-09:00, 14:00-16:00; PH off; SH off)", "name": "Mount Lindesay Highway", "network": "AU:QLD:NR", "oneway": "yes", "ref": "13", "surface": "asphalt"}}, {"type": "way", "id": 1148389117, "nodes": [1845093341, 4324660629, 241460686], "tags": {"highway": "trunk", "lanes": "3", "maxspeed": "70", "maxspeed:conditional": "40 @ (Mo-Fr 07:00-09:00, 14:00-16:00; PH off; SH off)", "name": "Mount Lindesay Highway", "network": "AU:QLD:NR", "oneway": "yes", "ref": "13", "surface": "asphalt"}}, {"type": "way", "id": 1148389118, "nodes": [10684702554, 10684671437, 1845093343], "tags": {"highway": "trunk", "lanes": "3", "maxspeed": "70", "maxspeed:conditional": "40 @ (Mo-Fr 07:00-09:00, 14:00-16:00; PH off; SH off)", "name": "Mount Lindesay Highway", "network": "AU:QLD:NR", "oneway": "yes", "ref": "13", "surface": "asphalt"}}, {"type": "way", "id": 1148389119, "nodes": [10684702555, 10684702554], "tags": {"highway": "trunk", "lanes": "2", "maxspeed": "70", "maxspeed:conditional": "40 @ (Mo-Fr 07:00-09:00, 14:00-16:00; PH off; SH off)", "name": "Mount Lindesay Highway", "network": "AU:QLD:NR", "oneway": "yes", "ref": "13", "surface": "asphalt"}}, {"type": "way", "id": 1148389120, "nodes": [241460686, 10684671427, 10684702556], "tags": {"highway": "trunk", "lanes": "2", "maxspeed": "70", "maxspeed:conditional": "40 @ (Mo-Fr 07:00-09:00, 14:00-16:00; PH off; SH off)", "name": "Mount Lindesay Highway", "network": "AU:QLD:NR", "oneway": "yes", "ref": "13", "surface": "asphalt"}}]}