{"version": 0.6, "generator": "Overpass API 0.7.61.5 4133829e", "osm3s": {"timestamp_osm_base": "2023-12-06T09:19:29Z", "copyright": "The data included in this document is from www.openstreetmap.org. The data is made available under ODbL."}, "elements": [{"type": "node", "id": 36425987, "lat": -33.8569002, "lon": 150.9359955, "tags": {"highway": "traffic_signals", "source": "survey"}}, {"type": "node", "id": 36426013, "lat": -33.8517529, "lon": 150.9428432}, {"type": "node", "id": 36426014, "lat": -33.8500548, "lon": 150.9448898}, {"type": "node", "id": 36426015, "lat": -33.8499672, "lon": 150.9449796}, {"type": "node", "id": 36426016, "lat": -33.8484921, "lon": 150.9462005}, {"type": "node", "id": 36529287, "lat": -33.8478815, "lon": 150.9471053, "tags": {"highway": "traffic_signals"}}, {"type": "node", "id": 36529289, "lat": -33.848622, "lon": 150.9462804}, {"type": "node", "id": 36529292, "lat": -33.8503194, "lon": 150.9448357}, {"type": "node", "id": 36529294, "lat": -33.8519015, "lon": 150.9428818}, {"type": "node", "id": 36529295, "lat": -33.8536355, "lon": 150.9407853}, {"type": "node", "id": 36535800, "lat": -33.856923, "lon": 150.9361895, "tags": {"highway": "traffic_signals", "source": "survey"}}, {"type": "node", "id": 60435094, "lat": -33.8481504, "lon": 150.9465505}, {"type": "node", "id": 77812914, "lat": -33.8568988, "lon": 150.9502992}, {"type": "node", "id": 77812918, "lat": -33.8539633, "lon": 150.9416832}, {"type": "node", "id": 77816529, "lat": -33.8535849, "lon": 150.940617, "tags": {"ref": "0733", "start_date": "1972-06-07"}}, {"type": "node", "id": 87739814, "lat": -33.8583258, "lon": 150.9330994}, {"type": "node", "id": 87739859, "lat": -33.8588675, "lon": 150.9320867}, {"type": "node", "id": 208195173, "lat": -33.8518515, "lon": 150.9427379}, {"type": "node", "id": 208197036, "lat": -33.851399, "lon": 150.9398971}, {"type": "node", "id": 208197038, "lat": -33.8507655, "lon": 150.9355097}, {"type": "node", "id": 208197039, "lat": -33.8502884, "lon": 150.9322728, "tags": {"highway": "traffic_signals"}}, {"type": "node", "id": 208198517, "lat": -33.8501803, "lon": 150.932299, "tags": {"highway": "traffic_signals"}}, {"type": "node", "id": 208198520, "lat": -33.8503797, "lon": 150.9334619}, {"type": "node", "id": 208198522, "lat": -33.8506766, "lon": 150.9355297}, {"type": "node", "id": 208198524, "lat": -33.8513281, "lon": 150.9399153}, {"type": "node", "id": 212905081, "lat": -33.8516347, "lon": 150.9414783}, {"type": "node", "id": 212905387, "lat": -33.8515478, "lon": 150.9414978}, {"type": "node", "id": 212905394, "lat": -33.8509304, "lon": 150.9438527}, {"type": "node", "id": 212906102, "lat": -33.8501885, "lon": 150.9447366}, {"type": "node", "id": 212906444, "lat": -33.8501126, "lon": 150.9450786}, {"type": "node", "id": 212988970, "lat": -33.855319, "lon": 150.9384031}, {"type": "node", "id": 227591875, "lat": -33.857105, "lon": 150.9355997}, {"type": "node", "id": 1834434657, "lat": -33.8510271, "lon": 150.943983}, {"type": "node", "id": 1834434663, "lat": -33.8519873, "lon": 150.9425622}, {"type": "node", "id": 1834434682, "lat": -33.8538711, "lon": 150.9404722}, {"type": "node", "id": 1834434687, "lat": -33.8549256, "lon": 150.9391421}, {"type": "node", "id": 1834434693, "lat": -33.8559301, "lon": 150.9375708}, {"type": "node", "id": 1834434700, "lat": -33.8561177, "lon": 150.9375206}, {"type": "node", "id": 1834434710, "lat": -33.8565341, "lon": 150.9366184}, {"type": "node", "id": 1834434715, "lat": -33.8574385, "lon": 150.9351718}, {"type": "node", "id": 1834434726, "lat": -33.8584283, "lon": 150.9331131}, {"type": "node", "id": 1848407726, "lat": -33.8570064, "lon": 150.9504687}, {"type": "node", "id": 1854580036, "lat": -33.8511457, "lon": 150.9387405, "tags": {"highway": "traffic_signals"}}, {"type": "node", "id": 1854580037, "lat": -33.8512423, "lon": 150.9387183, "tags": {"highway": "traffic_signals"}}, {"type": "node", "id": 1854580039, "lat": -33.8515791, "lon": 150.9410661}, {"type": "node", "id": 1854580141, "lat": -33.853998, "lon": 150.9417581}, {"type": "node", "id": 1854580221, "lat": -33.8547886, "lon": 150.9441078}, {"type": "node", "id": 1854580239, "lat": -33.8551716, "lon": 150.9452459}, {"type": "node", "id": 1854580240, "lat": -33.8552345, "lon": 150.9387401}, {"type": "node", "id": 1854580241, "lat": -33.8554138, "lon": 150.945979}, {"type": "node", "id": 1854580242, "lat": -33.8556314, "lon": 150.9466151}, {"type": "node", "id": 1854580243, "lat": -33.8559852, "lon": 150.9476935}, {"type": "node", "id": 1854580247, "lat": -33.856379, "lon": 150.9488684}, {"type": "node", "id": 1866574221, "lat": -33.8517811, "lon": 150.9424492}, {"type": "node", "id": 1866574222, "lat": -33.8518116, "lon": 150.9425907}, {"type": "node", "id": 1866574223, "lat": -33.8518278, "lon": 150.9429948}, {"type": "node", "id": 2003832827, "lat": -33.8537763, "lon": 150.9403748}, {"type": "node", "id": 2003832828, "lat": -33.8538785, "lon": 150.9413719}, {"type": "node", "id": 2003832845, "lat": -33.852918, "lon": 150.9416395}, {"type": "node", "id": 2448395527, "lat": -33.858578, "lon": 150.9327632}, {"type": "node", "id": 3461017132, "lat": -33.8481601, "lon": 150.9467633}, {"type": "node", "id": 3461017133, "lat": -33.8482997, "lon": 150.9466036}, {"type": "node", "id": 3461017137, "lat": -33.8480321, "lon": 150.9469166}, {"type": "node", "id": 3461017149, "lat": -33.8484637, "lon": 150.9464318}, {"type": "node", "id": 3731283477, "lat": -33.8517799, "lon": 150.943054, "tags": {"highway": "traffic_signals", "traffic_signals:direction": "forward"}}, {"type": "node", "id": 3731283479, "lat": -33.8517114, "lon": 150.9426952, "tags": {"highway": "traffic_signals", "traffic_signals:direction": "forward"}}, {"type": "node", "id": 3731283480, "lat": -33.851977, "lon": 150.9425785, "tags": {"highway": "traffic_signals", "traffic_signals:direction": "forward"}}, {"type": "node", "id": 3938213996, "lat": -33.8536652, "lon": 150.9411088}, {"type": "node", "id": 3938213997, "lat": -33.8535674, "lon": 150.9408682}, {"type": "node", "id": 3938213999, "lat": -33.8536632, "lon": 150.9405179, "tags": {"highway": "traffic_signals", "traffic_signals:direction": "forward"}}, {"type": "node", "id": 3938214000, "lat": -33.8493381, "lon": 150.9457521}, {"type": "node", "id": 3938214001, "lat": -33.8537166, "lon": 150.940996}, {"type": "node", "id": 3938214009, "lat": -33.8528074, "lon": 150.9415654}, {"type": "node", "id": 3938214016, "lat": -33.85246, "lon": 150.94218}, {"type": "node", "id": 3938214017, "lat": -33.853824, "lon": 150.9414414}, {"type": "node", "id": 3938214019, "lat": -33.8493047, "lon": 150.9455797}, {"type": "node", "id": 3938214020, "lat": -33.8535177, "lon": 150.9406981}, {"type": "node", "id": 3938214021, "lat": -33.8534944, "lon": 150.9409443, "tags": {"highway": "traffic_signals", "traffic_signals:direction": "forward"}}, {"type": "node", "id": 3938214022, "lat": -33.8536737, "lon": 150.9408878, "tags": {"highway": "traffic_signals", "traffic_signals:direction": "forward"}}, {"type": "node", "id": 3938214929, "lat": -33.8567331, "lon": 150.936521}, {"type": "node", "id": 3938214931, "lat": -33.8565879, "lon": 150.9367747}, {"type": "node", "id": 3938214933, "lat": -33.8551589, "lon": 150.9386106}, {"type": "node", "id": 3938214934, "lat": -33.8556398, "lon": 150.9382118}, {"type": "node", "id": 3938227184, "lat": -33.8538566, "lon": 150.9402731}, {"type": "node", "id": 3938227201, "lat": -33.8540472, "lon": 150.940032}, {"type": "node", "id": 4381813804, "lat": -33.8489842, "lon": 150.9459978}, {"type": "node", "id": 4381813805, "lat": -33.849759, "lon": 150.9454141}, {"type": "node", "id": 4381813806, "lat": -33.8495335, "lon": 150.9456023}, {"type": "node", "id": 5529405718, "lat": -33.8510793, "lon": 150.9376211}, {"type": "node", "id": 5529405719, "lat": -33.8509758, "lon": 150.9375778}, {"type": "node", "id": 6338853393, "lat": -33.8506803, "lon": 150.9349316}, {"type": "node", "id": 6339004518, "lat": -33.8513204, "lon": 150.9398657}, {"type": "node", "id": 6339004520, "lat": -33.8512591, "lon": 150.9394712}, {"type": "node", "id": 6339135431, "lat": -33.8514901, "lon": 150.9410823}, {"type": "node", "id": 6471376518, "lat": -33.8540624, "lon": 150.9419427}, {"type": "node", "id": 6471376520, "lat": -33.8567246, "lon": 150.9498959}, {"type": "node", "id": 6471376521, "lat": -33.8567992, "lon": 150.9500984}, {"type": "node", "id": 6618165133, "lat": -33.8556868, "lon": 150.9381439}, {"type": "node", "id": 6618165139, "lat": -33.8558605, "lon": 150.9378926}, {"type": "node", "id": 7357887041, "lat": -33.8553941, "lon": 150.9383009}, {"type": "node", "id": 7357887042, "lat": -33.8527094, "lon": 150.9418857}, {"type": "node", "id": 7393264762, "lat": -33.8550251, "lon": 150.9448106}, {"type": "node", "id": 8963058119, "lat": -33.8567982, "lon": 150.9361691}, {"type": "node", "id": 8963058125, "lat": -33.8563354, "lon": 150.9369316}, {"type": "node", "id": 9737825928, "lat": -33.8517225, "lon": 150.9420607}, {"type": "node", "id": 9737825940, "lat": -33.8517063, "lon": 150.9419534}, {"type": "node", "id": 9740605365, "lat": -33.849604, "lon": 150.9453086}, {"type": "node", "id": 9740606468, "lat": -33.8510969, "lon": 150.9377395}, {"type": "node", "id": 10213228135, "lat": -33.8541063, "lon": 150.9420694}, {"type": "node", "id": 10213228200, "lat": -33.8554232, "lon": 150.9384942}, {"type": "node", "id": 10239216455, "lat": -33.8535973, "lon": 150.9409417, "tags": {"crossing": "traffic_signals", "highway": "crossing"}}, {"type": "node", "id": 10239216456, "lat": -33.8536626, "lon": 150.9408557, "tags": {"crossing": "traffic_signals", "highway": "crossing"}}, {"type": "node", "id": 10239425515, "lat": -33.8532363, "lon": 150.9412556, "tags": {"highway": "speed_camera", "maxspeed": "70"}}, {"type": "node", "id": 11359701861, "lat": -33.856829, "lon": 150.9361168, "tags": {"crossing": "traffic_signals", "highway": "crossing"}}, {"type": "node", "id": 11359701862, "lat": -33.8568531, "lon": 150.9363115, "tags": {"crossing": "traffic_signals", "highway": "crossing"}}, {"type": "node", "id": 11359701865, "lat": -33.8536377, "lon": 150.9405501, "tags": {"crossing": "traffic_signals", "highway": "crossing"}}, {"type": "node", "id": 11359701866, "lat": -33.8536956, "lon": 150.9407055, "tags": {"crossing": "traffic_signals", "highway": "crossing"}}, {"type": "node", "id": 11359701868, "lat": -33.8534551, "lon": 150.9407746, "tags": {"crossing": "traffic_signals", "highway": "crossing"}}, {"type": "node", "id": 11359701969, "lat": -33.8535139, "lon": 150.940924, "tags": {"crossing": "traffic_signals", "highway": "crossing"}}, {"type": "node", "id": 11359701975, "lat": -33.851958, "lon": 150.9426027, "tags": {"crossing": "traffic_signals", "highway": "crossing"}}, {"type": "node", "id": 11359701976, "lat": -33.8520189, "lon": 150.9427342, "tags": {"crossing": "traffic_signals", "highway": "crossing"}}, {"type": "way", "id": 9781557, "nodes": [1848407726, 77812914, 6471376521, 6471376520, 1854580247, 1854580243, 1854580242, 1854580241, 1854580239, 7393264762, 1854580221, 10213228135], "tags": {"highway": "primary", "maxspeed": "60", "name": "The Horsley Drive", "source": "survey", "surface": "paved"}}, {"type": "way", "id": 19871951, "nodes": [208195173, 1866574222, 1866574221, 9737825928, 9737825940, 212905081, 1854580039, 208197036, 1854580037], "tags": {"highway": "primary", "maxspeed": "60", "name": "Victoria Street", "oneway": "yes", "surface": "paved"}}, {"type": "way", "id": 20135745, "nodes": [212906102, 36426014, 36426015], "tags": {"bridge": "yes", "highway": "trunk", "lanes": "3", "layer": "1", "maxspeed": "70", "name": "Cumberland Highway", "network": "AU:NSW", "old_network": "MR", "old_ref": "7", "oneway": "yes", "ref": "A28", "ref:start_date": "2013-05-30", "source": "survey", "surface": "paved"}}, {"type": "way", "id": 20135775, "nodes": [212906444, 36529292], "tags": {"bridge": "yes", "highway": "trunk", "lanes": "3", "layer": "1", "maxspeed": "70", "name": "Cumberland Highway", "network": "AU:NSW", "old_network": "MR", "old_ref": "7", "oneway": "yes", "ref": "A28", "ref:start_date": "2013-05-30", "source": "survey", "surface": "paved"}}, {"type": "way", "id": 172550571, "nodes": [3938227184, 2003832827], "tags": {"alt_name": "Cumberland Highway", "highway": "trunk", "lanes": "3", "maxspeed": "70", "name": "Smithfield Road", "network": "AU:NSW", "old_network": "MR", "old_ref": "7", "oneway": "yes", "ref": "A28", "ref:start_date": "2013-05-30", "source:name": "NSW LPI Base Map", "source:name:date": "2016-03", "surface": "paved"}}, {"type": "way", "id": 172550572, "nodes": [2003832845, 10239425515, 3938214021, 11359701969, 3938213997], "tags": {"alt_name": "Cumberland Highway", "highway": "trunk", "lanes": "3", "maxspeed": "70", "name": "Smithfield Road", "network": "AU:NSW", "old_network": "MR", "old_ref": "7", "oneway": "yes", "ref": "A28", "ref:start_date": "2013-05-30", "source:name": "NSW LPI Base Map", "source:name:date": "2016-03", "surface": "paved"}}, {"type": "way", "id": 172550578, "nodes": [3938214020, 3938213997], "tags": {"highway": "primary", "lanes": "2", "name": "The Horsley Drive", "oneway": "yes", "surface": "paved"}}, {"type": "way", "id": 277186913, "nodes": [1854580036, 6339004520, 6339004518, 208198524, 6339135431, 212905387, 3731283479, 36426013], "tags": {"highway": "primary", "maxspeed": "60", "name": "Victoria Street", "oneway": "yes", "surface": "paved"}}, {"type": "way", "id": 317756625, "nodes": [36535800, 1834434715, 1834434726, 2448395527, 87739859], "tags": {"alt_name": "Cumberland Highway", "highway": "trunk", "lanes": "3", "maxspeed": "70", "name": "Smithfield Road", "network": "AU:NSW", "old_network": "MR", "old_ref": "7", "oneway": "yes", "ref": "A28", "ref:start_date": "2013-05-30", "source:name": "NSW LPI Base Map", "source:name:date": "2016-03", "surface": "paved"}}, {"type": "way", "id": 333529458, "nodes": [36529287, 3461017137, 3461017132, 3461017133, 3461017149, 36529289, 4381813804, 3938214000, 4381813806, 4381813805, 212906444], "tags": {"alt_name": "Cumberland Highway", "highway": "trunk", "lanes": "3", "maxspeed": "70", "name": "Warren Road", "network": "AU:NSW", "old_network": "MR", "old_ref": "7", "oneway": "yes", "ref": "A28", "ref:start_date": "2013-05-30", "source": "survey", "surface": "paved"}}, {"type": "way", "id": 385523644, "nodes": [87739814, 227591875, 36425987], "tags": {"alt_name": "Cumberland Highway", "highway": "trunk", "lanes": "3", "maxspeed": "70", "name": "Smithfield Road", "network": "AU:NSW", "old_network": "MR", "old_ref": "7", "oneway": "yes", "ref": "A28", "ref:start_date": "2013-05-30", "source": "survey", "source:name": "NSW LPI Base Map", "source:name:date": "2016-03", "surface": "paved"}}, {"type": "way", "id": 390661246, "nodes": [3938213996, 3938214017, 77812918], "tags": {"highway": "primary", "lanes": "2", "maxspeed": "60", "name": "The Horsley Drive", "oneway": "yes", "source": "survey", "surface": "paved"}}, {"type": "way", "id": 390661248, "nodes": [77812918, 2003832828, 3938214001, 3938214022, 10239216456, 36529295], "tags": {"highway": "primary", "lanes": "2", "maxspeed": "60", "name": "The Horsley Drive", "oneway": "yes", "source": "survey", "surface": "paved"}}, {"type": "way", "id": 390661250, "nodes": [36529295, 77816529], "tags": {"highway": "primary", "lanes": "2", "name": "The Horsley Drive", "oneway": "yes", "surface": "paved"}}, {"type": "way", "id": 571052556, "nodes": [10213228200, 3938214934, 6618165133, 6618165139, 1834434700, 3938214931, 3938214929], "tags": {"alt_name": "Cumberland Highway", "highway": "trunk", "lanes": "3", "maxspeed": "70", "name": "Smithfield Road", "network": "AU:NSW", "old_network": "MR", "old_ref": "7", "oneway": "yes", "ref": "A28", "ref:start_date": "2013-05-30", "source:name": "NSW LPI Base Map", "source:name:date": "2016-03", "surface": "paved"}}, {"type": "way", "id": 576486997, "nodes": [77816529, 3938214020], "tags": {"alt_name": "Cumberland Highway", "highway": "trunk", "lanes": "3", "maxspeed": "70", "name": "Smithfield Road", "network": "AU:NSW", "old_network": "MR", "old_ref": "7", "oneway": "yes", "ref": "A28", "ref:start_date": "2013-05-30", "source:name": "NSW LPI Base Map", "source:name:date": "2016-03", "surface": "paved"}}, {"type": "way", "id": 576486998, "nodes": [3938214009, 1834434663, 3731283480, 11359701975, 208195173], "tags": {"alt_name": "Cumberland Highway", "highway": "trunk", "lanes": "3", "maxspeed": "70", "name": "Smithfield Road", "network": "AU:NSW", "old_network": "MR", "old_ref": "7", "oneway": "yes", "ref": "A28", "ref:start_date": "2013-05-30", "source:name": "NSW LPI Base Map", "source:name:date": "2016-03", "surface": "paved"}}, {"type": "way", "id": 576487000, "nodes": [3938213997, 36529295], "tags": {"alt_name": "Cumberland Highway", "highway": "trunk", "lanes": "3", "maxspeed": "70", "name": "Smithfield Road", "network": "AU:NSW", "old_network": "MR", "old_ref": "7", "oneway": "yes", "ref": "A28", "ref:start_date": "2013-05-30", "source:name": "NSW LPI Base Map", "source:name:date": "2016-03", "surface": "paved"}}, {"type": "way", "id": 576487362, "nodes": [36426013, 1866574223], "tags": {"highway": "primary", "maxspeed": "60", "name": "Victoria Street", "oneway": "yes", "surface": "paved"}}, {"type": "way", "id": 576487363, "nodes": [208195173, 36426013], "tags": {"alt_name": "Cumberland Highway", "highway": "trunk", "lanes": "3", "maxspeed": "70", "name": "Smithfield Road", "network": "AU:NSW", "old_network": "MR", "old_ref": "7", "oneway": "yes", "ref": "A28", "ref:start_date": "2013-05-30", "source:name": "NSW LPI Base Map", "source:name:date": "2016-03", "surface": "paved"}}, {"type": "way", "id": 576487365, "nodes": [1866574223, 36529294], "tags": {"alt_name": "Cumberland Highway", "highway": "trunk", "lanes": "3", "maxspeed": "70", "name": "Smithfield Road", "network": "AU:NSW", "old_network": "MR", "old_ref": "7", "oneway": "yes", "ref": "A28", "ref:start_date": "2013-05-30", "source:name": "NSW LPI Base Map", "source:name:date": "2016-03", "surface": "paved"}}, {"type": "way", "id": 576487366, "nodes": [36529294, 208195173], "tags": {"highway": "primary", "maxspeed": "60", "name": "Victoria Street", "oneway": "yes", "surface": "paved"}}, {"type": "way", "id": 576487367, "nodes": [36426013, 212905394, 212906102], "tags": {"alt_name": "Cumberland Highway", "highway": "trunk", "lanes": "3", "maxspeed": "70", "name": "Smithfield Road", "network": "AU:NSW", "old_network": "MR", "old_ref": "7", "oneway": "yes", "ref": "A28", "ref:start_date": "2013-05-30", "source:name": "NSW LPI Base Map", "source:name:date": "2016-03", "surface": "paved"}}, {"type": "way", "id": 576487368, "nodes": [36529292, 1834434657, 3731283477, 1866574223], "tags": {"alt_name": "Cumberland Highway", "highway": "trunk", "lanes": "3", "maxspeed": "70", "name": "Smithfield Road", "network": "AU:NSW", "old_network": "MR", "old_ref": "7", "oneway": "yes", "ref": "A28", "ref:start_date": "2013-05-30", "source:name": "NSW LPI Base Map", "source:name:date": "2016-03", "surface": "paved"}}, {"type": "way", "id": 576488090, "nodes": [36426015, 9740605365, 3938214019, 36426016, 60435094], "tags": {"alt_name": "Cumberland Highway", "highway": "trunk", "lanes": "3", "maxspeed": "70", "name": "Warren Road", "network": "AU:NSW", "old_network": "MR", "old_ref": "7", "oneway": "yes", "ref": "A28", "ref:start_date": "2013-05-30", "source": "survey", "surface": "paved"}}, {"type": "way", "id": 576488733, "nodes": [1854580037, 9740606468, 5529405718], "tags": {"highway": "primary", "maxspeed": "60", "name": "Victoria Street", "oneway": "yes", "surface": "paved"}}, {"type": "way", "id": 576488737, "nodes": [5529405718, 208197038, 6338853393, 208197039], "tags": {"highway": "primary", "maxspeed": "60", "name": "Victoria Street", "oneway": "yes", "surface": "paved"}}, {"type": "way", "id": 576488739, "nodes": [5529405719, 1854580036], "tags": {"highway": "primary", "maxspeed": "60", "name": "Victoria Street", "oneway": "yes", "surface": "paved"}}, {"type": "way", "id": 576488740, "nodes": [208198517, 208198520, 208198522, 5529405719], "tags": {"highway": "primary", "maxspeed": "60", "name": "Victoria Street", "oneway": "yes", "surface": "paved"}}, {"type": "way", "id": 732391301, "nodes": [36529294, 11359701976, 3938214016, 7357887042, 2003832845], "tags": {"alt_name": "Cumberland Highway", "highway": "trunk", "lanes": "3", "maxspeed": "70", "name": "Smithfield Road", "network": "AU:NSW", "old_network": "MR", "old_ref": "7", "oneway": "yes", "ref": "A28", "ref:start_date": "2013-05-30", "shoulder": "no", "source:name": "NSW LPI Base Map", "source:name:date": "2016-03", "surface": "paved"}}, {"type": "way", "id": 757408652, "nodes": [2003832827, 3938213999, 11359701865, 77816529], "tags": {"alt_name": "Cumberland Highway", "highway": "trunk", "lanes": "3", "maxspeed": "70", "name": "Smithfield Road", "network": "AU:NSW", "old_network": "MR", "old_ref": "7", "oneway": "yes", "ref": "A28", "ref:start_date": "2013-05-30", "source:name": "NSW LPI Base Map", "source:name:date": "2016-03", "surface": "paved"}}, {"type": "way", "id": 782320334, "nodes": [3938214933, 3938227201, 3938227184], "tags": {"alt_name": "Cumberland Highway", "highway": "trunk", "lanes": "3", "maxspeed": "70", "name": "Smithfield Road", "network": "AU:NSW", "old_network": "MR", "old_ref": "7", "oneway": "yes", "ref": "A28", "ref:start_date": "2013-05-30", "source:name": "NSW LPI Base Map", "source:name:date": "2016-03", "surface": "paved"}}, {"type": "way", "id": 782323128, "nodes": [3938213997, 10239216455, 3938213996], "tags": {"highway": "primary", "lanes": "2", "maxspeed": "60", "name": "The Horsley Drive", "oneway": "yes", "source": "survey", "surface": "paved"}}, {"type": "way", "id": 782337384, "nodes": [3938214020, 11359701868, 3938214009], "tags": {"alt_name": "Cumberland Highway", "highway": "trunk", "lanes": "3", "maxspeed": "70", "name": "Smithfield Road", "network": "AU:NSW", "old_network": "MR", "old_ref": "7", "oneway": "yes", "ref": "A28", "ref:start_date": "2013-05-30", "source:name": "NSW LPI Base Map", "source:name:date": "2016-03", "surface": "paved"}}, {"type": "way", "id": 787044214, "nodes": [1834434693, 7357887041, 212988970], "tags": {"alt_name": "Cumberland Highway", "highway": "trunk", "lanes": "3", "maxspeed": "70", "name": "Smithfield Road", "network": "AU:NSW", "old_network": "MR", "old_ref": "7", "oneway": "yes", "ref": "A28", "ref:start_date": "2013-05-30", "source:name": "NSW LPI Base Map", "source:name:date": "2016-03", "surface": "paved"}}, {"type": "way", "id": 787044215, "nodes": [36425987, 11359701861, 8963058119, 1834434710, 8963058125, 1834434693], "tags": {"alt_name": "Cumberland Highway", "highway": "trunk", "lanes": "3", "maxspeed": "70", "name": "Smithfield Road", "network": "AU:NSW", "old_network": "MR", "old_ref": "7", "oneway": "yes", "ref": "A28", "ref:start_date": "2013-05-30", "source:name": "NSW LPI Base Map", "source:name:date": "2016-03", "surface": "paved"}}, {"type": "way", "id": 789994962, "nodes": [3938214929, 11359701862, 36535800], "tags": {"alt_name": "Cumberland Highway", "highway": "trunk", "lanes": "3", "maxspeed": "70", "name": "Smithfield Road", "network": "AU:NSW", "old_network": "MR", "old_ref": "7", "oneway": "yes", "ref": "A28", "ref:start_date": "2013-05-30", "source:name": "NSW LPI Base Map", "source:name:date": "2016-03", "surface": "paved"}}, {"type": "way", "id": 1116692884, "nodes": [212988970, 3938214933], "tags": {"alt_name": "Cumberland Highway", "highway": "trunk", "lanes": "3", "maxheight": "5.0", "maxspeed": "70", "name": "Smithfield Road", "network": "AU:NSW", "old_network": "MR", "old_ref": "7", "oneway": "yes", "ref": "A28", "ref:start_date": "2013-05-30", "source:name": "NSW LPI Base Map", "source:name:date": "2016-03", "surface": "paved"}}, {"type": "way", "id": 1116692885, "nodes": [36529295, 11359701866, 1834434682, 1834434687, 1854580240], "tags": {"alt_name": "Cumberland Highway", "highway": "trunk", "lanes": "3", "maxspeed": "70", "name": "Smithfield Road", "network": "AU:NSW", "old_network": "MR", "old_ref": "7", "oneway": "yes", "ref": "A28", "ref:start_date": "2013-05-30", "source:name": "NSW LPI Base Map", "source:name:date": "2016-03", "surface": "paved"}}, {"type": "way", "id": 1116692886, "nodes": [1854580240, 10213228200], "tags": {"alt_name": "Cumberland Highway", "highway": "trunk", "lanes": "3", "maxheight": "5.0", "maxspeed": "70", "name": "Smithfield Road", "network": "AU:NSW", "old_network": "MR", "old_ref": "7", "oneway": "yes", "ref": "A28", "ref:start_date": "2013-05-30", "source:name": "NSW LPI Base Map", "source:name:date": "2016-03", "surface": "paved"}}, {"type": "way", "id": 1119486887, "nodes": [10213228135, 6471376518], "tags": {"highway": "primary", "maxspeed": "60", "name": "The Horsley Drive", "source": "survey", "surface": "paved"}}, {"type": "way", "id": 1119486888, "nodes": [6471376518, 1854580141], "tags": {"highway": "primary", "maxspeed": "60", "name": "The Horsley Drive", "source": "survey", "surface": "paved"}}, {"type": "way", "id": 1119486889, "nodes": [1854580141, 77812918], "tags": {"highway": "primary", "maxspeed": "60", "name": "The Horsley Drive", "source": "survey", "surface": "paved"}}]}