{"version": 0.6, "generator": "Overpass API 0.7.61.5 4133829e", "osm3s": {"timestamp_osm_base": "2023-12-06T13:15:00Z", "copyright": "The data included in this document is from www.openstreetmap.org. The data is made available under ODbL."}, "elements": [{"type": "node", "id": 94537776, "lat": -27.6595895, "lon": 153.1175384}, {"type": "node", "id": 94537777, "lat": -27.6600848, "lon": 153.1177024, "tags": {"highway": "traffic_signals", "traffic_signals:direction": "forward"}}, {"type": "node", "id": 94537780, "lat": -27.6616592, "lon": 153.1182437}, {"type": "node", "id": 94537832, "lat": -27.6578816, "lon": 153.1172112}, {"type": "node", "id": 94537833, "lat": -27.6579839, "lon": 153.1171933}, {"type": "node", "id": 94537834, "lat": -27.6582937, "lon": 153.1171793}, {"type": "node", "id": 94537835, "lat": -27.6585273, "lon": 153.1172083}, {"type": "node", "id": 94537909, "lat": -27.6631272, "lon": 153.1187389}, {"type": "node", "id": 94537910, "lat": -27.6634016, "lon": 153.1188997}, {"type": "node", "id": 94537911, "lat": -27.6636719, "lon": 153.1190138}, {"type": "node", "id": 94537912, "lat": -27.6638203, "lon": 153.1191062}, {"type": "node", "id": 94537913, "lat": -27.6639715, "lon": 153.1192433}, {"type": "node", "id": 94537914, "lat": -27.6640343, "lon": 153.1193305}, {"type": "node", "id": 94544190, "lat": -27.6643168, "lon": 153.1195552}, {"type": "node", "id": 94544191, "lat": -27.6644808, "lon": 153.119578}, {"type": "node", "id": 94544192, "lat": -27.6646709, "lon": 153.1196038}, {"type": "node", "id": 94544193, "lat": -27.664797, "lon": 153.1196592}, {"type": "node", "id": 94544195, "lat": -27.6657399, "lon": 153.1202832}, {"type": "node", "id": 94544197, "lat": -27.6661983, "lon": 153.1205493}, {"type": "node", "id": 94544198, "lat": -27.6670654, "lon": 153.1209942}, {"type": "node", "id": 267488405, "lat": -27.6652175, "lon": 153.1199421}, {"type": "node", "id": 267488414, "lat": -27.6667261, "lon": 153.1206848}, {"type": "node", "id": 267488420, "lat": -27.6653101, "lon": 153.1198282}, {"type": "node", "id": 267488693, "lat": -27.6648576, "lon": 153.1195184}, {"type": "node", "id": 267488994, "lat": -27.6646875, "lon": 153.1193744}, {"type": "node", "id": 267488996, "lat": -27.6645448, "lon": 153.1191745}, {"type": "node", "id": 267489908, "lat": -27.6645258, "lon": 153.1191207}, {"type": "node", "id": 267489909, "lat": -27.6644637, "lon": 153.1190319}, {"type": "node", "id": 267489911, "lat": -27.66421, "lon": 153.1189738}, {"type": "node", "id": 267489912, "lat": -27.6641118, "lon": 153.1190383}, {"type": "node", "id": 267489913, "lat": -27.6640459, "lon": 153.1191457}, {"type": "node", "id": 267489914, "lat": -27.6640264, "lon": 153.1192549}, {"type": "node", "id": 267489915, "lat": -27.6640788, "lon": 153.1194364}, {"type": "node", "id": 267489916, "lat": -27.6641372, "lon": 153.119501}, {"type": "node", "id": 267489917, "lat": -27.6644047, "lon": 153.1195276}, {"type": "node", "id": 267489918, "lat": -27.6644934, "lon": 153.1194501}, {"type": "node", "id": 267489919, "lat": -27.6645497, "lon": 153.1193196}, {"type": "node", "id": 294101369, "lat": -27.6638886, "lon": 153.1189425}, {"type": "node", "id": 294101370, "lat": -27.6636752, "lon": 153.1188925}, {"type": "node", "id": 294101373, "lat": -27.6585631, "lon": 153.117116}, {"type": "node", "id": 294101399, "lat": -27.6579862, "lon": 153.1171059}, {"type": "node", "id": 294101442, "lat": -27.6602138, "lon": 153.1176193}, {"type": "node", "id": 294101554, "lat": -27.6602221, "lon": 153.1177516}, {"type": "node", "id": 294101585, "lat": -27.6618811, "lon": 153.1182052}, {"type": "node", "id": 294101758, "lat": -27.6643444, "lon": 153.1189656}, {"type": "node", "id": 661836542, "lat": -27.6595022, "lon": 153.1173896}, {"type": "node", "id": 661836971, "lat": -27.6553991, "lon": 153.1177368}, {"type": "node", "id": 661837022, "lat": -27.6553847, "lon": 153.1176473}, {"type": "node", "id": 661849085, "lat": -27.6620704, "lon": 153.1183824}, {"type": "node", "id": 661855645, "lat": -27.6662061, "lon": 153.1204039, "tags": {"crossing": "traffic_signals", "highway": "crossing"}}, {"type": "node", "id": 661855648, "lat": -27.6661303, "lon": 153.1205099, "tags": {"crossing": "traffic_signals", "highway": "crossing"}}, {"type": "node", "id": 1112868226, "lat": -27.6642747, "lon": 153.1195522}, {"type": "node", "id": 1404358276, "lat": -27.6634919, "lon": 153.1188122}, {"type": "node", "id": 1851364736, "lat": -27.6660885, "lon": 153.1204863}, {"type": "node", "id": 1851364754, "lat": -27.666101, "lon": 153.1203407}, {"type": "node", "id": 1851364763, "lat": -27.6660408, "lon": 153.1204587}, {"type": "node", "id": 6270780332, "lat": -27.6672115, "lon": 153.1210674}, {"type": "node", "id": 7345391863, "lat": -27.6612211, "lon": 153.1179703}, {"type": "node", "id": 8236812793, "lat": -27.6659879, "lon": 153.1204269, "tags": {"highway": "traffic_signals", "traffic_signals:direction": "forward"}}, {"type": "node", "id": 8236812794, "lat": -27.6662536, "lon": 153.1204299, "tags": {"highway": "traffic_signals", "traffic_signals:direction": "forward"}}, {"type": "node", "id": 8236856071, "lat": -27.6605708, "lon": 153.1178766}, {"type": "node", "id": 8236856078, "lat": -27.659945, "lon": 153.1176523}, {"type": "node", "id": 8236856081, "lat": -27.6603615, "lon": 153.1178016, "tags": {"crossing": "traffic_signals", "highway": "crossing"}}, {"type": "node", "id": 8236856082, "lat": -27.660393, "lon": 153.1176769, "tags": {"crossing": "traffic_signals", "highway": "crossing"}}, {"type": "node", "id": 8236856084, "lat": -27.6604272, "lon": 153.1176879, "tags": {"highway": "traffic_signals", "traffic_signals:direction": "forward"}}, {"type": "node", "id": 9268165130, "lat": -27.6624306, "lon": 153.1184007}, {"type": "node", "id": 9268165141, "lat": -27.6621019, "lon": 153.1182837}, {"type": "node", "id": 9592040141, "lat": -27.6573969, "lon": 153.1173138}, {"type": "node", "id": 9592040142, "lat": -27.6586718, "lon": 153.1171384}, {"type": "node", "id": 9592040145, "lat": -27.659091, "lon": 153.1172566}, {"type": "node", "id": 9592040159, "lat": -27.6587785, "lon": 153.1171671}, {"type": "node", "id": 9592040173, "lat": -27.6584534, "lon": 153.1171001}, {"type": "node", "id": 9592040192, "lat": -27.6583432, "lon": 153.1170908}, {"type": "node", "id": 9592040212, "lat": -27.6584109, "lon": 153.1171895}, {"type": "node", "id": 9592040215, "lat": -27.6586423, "lon": 153.1172355}, {"type": "node", "id": 9592054869, "lat": -27.6602828, "lon": 153.1177734}, {"type": "node", "id": 9592054870, "lat": -27.6602766, "lon": 153.1176395}, {"type": "node", "id": 9592054918, "lat": -27.6581903, "lon": 153.1171773}, {"type": "node", "id": 9592054929, "lat": -27.658224, "lon": 153.1170881}, {"type": "node", "id": 9592054937, "lat": -27.6580869, "lon": 153.117182}, {"type": "node", "id": 9592054955, "lat": -27.6581049, "lon": 153.1170932}, {"type": "node", "id": 9592054956, "lat": -27.6571289, "lon": 153.1172814}, {"type": "node", "id": 9592054970, "lat": -27.6587556, "lon": 153.117271}, {"type": "node", "id": 9592054975, "lat": -27.6573826, "lon": 153.1172282}, {"type": "node", "id": 9592054985, "lat": -27.6599838, "lon": 153.1175454}, {"type": "node", "id": 9592054993, "lat": -27.6571433, "lon": 153.1173675}, {"type": "node", "id": 9592054996, "lat": -27.6578688, "lon": 153.1171262}, {"type": "node", "id": 9592055021, "lat": -27.6631495, "lon": 153.1186564}, {"type": "node", "id": 10940819683, "lat": -27.6655806, "lon": 153.120011}, {"type": "node", "id": 10940819684, "lat": -27.6660008, "lon": 153.1202776}, {"type": "node", "id": 10940861367, "lat": -27.6654317, "lon": 153.1200885}, {"type": "node", "id": 10940861368, "lat": -27.6654008, "lon": 153.1198905}, {"type": "node", "id": 10940861369, "lat": -27.6657853, "lon": 153.1201467}, {"type": "node", "id": 10940861370, "lat": -27.6661473, "lon": 153.1203697}, {"type": "node", "id": 10940861376, "lat": -27.6665565, "lon": 153.1207373}, {"type": "way", "id": 10672462, "nodes": [661836971, 9592054993, 9592040141, 94537832, 94537833, 9592054937, 9592054918, 94537834, 9592040212, 94537835, 9592040215, 9592054970, 94537776], "tags": {"bridge": "yes", "highway": "primary", "layer": "1", "lit": "yes", "maxspeed": "70", "maxweight:signed": "no", "name": "Kingston Road", "network": "AU:QLD:S", "oneway": "yes", "ref": "95", "surface": "asphalt"}}, {"type": "way", "id": 10673200, "nodes": [94544190, 94544191, 94544192, 94544193], "tags": {"highway": "primary", "lit": "yes", "maxspeed": "60", "name": "Kingston Road", "network": "AU:QLD:S", "oneway": "yes", "ref": "95", "sidewalk": "separate", "surface": "asphalt"}}, {"type": "way", "id": 24530413, "nodes": [7345391863, 8236856084, 8236856082, 9592054870, 294101442], "tags": {"highway": "primary", "lit": "yes", "maxspeed": "60", "name": "Kingston Road", "network": "AU:QLD:S", "oneway": "yes", "ref": "95", "surface": "asphalt"}}, {"type": "way", "id": 24607006, "nodes": [94544193, 267488405], "tags": {"bridge": "yes", "highway": "primary", "layer": "1", "lit": "yes", "maxspeed": "60", "maxweight:signed": "no", "name": "Kingston Road", "network": "AU:QLD:S", "oneway": "yes", "ref": "95", "surface": "asphalt"}}, {"type": "way", "id": 24607032, "nodes": [267488693, 267488994, 267488996], "tags": {"highway": "primary", "lit": "yes", "maxspeed": "60", "name": "Kingston Road", "network": "AU:QLD:S", "oneway": "yes", "ref": "95", "surface": "asphalt"}}, {"type": "way", "id": 24607099, "nodes": [267489911, 267489912, 267489913, 267489914, 94537914], "tags": {"cycleway:left": "no", "highway": "primary", "junction": "roundabout", "lit": "yes", "maxspeed": "60", "network": "AU:QLD:S", "ref": "95", "sidewalk": "no", "surface": "asphalt"}}, {"type": "way", "id": 46088135, "nodes": [267488420, 267488693], "tags": {"bridge": "yes", "highway": "primary", "layer": "1", "lit": "yes", "maxspeed": "60", "maxweight:signed": "no", "name": "Kingston Road", "network": "AU:QLD:S", "oneway": "yes", "ref": "95", "surface": "asphalt"}}, {"type": "way", "id": 51865148, "nodes": [661836542, 9592040145, 9592040159, 9592040142, 294101373, 9592040173, 9592040192, 9592054929, 9592054955, 294101399, 9592054996, 9592054975, 9592054956, 661837022], "tags": {"bridge": "yes", "highway": "primary", "layer": "1", "lit": "yes", "maxspeed": "70", "maxweight:signed": "no", "name": "Kingston Road", "network": "AU:QLD:S", "oneway": "yes", "ref": "95", "surface": "asphalt"}}, {"type": "way", "id": 187391795, "nodes": [94537776, 8236856078, 94537777, 294101554], "tags": {"highway": "primary", "lit": "yes", "maxspeed": "60", "name": "Kingston Road", "network": "AU:QLD:S", "oneway": "yes", "ref": "95", "surface": "asphalt"}}, {"type": "way", "id": 517839163, "nodes": [294101554, 9592054869, 8236856081, 8236856071, 94537780, 661849085, 94537909, 94537910, 94537911, 94537912, 94537913, 94537914], "tags": {"highway": "primary", "lit": "yes", "maxspeed": "60", "name": "Kingston Road", "network": "AU:QLD:S", "oneway": "yes", "ref": "95", "surface": "asphalt"}}, {"type": "way", "id": 576058739, "nodes": [94544195, 8236812793, 1851364763], "tags": {"highway": "primary", "lanes": "2", "lit": "yes", "maxspeed": "60", "maxspeed:source": "survey", "name": "Kingston Road", "network": "AU:QLD:S", "oneway": "yes", "ref": "95", "surface": "asphalt"}}, {"type": "way", "id": 725976643, "nodes": [94544190, 267489917, 267489918, 267489919, 267488996], "tags": {"cycleway:left": "no", "highway": "primary", "junction": "roundabout", "lit": "yes", "maxspeed": "60", "network": "AU:QLD:S", "ref": "95", "sidewalk": "no", "surface": "asphalt"}}, {"type": "way", "id": 725976644, "nodes": [267489916, 1112868226], "tags": {"cycleway:left": "no", "highway": "primary", "junction": "roundabout", "lit": "yes", "maxspeed": "60", "network": "AU:QLD:S", "ref": "95", "sidewalk": "no", "surface": "asphalt"}}, {"type": "way", "id": 725976645, "nodes": [94537914, 267489915, 267489916], "tags": {"cycleway:left": "no", "highway": "primary", "junction": "roundabout", "lit": "yes", "maxspeed": "60", "network": "AU:QLD:S", "ref": "95", "sidewalk": "no", "surface": "asphalt"}}, {"type": "way", "id": 725976646, "nodes": [294101758, 267489911], "tags": {"highway": "primary", "junction": "roundabout", "lit": "yes", "maxspeed": "60", "network": "AU:QLD:S", "ref": "95", "sidewalk": "separate", "surface": "asphalt"}}, {"type": "way", "id": 725976647, "nodes": [267489908, 267489909, 294101758], "tags": {"cycleway:left": "no", "highway": "primary", "junction": "roundabout", "lit": "yes", "maxspeed": "60", "network": "AU:QLD:S", "ref": "95", "sidewalk": "no", "surface": "asphalt"}}, {"type": "way", "id": 740406453, "nodes": [294101442, 9592054985, 661836542], "tags": {"highway": "primary", "lit": "yes", "maxspeed": "60", "name": "Kingston Road", "network": "AU:QLD:S", "oneway": "yes", "ref": "95", "surface": "asphalt"}}, {"type": "way", "id": 741954106, "nodes": [1112868226, 94544190], "tags": {"cycleway:left": "no", "highway": "primary", "junction": "roundabout", "lit": "yes", "maxspeed": "60", "network": "AU:QLD:S", "ref": "95", "sidewalk": "no", "surface": "asphalt"}}, {"type": "way", "id": 741957140, "nodes": [10940861367, 94544195], "tags": {"highway": "primary", "lanes": "3", "lit": "yes", "maxspeed": "60", "maxspeed:source": "survey", "name": "Kingston Road", "network": "AU:QLD:S", "oneway": "yes", "ref": "95", "surface": "asphalt"}}, {"type": "way", "id": 764282673, "nodes": [10940861376, 94544198, 6270780332], "tags": {"highway": "primary", "lanes": "3", "lit": "yes", "maxspeed": "70", "maxspeed:source": "survey", "name": "Kingston Road", "network": "AU:QLD:S", "oneway": "yes", "ref": "95", "surface": "asphalt"}}, {"type": "way", "id": 764282674, "nodes": [1851364754, 10940819684, 10940861369, 10940819683], "tags": {"highway": "primary", "lanes": "2", "lit": "yes", "maxspeed": "70", "name": "Kingston Road", "network": "AU:QLD:S", "oneway": "yes", "ref": "95", "surface": "asphalt"}}, {"type": "way", "id": 785778983, "nodes": [267489911, 294101369, 294101370, 1404358276], "tags": {"highway": "primary", "lit": "yes", "maxspeed": "60", "name": "Kingston Road", "network": "AU:QLD:S", "oneway": "yes", "ref": "95", "sidewalk": "separate", "surface": "asphalt"}}, {"type": "way", "id": 789783896, "nodes": [267488996, 267489908], "tags": {"cycleway:left": "no", "highway": "primary", "junction": "roundabout", "lit": "yes", "maxspeed": "60", "network": "AU:QLD:S", "ref": "95", "sidewalk": "no", "surface": "asphalt"}}, {"type": "way", "id": 789783898, "nodes": [1404358276, 9592055021, 9268165130, 9268165141, 294101585, 7345391863], "tags": {"highway": "primary", "lit": "yes", "maxspeed": "60", "name": "Kingston Road", "network": "AU:QLD:S", "oneway": "yes", "ref": "95", "surface": "asphalt"}}, {"type": "way", "id": 789786036, "nodes": [267488414, 8236812794, 661855645, 10940861370], "tags": {"highway": "primary", "lanes": "3", "lit": "yes", "maxspeed": "70", "name": "Kingston Road", "network": "AU:QLD:S", "oneway": "yes", "ref": "95", "surface": "asphalt"}}, {"type": "way", "id": 1177713576, "nodes": [267488405, 10940861367], "tags": {"highway": "primary", "lanes": "2", "lit": "yes", "maxspeed": "60", "maxspeed:source": "survey", "name": "Kingston Road", "network": "AU:QLD:S", "oneway": "yes", "ref": "95", "surface": "asphalt"}}, {"type": "way", "id": 1177713577, "nodes": [10940819683, 10940861368, 267488420], "tags": {"highway": "primary", "lanes": "2", "lit": "yes", "maxspeed": "60", "name": "Kingston Road", "network": "AU:QLD:S", "oneway": "yes", "ref": "95", "surface": "asphalt"}}, {"type": "way", "id": 1177713578, "nodes": [94544197, 10940861376], "tags": {"highway": "primary", "lanes": "2", "lit": "yes", "maxspeed": "60", "maxspeed:source": "survey", "name": "Kingston Road", "network": "AU:QLD:S", "oneway": "yes", "ref": "95", "surface": "asphalt"}}, {"type": "way", "id": 1177713596, "nodes": [1851364736, 661855648, 94544197], "tags": {"highway": "primary", "lanes": "2", "lit": "yes", "maxspeed": "60", "maxspeed:source": "survey", "name": "Kingston Road", "network": "AU:QLD:S", "oneway": "yes", "ref": "95", "surface": "asphalt"}}, {"type": "way", "id": 1177713597, "nodes": [1851364763, 1851364736], "tags": {"highway": "primary", "lanes": "2", "lit": "yes", "maxspeed": "60", "maxspeed:source": "survey", "name": "Kingston Road", "network": "AU:QLD:S", "oneway": "yes", "ref": "95", "surface": "asphalt"}}, {"type": "way", "id": 1177713600, "nodes": [10940861370, 1851364754], "tags": {"highway": "primary", "lanes": "3", "lit": "yes", "maxspeed": "70", "name": "Kingston Road", "network": "AU:QLD:S", "oneway": "yes", "ref": "95", "surface": "asphalt"}}]}