{"version": 0.6, "generator": "Overpass API 0.7.61.5 4133829e", "osm3s": {"timestamp_osm_base": "2023-12-06T14:57:55Z", "copyright": "The data included in this document is from www.openstreetmap.org. The data is made available under ODbL."}, "elements": [{"type": "node", "id": 99558576, "lat": -34.282009, "lon": 140.5893249}, {"type": "node", "id": 99558577, "lat": -34.2834302, "lon": 140.5942266}, {"type": "node", "id": 99558578, "lat": -34.2832327, "lon": 140.5967335}, {"type": "node", "id": 99558579, "lat": -34.2821167, "lon": 140.5975744}, {"type": "node", "id": 99558580, "lat": -34.2813205, "lon": 140.599707}, {"type": "node", "id": 99558581, "lat": -34.2735627, "lon": 140.605594}, {"type": "node", "id": 202558571, "lat": -34.2862052, "lon": 140.5971478}, {"type": "node", "id": 202558614, "lat": -34.2849528, "lon": 140.5970198}, {"type": "node", "id": 202558632, "lat": -34.2834327, "lon": 140.5962984}, {"type": "node", "id": 252043101, "lat": -34.2751268, "lon": 140.6039538}, {"type": "node", "id": 252045189, "lat": -34.287503, "lon": 140.5981356}, {"type": "node", "id": 270108855, "lat": -34.2839942, "lon": 140.5965568}, {"type": "node", "id": 270108875, "lat": -34.2815541, "lon": 140.5991275}, {"type": "node", "id": 317138248, "lat": -34.2774917, "lon": 140.6024162}, {"type": "node", "id": 317138250, "lat": -34.2761455, "lon": 140.6033625}, {"type": "node", "id": 317138251, "lat": -34.2792599, "lon": 140.6010169}, {"type": "node", "id": 569056441, "lat": -34.2810525, "lon": 140.6000371}, {"type": "node", "id": 919393242, "lat": -34.2796317, "lon": 140.600808}, {"type": "node", "id": 919393258, "lat": -34.2766409, "lon": 140.603049}, {"type": "node", "id": 919393275, "lat": -34.2748068, "lon": 140.6042417}, {"type": "node", "id": 919393292, "lat": -34.2808463, "lon": 140.6001748}, {"type": "node", "id": 919393297, "lat": -34.2741046, "lon": 140.6049612}, {"type": "node", "id": 919411356, "lat": -34.2730049, "lon": 140.6062979}, {"type": "node", "id": 919444273, "lat": -34.2743582, "lon": 140.6047014}, {"type": "node", "id": 919457271, "lat": -34.2879057, "lon": 140.5984751}, {"type": "node", "id": 919457272, "lat": -34.2867313, "lon": 140.5974912}, {"type": "node", "id": 919457284, "lat": -34.2877133, "lon": 140.5983169}, {"type": "node", "id": 919457285, "lat": -34.2858827, "lon": 140.5970689}, {"type": "node", "id": 919457314, "lat": -34.2864242, "lon": 140.5972729}, {"type": "node", "id": 920065484, "lat": -34.2812041, "lon": 140.5998779}, {"type": "node", "id": 920065494, "lat": -34.2820766, "lon": 140.5898853}, {"type": "node", "id": 920065495, "lat": -34.282936, "lon": 140.5932768}, {"type": "node", "id": 920065505, "lat": -34.2819218, "lon": 140.5979644}, {"type": "node", "id": 920065513, "lat": -34.2835038, "lon": 140.5957763}, {"type": "node", "id": 920065516, "lat": -34.2835297, "lon": 140.5946115}, {"type": "node", "id": 920065535, "lat": -34.2835602, "lon": 140.5950453}, {"type": "node", "id": 920065543, "lat": -34.2825348, "lon": 140.5972203}, {"type": "node", "id": 920065562, "lat": -34.2823052, "lon": 140.5917083}, {"type": "node", "id": 920065563, "lat": -34.2823801, "lon": 140.592021}, {"type": "node", "id": 1582699789, "lat": -34.2826647, "lon": 140.5926639}, {"type": "node", "id": 1583664836, "lat": -34.2777709, "lon": 140.6021829}, {"type": "node", "id": 1583665856, "lat": -34.2786479, "lon": 140.6015151}, {"type": "node", "id": 1583668287, "lat": -34.279436, "lon": 140.6008915}, {"type": "node", "id": 1583673619, "lat": -34.2803277, "lon": 140.600477}, {"type": "node", "id": 1583680084, "lat": -34.2834812, "lon": 140.5943899}, {"type": "node", "id": 1583680089, "lat": -34.2836444, "lon": 140.5963552}, {"type": "node", "id": 1583680091, "lat": -34.2839262, "lon": 140.5965232}, {"type": "node", "id": 1583680092, "lat": -34.2834172, "lon": 140.5963824}, {"type": "node", "id": 1583680093, "lat": -34.2835169, "lon": 140.5961273}, {"type": "node", "id": 1583680094, "lat": -34.2834895, "lon": 140.596313}, {"type": "node", "id": 1583680095, "lat": -34.2834725, "lon": 140.5963934}, {"type": "node", "id": 1583684412, "lat": -34.2833524, "lon": 140.5965706}, {"type": "node", "id": 1583684413, "lat": -34.2833876, "lon": 140.5966319}, {"type": "node", "id": 1583785192, "lat": -34.2815483, "lon": 140.5994687}, {"type": "node", "id": 1583785203, "lat": -34.2813979, "lon": 140.59979}, {"type": "node", "id": 1583785205, "lat": -34.282274, "lon": 140.5973887}, {"type": "node", "id": 1583785207, "lat": -34.2820096, "lon": 140.597738}, {"type": "node", "id": 1583785208, "lat": -34.2821014, "lon": 140.5978406}, {"type": "node", "id": 1583785214, "lat": -34.2812586, "lon": 140.5999719}, {"type": "node", "id": 1583785216, "lat": -34.2819656, "lon": 140.5982128}, {"type": "node", "id": 1583785220, "lat": -34.2810827, "lon": 140.6001295}, {"type": "node", "id": 1583785223, "lat": -34.2816508, "lon": 140.5991683}, {"type": "node", "id": 1583785227, "lat": -34.2808147, "lon": 140.6002916}, {"type": "node", "id": 1583785229, "lat": -34.2803514, "lon": 140.6004653}, {"type": "node", "id": 1583785237, "lat": -34.2821891, "lon": 140.5976584}, {"type": "node", "id": 1583787141, "lat": -34.2818409, "lon": 140.598204}, {"type": "node", "id": 1843985181, "lat": -34.2837006, "lon": 140.5964642}, {"type": "node", "id": 1843985183, "lat": -34.2837873, "lon": 140.5964311}, {"type": "node", "id": 1843985191, "lat": -34.2852342, "lon": 140.5971134}, {"type": "node", "id": 1843985192, "lat": -34.2852387, "lon": 140.5971539}, {"type": "node", "id": 1843985193, "lat": -34.2852396, "lon": 140.597073}, {"type": "node", "id": 1843985194, "lat": -34.2852529, "lon": 140.597191}, {"type": "node", "id": 1843985195, "lat": -34.2852545, "lon": 140.5970363}, {"type": "node", "id": 1843985196, "lat": -34.2852687, "lon": 140.5972143}, {"type": "node", "id": 1843985197, "lat": -34.2852676, "lon": 140.5970173}, {"type": "node", "id": 1843985198, "lat": -34.2852884, "lon": 140.5972329}, {"type": "node", "id": 1843985201, "lat": -34.2853392, "lon": 140.5969771}, {"type": "node", "id": 1843985202, "lat": -34.285319, "lon": 140.5972489}, {"type": "node", "id": 1843985206, "lat": -34.2853692, "lon": 140.5969789}, {"type": "node", "id": 1843985207, "lat": -34.2853522, "lon": 140.5972536}, {"type": "node", "id": 1843985209, "lat": -34.285385, "lon": 140.5972464}, {"type": "node", "id": 1843985210, "lat": -34.2853977, "lon": 140.5969901}, {"type": "node", "id": 1843985215, "lat": -34.2854161, "lon": 140.5970034}, {"type": "node", "id": 1843985216, "lat": -34.2854147, "lon": 140.5972281}, {"type": "node", "id": 1843985217, "lat": -34.2854321, "lon": 140.5970206}, {"type": "node", "id": 1843985219, "lat": -34.2854388, "lon": 140.5972002}, {"type": "node", "id": 1843985224, "lat": -34.2854552, "lon": 140.5971652}, {"type": "node", "id": 1843985225, "lat": -34.2854609, "lon": 140.5970889}, {"type": "node", "id": 1843985226, "lat": -34.2854625, "lon": 140.5971275}, {"type": "node", "id": 1843985233, "lat": -34.2856605, "lon": 140.5970635}, {"type": "node", "id": 3191412969, "lat": -34.2852833, "lon": 140.5970014}, {"type": "node", "id": 3274193641, "lat": -34.287776, "lon": 140.5983654}, {"type": "node", "id": 5528919460, "lat": -34.2814359, "lon": 140.5994198}, {"type": "node", "id": 5528939824, "lat": -34.2834323, "lon": 140.5965373}, {"type": "node", "id": 5528939825, "lat": -34.2835967, "lon": 140.5964237}, {"type": "node", "id": 5795721706, "lat": -34.278567, "lon": 140.6015827}, {"type": "node", "id": 5795797819, "lat": -34.2779373, "lon": 140.6020453}, {"type": "node", "id": 5798125329, "lat": -34.2733437, "lon": 140.6058704}, {"type": "node", "id": 5798921135, "lat": -34.2820262, "lon": 140.5894679}, {"type": "node", "id": 5930782577, "lat": -34.2854505, "lon": 140.5970523}, {"type": "node", "id": 5930782578, "lat": -34.2853099, "lon": 140.5969848}, {"type": "node", "id": 6357492360, "lat": -34.2816899, "lon": 140.5986903}, {"type": "node", "id": 6357492361, "lat": -34.2817942, "lon": 140.5987318}, {"type": "node", "id": 6359675276, "lat": -34.2850839, "lon": 140.5971251}, {"type": "node", "id": 6359675277, "lat": -34.2851043, "lon": 140.5970484}, {"type": "node", "id": 6359675278, "lat": -34.2871153, "lon": 140.5978145}, {"type": "node", "id": 6387127570, "lat": -34.2813088, "lon": 140.5997275, "tags": {"crossing": "unmarked", "crossing:markings": "no", "highway": "crossing"}}, {"type": "node", "id": 6387127571, "lat": -34.2813872, "lon": 140.5998023, "tags": {"crossing": "unmarked", "crossing:markings": "no", "highway": "crossing"}}, {"type": "node", "id": 6387127572, "lat": -34.2804706, "lon": 140.6004509}, {"type": "node", "id": 6387127573, "lat": -34.2804527, "lon": 140.600374}, {"type": "node", "id": 6387127574, "lat": -34.2814869, "lon": 140.5996405}, {"type": "node", "id": 6387127577, "lat": -34.2823105, "lon": 140.597483}, {"type": "node", "id": 6387127578, "lat": -34.282399, "lon": 140.5972794}, {"type": "node", "id": 6387127579, "lat": -34.2824411, "lon": 140.5973414}, {"type": "node", "id": 6387127582, "lat": -34.2798898, "lon": 140.6006833}, {"type": "node", "id": 6598311973, "lat": -34.2832898, "lon": 140.5967107}, {"type": "node", "id": 6598311974, "lat": -34.2832604, "lon": 140.5966779}, {"type": "node", "id": 6598311975, "lat": -34.2832864, "lon": 140.5966457}, {"type": "node", "id": 6598311976, "lat": -34.2833756, "lon": 140.5965263}, {"type": "node", "id": 6598311977, "lat": -34.2834, "lon": 140.5964532}, {"type": "node", "id": 6598311978, "lat": -34.2835191, "lon": 140.5958021}, {"type": "node", "id": 6598311979, "lat": -34.2834532, "lon": 140.5960489}, {"type": "node", "id": 6598311980, "lat": -34.2834704, "lon": 140.5958913}, {"type": "node", "id": 6598311981, "lat": -34.2834781, "lon": 140.5958491}, {"type": "node", "id": 6598311982, "lat": -34.2833596, "lon": 140.5966651}, {"type": "node", "id": 6598311983, "lat": -34.2835291, "lon": 140.5958323}, {"type": "node", "id": 6598311984, "lat": -34.2835192, "lon": 140.596043}, {"type": "node", "id": 6598311985, "lat": -34.2833252, "lon": 140.5966879}, {"type": "node", "id": 6598311986, "lat": -34.2834151, "lon": 140.5965872}, {"type": "node", "id": 6598311987, "lat": -34.2834579, "lon": 140.5964514}, {"type": "node", "id": 6598311988, "lat": -34.283446, "lon": 140.5964931}, {"type": "node", "id": 6598311989, "lat": -34.2835025, "lon": 140.5962337}, {"type": "node", "id": 6598311990, "lat": -34.2835258, "lon": 140.5959597}, {"type": "node", "id": 6598311991, "lat": -34.2835308, "lon": 140.5958853}, {"type": "node", "id": 8222978848, "lat": -34.2835257, "lon": 140.5963229, "tags": {"direction": "forward", "highway": "give_way"}}, {"type": "way", "id": 78310840, "nodes": [919457271, 3274193641, 919457284], "tags": {"bridge": "yes", "highway": "primary", "layer": "1", "maxspeed": "80", "name": "Bookpurnong Road", "network": "AU:SA", "ref": "B55", "surface": "asphalt"}}, {"type": "way", "id": 78310844, "nodes": [919457284, 252045189, 6359675278], "tags": {"highway": "primary", "maxspeed": "80", "name": "Bookpurnong Road", "network": "AU:SA", "ref": "B55", "surface": "asphalt"}}, {"type": "way", "id": 144879153, "nodes": [920065513, 6598311981, 6598311980, 6598311979, 202558632, 1583680092], "tags": {"highway": "primary", "lanes": "1", "maxspeed": "60", "name": "Old Sturt Highway", "network": "AU:SA", "oneway": "yes", "ref": "B201", "surface": "asphalt"}}, {"type": "way", "id": 144879154, "nodes": [1583680095, 1583680094, 6598311989, 1583680093, 6598311984, 6598311990, 6598311991, 6598311983, 6598311978, 920065513], "tags": {"highway": "primary", "lanes": "1", "maxspeed": "60", "name": "Old Sturt Highway", "network": "AU:SA", "oneway": "yes", "ref": "B201", "surface": "asphalt"}}, {"type": "way", "id": 144879155, "nodes": [1583680092, 1583680095, 5528939825, 1843985181, 1583680091], "tags": {"colour:arrow": "white", "colour:back": "green", "colour:text": "white", "destination": "Town Centre", "destination:symbol": "police;info;camp_site", "highway": "primary", "lanes": "1", "name": "Crawford Terrace", "network": "AU:SA", "oneway": "yes", "ref": "B55", "source:destination:mapillary": "z68814NvwMJVa4-aCUswmA", "source:name": "data.sa.gov.au", "surface": "asphalt"}}, {"type": "way", "id": 144879158, "nodes": [99558578, 920065543], "tags": {"alt_name": "Old Sturt Highway", "highway": "primary", "maxspeed": "60", "name": "Worman Street", "network": "AU:SA", "ref": "B201", "surface": "asphalt"}}, {"type": "way", "id": 144879160, "nodes": [1583680091, 1843985183, 1583680089], "tags": {"highway": "primary", "lanes": "1", "name": "Crawford Terrace", "network": "AU:SA", "oneway": "yes", "ref": "B55", "source:name": "data.sa.gov.au", "surface": "asphalt"}}, {"type": "way", "id": 144892065, "nodes": [1583785229, 6387127572, 1583785227, 1583785220, 1583785214, 6387127571, 1583785203], "tags": {"alt_name": "Old Sturt Highway", "highway": "primary", "maxspeed": "60", "name": "Worman Street", "network": "AU:SA", "oneway": "yes", "ref": "B201", "surface": "asphalt"}}, {"type": "way", "id": 144892068, "nodes": [1583785229, 1583673619], "tags": {"alt_name": "Old Sturt Highway", "highway": "primary", "maxspeed": "60", "name": "Worman Street", "network": "AU:SA", "ref": "B201", "surface": "asphalt"}}, {"type": "way", "id": 144892069, "nodes": [270108875, 5528919460, 99558580], "tags": {"alt_name": "Old Sturt Highway", "highway": "primary", "maxspeed": "60", "name": "Worman Street", "network": "AU:SA", "oneway": "yes", "ref": "B201", "surface": "asphalt"}}, {"type": "way", "id": 173616147, "nodes": [1843985195, 1843985193, 1843985191, 1843985192, 1843985194], "tags": {"highway": "primary", "junction": "roundabout", "maxspeed": "60", "network": "AU:SA", "ref": "B55", "source": "Bing", "surface": "asphalt"}}, {"type": "way", "id": 173616213, "nodes": [202558614, 270108855], "tags": {"highway": "primary", "maxspeed": "60", "name": "Crawford Terrace", "network": "AU:SA", "ref": "B55", "surface": "asphalt"}}, {"type": "way", "id": 173616215, "nodes": [1843985233, 1843985217], "tags": {"highway": "primary", "maxspeed": "60", "name": "Bookpurnong Road", "network": "AU:SA", "oneway": "yes", "ref": "B55", "surface": "asphalt"}}, {"type": "way", "id": 173616217, "nodes": [202558614, 6359675276, 1843985194], "tags": {"highway": "primary", "maxspeed": "60", "name": "Crawford Terrace", "network": "AU:SA", "oneway": "yes", "ref": "B55", "surface": "asphalt"}}, {"type": "way", "id": 173616218, "nodes": [1843985224, 1843985233], "tags": {"highway": "primary", "maxspeed": "60", "name": "Bookpurnong Road", "network": "AU:SA", "oneway": "yes", "ref": "B55", "surface": "asphalt"}}, {"type": "way", "id": 173616219, "nodes": [1843985195, 6359675277, 202558614], "tags": {"highway": "primary", "maxspeed": "60", "name": "Crawford Terrace", "network": "AU:SA", "oneway": "yes", "ref": "B55", "surface": "asphalt"}}, {"type": "way", "id": 641176432, "nodes": [1583680092, 6598311977, 6598311976, 1583684412, 6598311975, 6598311974, 99558578], "tags": {"alt_name": "Old Sturt Highway", "highway": "primary", "lanes": "1", "maxspeed": "60", "name": "Worman Street", "network": "AU:SA", "oneway": "yes", "ref": "B201", "surface": "asphalt"}}, {"type": "way", "id": 641809025, "nodes": [1583684413, 6598311986, 5528939824, 6598311988, 6598311987, 1583680095], "tags": {"colour:arrow": "white", "colour:back": "green", "colour:text": "white", "destination": "Barmera;Adelaide", "destination:ref": "20", "highway": "primary", "lanes": "1", "maxspeed": "60", "name": "Worman Street", "network": "AU:SA", "oneway": "yes", "ref": "B201", "source:destination:mapillary": "kE99fJBX84aya3DPoQDb0g", "source:name": "data.sa.gov.au", "surface": "asphalt"}}, {"type": "way", "id": 667594528, "nodes": [99558576, 5798921135, 920065494, 920065562, 920065563, 1582699789, 920065495, 99558577, 1583680084, 920065516, 920065535, 920065513], "tags": {"highway": "primary", "maxspeed": "60", "maxspeed:type": "sign", "name": "Old Sturt Highway", "network": "AU:SA", "oneway": "no", "ref": "B201", "surface": "asphalt"}}, {"type": "way", "id": 679168559, "nodes": [202558571, 919457285, 1843985233], "tags": {"highway": "primary", "maxspeed": "60", "name": "Bookpurnong Road", "network": "AU:SA", "ref": "B55", "surface": "asphalt"}}, {"type": "way", "id": 726933919, "nodes": [1843985198, 1843985202, 1843985207, 1843985209, 1843985216, 1843985219], "tags": {"highway": "primary", "junction": "roundabout", "maxspeed": "60", "network": "AU:SA", "ref": "B55", "source": "Bing", "surface": "asphalt"}}, {"type": "way", "id": 726933920, "nodes": [1843985194, 1843985196, 1843985198], "tags": {"highway": "primary", "junction": "roundabout", "maxspeed": "60", "network": "AU:SA", "ref": "B55", "source": "Bing", "surface": "asphalt"}}, {"type": "way", "id": 726933921, "nodes": [1843985217, 1843985215, 1843985210, 1843985206], "tags": {"highway": "primary", "junction": "roundabout", "maxspeed": "60", "network": "AU:SA", "ref": "B55", "source": "Bing", "surface": "asphalt"}}, {"type": "way", "id": 726933922, "nodes": [1843985219, 1843985224], "tags": {"highway": "primary", "junction": "roundabout", "maxspeed": "60", "network": "AU:SA", "ref": "B55", "source": "Bing", "surface": "asphalt"}}, {"type": "way", "id": 726933923, "nodes": [3191412969, 1843985197, 1843985195], "tags": {"highway": "primary", "junction": "roundabout", "maxspeed": "60", "network": "AU:SA", "ref": "B55", "source": "Bing", "surface": "asphalt"}}, {"type": "way", "id": 732992618, "nodes": [1583680089, 8222978848, 1583680094, 202558632], "tags": {"colour:arrow": "white", "colour:back": "green", "colour:text": "white", "destination": "Renmark", "destination:ref": "20", "highway": "primary", "lanes": "1", "name": "Crawford Terrace", "network": "AU:SA", "oneway": "yes", "ref": "B55", "source:destination:mapillary": "UNTTIbs5EDH9xLe9RHL1uw", "source:name": "data.sa.gov.au", "surface": "asphalt"}}, {"type": "way", "id": 733171911, "nodes": [99558578, 6598311973, 6598311985, 6598311982, 1583684413], "tags": {"highway": "primary", "lanes": "1", "maxspeed": "60", "name": "Worman Street", "network": "AU:SA", "oneway": "yes", "ref": "B201", "source:name": "data.sa.gov.au", "surface": "asphalt"}}, {"type": "way", "id": 733175033, "nodes": [1583787141, 6357492360, 270108875], "tags": {"alt_name": "Old Sturt Highway", "highway": "primary", "lanes": "2", "maxspeed": "60", "name": "Worman Street", "network": "AU:SA", "oneway": "yes", "ref": "B201", "surface": "asphalt"}}, {"type": "way", "id": 733175034, "nodes": [920065543, 6387127578, 1583785205, 99558579, 1583785207, 920065505, 1583787141], "tags": {"alt_name": "Old Sturt Highway", "highway": "primary", "lanes": "1", "maxspeed": "60", "name": "Worman Street", "network": "AU:SA", "oneway": "yes", "ref": "B201", "surface": "asphalt"}}, {"type": "way", "id": 733175035, "nodes": [1583785223, 6357492361, 1583785216], "tags": {"alt_name": "Old Sturt Highway", "highway": "primary", "lanes": "2", "maxspeed": "60", "name": "Worman Street", "network": "AU:SA", "oneway": "yes", "ref": "B201", "surface": "asphalt"}}, {"type": "way", "id": 733175036, "nodes": [1583785216, 1583785208, 1583785237, 6387127577, 6387127579, 920065543], "tags": {"alt_name": "Old Sturt Highway", "highway": "primary", "lanes": "1", "maxspeed": "60", "name": "Worman Street", "network": "AU:SA", "oneway": "yes", "ref": "B201", "surface": "asphalt"}}, {"type": "way", "id": 782082182, "nodes": [270108855, 1583680091], "tags": {"highway": "primary", "maxspeed": "60", "name": "Crawford Terrace", "network": "AU:SA", "ref": "B55", "surface": "asphalt"}}, {"type": "way", "id": 782082184, "nodes": [6359675278, 919457272, 919457314, 202558571], "tags": {"highway": "primary", "maxspeed": "60", "name": "Bookpurnong Road", "network": "AU:SA", "ref": "B55", "surface": "asphalt"}}, {"type": "way", "id": 1106305513, "nodes": [1843985224, 1843985226, 1843985225, 5930782577, 1843985217], "tags": {"highway": "primary", "junction": "roundabout", "maxspeed": "60", "network": "AU:SA", "ref": "B55", "source": "Bing", "surface": "asphalt"}}, {"type": "way", "id": 1213466737, "nodes": [1843985206, 1843985201, 5930782578, 3191412969], "tags": {"highway": "primary", "junction": "roundabout", "maxspeed": "60", "network": "AU:SA", "ref": "B55", "source": "Bing", "surface": "asphalt"}}, {"type": "way", "id": 1213466738, "nodes": [1583673619, 6387127582, 919393242, 1583668287, 317138251, 1583665856, 5795721706, 5795797819, 1583664836, 317138248, 919393258, 317138250, 252043101, 919393275, 919444273, 919393297, 99558581, 5798125329, 919411356], "tags": {"alt_name": "Old Sturt Highway", "highway": "primary", "maxspeed": "60", "name": "Worman Street", "network": "AU:SA", "ref": "B201", "surface": "asphalt"}}, {"type": "way", "id": 1213466739, "nodes": [1583785192, 1583785223], "tags": {"alt_name": "Old Sturt Highway", "highway": "primary", "maxspeed": "60", "name": "Worman Street", "network": "AU:SA", "oneway": "yes", "ref": "B201", "surface": "asphalt"}}, {"type": "way", "id": 1213466740, "nodes": [99558580, 6387127570, 920065484, 569056441, 919393292, 6387127573, 1583785229], "tags": {"alt_name": "Old Sturt Highway", "highway": "primary", "maxspeed": "60", "name": "Worman Street", "network": "AU:SA", "oneway": "yes", "ref": "B201", "surface": "asphalt"}}, {"type": "way", "id": 1213466741, "nodes": [1583785203, 6387127574, 1583785192], "tags": {"alt_name": "Old Sturt Highway", "highway": "primary", "maxspeed": "60", "name": "Worman Street", "network": "AU:SA", "oneway": "yes", "ref": "B201", "surface": "asphalt"}}]}