{"version": 0.6, "generator": "Overpass API 0.7.61.5 4133829e", "osm3s": {"timestamp_osm_base": "2023-12-06T14:56:51Z", "copyright": "The data included in this document is from www.openstreetmap.org. The data is made available under ODbL."}, "elements": [{"type": "node", "id": 252989657, "lat": -33.0413248, "lon": 137.5487545}, {"type": "node", "id": 270266512, "lat": -33.0424029, "lon": 137.5438575}, {"type": "node", "id": 1165588184, "lat": -33.041745, "lon": 137.5461936}, {"type": "node", "id": 1165588188, "lat": -33.0439855, "lon": 137.5367357}, {"type": "node", "id": 1165588198, "lat": -33.0411956, "lon": 137.5486888}, {"type": "node", "id": 1165588202, "lat": -33.0434879, "lon": 137.5383337}, {"type": "node", "id": 1165588220, "lat": -33.0430741, "lon": 137.5401892}, {"type": "node", "id": 1165588232, "lat": -33.0427756, "lon": 137.541579}, {"type": "node", "id": 1165588237, "lat": -33.0422761, "lon": 137.5438137}, {"type": "node", "id": 1165588248, "lat": -33.0418779, "lon": 137.5462291}, {"type": "node", "id": 1165620439, "lat": -33.0405207, "lon": 137.5517275, "tags": {"highway": "motorway_junction"}}, {"type": "node", "id": 1168831568, "lat": -33.0436319, "lon": 137.5383448}, {"type": "node", "id": 1168831637, "lat": -33.043714, "lon": 137.537308}, {"type": "node", "id": 1168853611, "lat": -33.041277, "lon": 137.5486744}, {"type": "node", "id": 1168853612, "lat": -33.0414742, "lon": 137.5480725}, {"type": "node", "id": 1168853617, "lat": -33.0411473, "lon": 137.5495913}, {"type": "node", "id": 1168853619, "lat": -33.0413775, "lon": 137.5483813}, {"type": "node", "id": 1168853626, "lat": -33.0413105, "lon": 137.5485998}, {"type": "node", "id": 1168856096, "lat": -33.042432, "lon": 137.5431164}, {"type": "node", "id": 1168856100, "lat": -33.0420973, "lon": 137.5446147, "tags": {"maxspeed": "80", "traffic_sign": "maxspeed", "traffic_sign:direction": "forward"}}, {"type": "node", "id": 2004753028, "lat": -33.040675, "lon": 137.5516764, "tags": {"maxspeed": "80", "traffic_sign": "maxspeed", "traffic_sign:direction": "forward"}}, {"type": "node", "id": 2662375345, "lat": -33.0429017, "lon": 137.5416202}, {"type": "node", "id": 2662375347, "lat": -33.0432093, "lon": 137.5402405}, {"type": "node", "id": 8428938261, "lat": -33.0423125, "lon": 137.5442659}, {"type": "node", "id": 8428938272, "lat": -33.0425451, "lon": 137.5432196}, {"type": "way", "id": 101264820, "nodes": [1165588198, 1168853611, 1168853626, 1168853619, 1168853612], "tags": {"highway": "trunk", "oneway": "yes", "source": "Bing", "surface": "asphalt"}}, {"type": "way", "id": 277540115, "nodes": [270266512, 8428938272, 2662375345, 2662375347, 1168831568, 1165588188], "tags": {"cycleway:left": "lane", "highway": "trunk", "name": "Lincoln Highway", "network": "AU:SA", "note": "Please read the OSM Wiki, B Roads in Rural areas are *primary*", "oneway": "yes", "ref": "B100", "surface": "asphalt"}}, {"type": "way", "id": 576404409, "nodes": [1165588184, 1165588198], "tags": {"cycleway:left": "lane", "highway": "trunk", "name": "Broadbent Terrace", "network": "AU:SA", "oneway": "yes", "ref": "B100", "source:name": "data.sa.gov.au", "surface": "asphalt"}}, {"type": "way", "id": 731783598, "nodes": [1168853617, 252989657, 1168853612, 1165588248], "tags": {"cycleway:left": "lane", "highway": "trunk", "maxspeed": "80", "maxspeed:type": "sign", "name": "Broadbent Terrace", "network": "AU:SA", "note": "Please read the OSM Wiki, B Roads in Rural areas are *primary*", "oneway": "yes", "ref": "B100", "source:name": "data.sa.gov.au", "surface": "asphalt"}}, {"type": "way", "id": 732686012, "nodes": [1168856096, 1165588237], "tags": {"cycleway:left": "lane", "highway": "trunk", "name": "Lincoln Highway", "network": "AU:SA", "oneway": "yes", "ref": "B100", "surface": "asphalt"}}, {"type": "way", "id": 771690125, "nodes": [2004753028, 1168853617], "tags": {"cycleway:left": "lane", "highway": "trunk", "maxspeed": "80", "maxspeed:type": "sign", "name": "Broadbent Terrace", "network": "AU:SA", "note": "Please read the OSM Wiki, B Roads in Rural areas are *primary*", "oneway": "yes", "ref": "B100", "source:name": "data.sa.gov.au", "surface": "asphalt"}}, {"type": "way", "id": 771690126, "nodes": [1165588198, 1165620439], "tags": {"cycleway:left": "lane", "highway": "trunk", "name": "Broadbent Terrace", "network": "AU:SA", "oneway": "yes", "ref": "B100", "source:name": "data.sa.gov.au", "surface": "asphalt"}}, {"type": "way", "id": 771690127, "nodes": [1168856100, 1165588184], "tags": {"cycleway:left": "lane", "highway": "trunk", "name": "Broadbent Terrace", "network": "AU:SA", "oneway": "yes", "ref": "B100", "source:name": "data.sa.gov.au", "surface": "asphalt"}}, {"type": "way", "id": 771690128, "nodes": [1165588248, 8428938261], "tags": {"cycleway:left": "lane", "highway": "trunk", "maxspeed": "80", "maxspeed:type": "sign", "name": "Broadbent Terrace", "network": "AU:SA", "note": "Please read the OSM Wiki, B Roads in Rural areas are *primary*", "oneway": "yes", "ref": "B100", "source:name": "data.sa.gov.au", "surface": "asphalt"}}, {"type": "way", "id": 771690132, "nodes": [1165588237, 1168856100], "tags": {"cycleway:left": "lane", "highway": "trunk", "name": "Broadbent Terrace", "network": "AU:SA", "oneway": "yes", "ref": "B100", "source:name": "data.sa.gov.au", "surface": "asphalt"}}, {"type": "way", "id": 1208009252, "nodes": [1168831637, 1165588202, 1165588220, 1165588232, 1168856096], "tags": {"cycleway:left": "lane", "highway": "trunk", "name": "Lincoln Highway", "network": "AU:SA", "oneway": "yes", "ref": "B100", "surface": "asphalt"}}, {"type": "way", "id": 1208009253, "nodes": [8428938261, 270266512], "tags": {"cycleway:left": "lane", "highway": "trunk", "maxspeed": "80", "maxspeed:type": "sign", "name": "Broadbent Terrace", "network": "AU:SA", "note": "Please read the OSM Wiki, B Roads in Rural areas are *primary*", "oneway": "yes", "ref": "B100", "source:name": "data.sa.gov.au", "surface": "asphalt"}}]}