{"version": 0.6, "generator": "Overpass API 0.7.61.5 4133829e", "osm3s": {"timestamp_osm_base": "2023-12-06T14:03:53Z", "copyright": "The data included in this document is from www.openstreetmap.org. The data is made available under ODbL."}, "elements": [{"type": "node", "id": 21322157, "lat": -28.2200355, "lon": 152.0295217, "tags": {"highway": "traffic_signals"}}, {"type": "node", "id": 21322160, "lat": -28.2206973, "lon": 152.0341423, "tags": {"highway": "traffic_signals"}}, {"type": "node", "id": 313290005, "lat": -28.2185881, "lon": 152.0345019}, {"type": "node", "id": 313290066, "lat": -28.2164812, "lon": 152.0348761, "tags": {"highway": "traffic_signals"}}, {"type": "node", "id": 313290471, "lat": -28.2199371, "lon": 152.0295402, "tags": {"highway": "traffic_signals"}}, {"type": "node", "id": 313290472, "lat": -28.2205549, "lon": 152.0338092}, {"type": "node", "id": 313290512, "lat": -28.2197012, "lon": 152.0271846}, {"type": "node", "id": 313290846, "lat": -28.2196069, "lon": 152.0272018}, {"type": "node", "id": 503976900, "lat": -28.2202968, "lon": 152.032001}, {"type": "node", "id": 503976901, "lat": -28.2203525, "lon": 152.0317493}, {"type": "node", "id": 503976922, "lat": -28.2176263, "lon": 152.0346794}, {"type": "node", "id": 503976929, "lat": -28.2189411, "lon": 152.0225407}, {"type": "node", "id": 503976934, "lat": -28.2192773, "lon": 152.0248654}, {"type": "node", "id": 503976945, "lat": -28.218761, "lon": 152.0213507}, {"type": "node", "id": 504745176, "lat": -28.2191066, "lon": 152.0236668}, {"type": "node", "id": 504745182, "lat": -28.2194381, "lon": 152.0260086}, {"type": "node", "id": 504745189, "lat": -28.21976, "lon": 152.0283438}, {"type": "node", "id": 504745195, "lat": -28.220108, "lon": 152.0306582}, {"type": "node", "id": 1288967786, "lat": -28.2206029, "lon": 152.0341653, "tags": {"highway": "traffic_signals"}}, {"type": "node", "id": 1288967806, "lat": -28.220711, "lon": 152.0342302, "tags": {"highway": "traffic_signals"}}, {"type": "node", "id": 1288967834, "lat": -28.2206156, "lon": 152.0342487, "tags": {"highway": "traffic_signals"}}, {"type": "node", "id": 1288967835, "lat": -28.2186019, "lon": 152.0346187}, {"type": "node", "id": 1288967837, "lat": -28.2205205, "lon": 152.0340421}, {"type": "node", "id": 1288967842, "lat": -28.2176575, "lon": 152.0347847}, {"type": "node", "id": 1288967850, "lat": -28.2203589, "lon": 152.0341926}, {"type": "node", "id": 1929710712, "lat": -28.2193641, "lon": 152.0248481}, {"type": "node", "id": 1929856677, "lat": -28.2201989, "lon": 152.0306474}, {"type": "node", "id": 1929856685, "lat": -28.2205254, "lon": 152.0329812}, {"type": "node", "id": 1929856706, "lat": -28.2191971, "lon": 152.023651}, {"type": "node", "id": 1929856708, "lat": -28.2195222, "lon": 152.0259899}, {"type": "node", "id": 1929856724, "lat": -28.2198559, "lon": 152.0283181}, {"type": "node", "id": 1929856725, "lat": -28.2190261, "lon": 152.0225256}, {"type": "node", "id": 1929856728, "lat": -28.2188459, "lon": 152.0213329}, {"type": "node", "id": 1929856739, "lat": -28.2204431, "lon": 152.0329953}, {"type": "node", "id": 2019456592, "lat": -28.2203776, "lon": 152.0319154}, {"type": "node", "id": 2019456597, "lat": -28.2165647, "lon": 152.0348636, "tags": {"highway": "traffic_signals"}}, {"type": "node", "id": 2019456599, "lat": -28.2202631, "lon": 152.0317539}, {"type": "node", "id": 2085622586, "lat": -28.2165827, "lon": 152.0349913, "tags": {"crossing": "traffic_signals", "highway": "traffic_signals"}}, {"type": "node", "id": 2088413989, "lat": -28.2204466, "lon": 152.0341291}, {"type": "node", "id": 2088413990, "lat": -28.2205397, "lon": 152.033957}, {"type": "node", "id": 4888703809, "lat": -28.2186102, "lon": 152.0346769, "tags": {"direction": "backward", "highway": "stop"}}, {"type": "node", "id": 7118316075, "lat": -28.2196436, "lon": 152.0344325}, {"type": "node", "id": 7341661307, "lat": -28.217022, "lon": 152.0349069}, {"type": "node", "id": 7341661309, "lat": -28.2192097, "lon": 152.0343879}, {"type": "node", "id": 7341661332, "lat": -28.2190854, "lon": 152.0344107}, {"type": "node", "id": 7341661364, "lat": -28.2205712, "lon": 152.0332894}, {"type": "node", "id": 11092668002, "lat": -28.2200133, "lon": 152.0300645}, {"type": "node", "id": 11254477958, "lat": -28.2163888, "lon": 152.0348919, "tags": {"crossing": "traffic_signals", "highway": "crossing"}}, {"type": "node", "id": 11254477959, "lat": -28.2166251, "lon": 152.0348531, "tags": {"crossing": "traffic_signals", "highway": "crossing"}}, {"type": "node", "id": 11254477961, "lat": -28.2166381, "lon": 152.0349806, "tags": {"crossing": "traffic_signals", "highway": "crossing"}}, {"type": "node", "id": 11254477970, "lat": -28.2186135, "lon": 152.034701, "tags": {"crossing": "unmarked", "crossing:markings": "no", "highway": "crossing"}}, {"type": "node", "id": 11254477976, "lat": -28.2205902, "lon": 152.0340712, "tags": {"crossing": "traffic_signals", "highway": "crossing"}}, {"type": "node", "id": 11254477977, "lat": -28.2206841, "lon": 152.0340527, "tags": {"crossing": "traffic_signals", "highway": "crossing"}}, {"type": "node", "id": 11254477979, "lat": -28.2205485, "lon": 152.0341714, "tags": {"crossing": "traffic_signals", "highway": "crossing"}}, {"type": "node", "id": 11254477982, "lat": -28.2205591, "lon": 152.0342594, "tags": {"crossing": "traffic_signals", "highway": "crossing"}}, {"type": "node", "id": 11254477986, "lat": -28.2205074, "lon": 152.0340573, "tags": {"crossing": "uncontrolled", "highway": "crossing"}}, {"type": "node", "id": 11254478005, "lat": -28.2199169, "lon": 152.0294035, "tags": {"crossing": "traffic_signals", "highway": "crossing"}}, {"type": "node", "id": 11254478006, "lat": -28.2200151, "lon": 152.0293847, "tags": {"crossing": "traffic_signals", "highway": "crossing"}}, {"type": "node", "id": 11254478009, "lat": -28.2200534, "lon": 152.0296451, "tags": {"crossing": "traffic_signals", "highway": "crossing"}}, {"type": "node", "id": 11254478010, "lat": -28.219956, "lon": 152.0296638, "tags": {"crossing": "traffic_signals", "highway": "crossing"}}, {"type": "node", "id": 11271013801, "lat": -28.2203635, "lon": 152.032466}, {"type": "node", "id": 11271100302, "lat": -28.2198776, "lon": 152.0291384}, {"type": "node", "id": 11273374126, "lat": -28.2181362, "lon": 152.0347006}, {"type": "node", "id": 11273374130, "lat": -28.218659, "lon": 152.035021}, {"type": "node", "id": 11273442806, "lat": -28.2154496, "lon": 152.0350524}, {"type": "node", "id": 11273943522, "lat": -28.2201217, "lon": 152.0301428}, {"type": "node", "id": 11273943523, "lat": -28.219829, "lon": 152.0288281}, {"type": "node", "id": 11282335771, "lat": -28.2184539, "lon": 152.0345264, "tags": {"crossing": "unmarked", "crossing:markings": "no", "highway": "crossing"}}, {"type": "node", "id": 11282335772, "lat": -28.2184787, "lon": 152.0346417, "tags": {"crossing": "unmarked", "crossing:markings": "no", "highway": "crossing"}}, {"type": "node", "id": 11282335775, "lat": -28.2186997, "lon": 152.0344823, "tags": {"crossing": "unmarked", "crossing:markings": "no", "highway": "crossing"}}, {"type": "node", "id": 11282335776, "lat": -28.2187195, "lon": 152.0345973, "tags": {"crossing": "unmarked", "crossing:markings": "no", "highway": "crossing"}}, {"type": "node", "id": 11282614807, "lat": -28.2197855, "lon": 152.0285266}, {"type": "node", "id": 11301494835, "lat": -28.2150119, "lon": 152.0351272}, {"type": "node", "id": 11301494836, "lat": -28.2171116, "lon": 152.0347716}, {"type": "node", "id": 11301494837, "lat": -28.2171549, "lon": 152.0348813}, {"type": "node", "id": 11301494838, "lat": -28.2180467, "lon": 152.0346017}, {"type": "node", "id": 11390681090, "lat": -28.2203736, "lon": 152.0325327}, {"type": "way", "id": 4020714, "nodes": [21322160, 11254477977, 7341661364], "tags": {"alt_name": "Cunningham Highway", "foot": "yes", "highway": "trunk", "lanes": "3", "maxspeed": "60", "name": "Wood Street", "network": "AU:QLD", "oneway": "yes", "ref": "A15", "surface": "asphalt", "turn:lanes": "left||"}}, {"type": "way", "id": 113696779, "nodes": [313290472, 11254477976, 1288967786], "tags": {"alt_name": "Cunningham Highway", "highway": "trunk", "lanes": "1", "maxspeed": "60", "name": "Wood Street", "network": "AU:QLD", "oneway": "yes", "ref": "A15", "surface": "asphalt", "turn:lanes": "through;right"}}, {"type": "way", "id": 113696780, "nodes": [313290472, 2088413990, 1288967837, 11254477986, 2088413989, 1288967850], "tags": {"highway": "trunk", "lanes": "1", "maxspeed": "60", "name": "Cunningham Highway", "network": "AU:QLD", "oneway": "yes", "ref": "A15", "surface": "asphalt"}}, {"type": "way", "id": 301772451, "nodes": [21322160, 1288967786], "tags": {"alt_name": "Cunningham Highway", "highway": "trunk", "lanes": "2", "maxspeed": "60", "name": "Albion Street", "network": "AU:QLD", "oneway": "yes", "ref": "A15", "surface": "asphalt"}}, {"type": "way", "id": 574825694, "nodes": [2085622586, 11254477961, 7341661307, 11301494837], "tags": {"alt_name": "Cunningham Highway", "foot": "yes", "highway": "trunk", "lanes": "2", "maxspeed": "60", "name": "Albion Street", "network": "AU:QLD", "oneway": "yes", "ref": "A15", "surface": "asphalt"}}, {"type": "way", "id": 574825695, "nodes": [11301494836, 11254477959, 2019456597, 313290066], "tags": {"alt_name": "Cunningham Highway", "foot": "yes", "highway": "trunk", "lanes": "3", "maxspeed": "60", "name": "Albion Street", "network": "AU:QLD", "oneway": "yes", "ref": "A15", "surface": "asphalt", "turn:lanes": "left;through|through|right"}}, {"type": "way", "id": 574825697, "nodes": [1288967834, 1288967806], "tags": {"alt_name": "Cunningham Highway", "foot": "yes", "highway": "trunk", "lanes": "2", "maxspeed": "60", "name": "Albion Street", "network": "AU:QLD", "oneway": "yes", "ref": "A15", "surface": "asphalt"}}, {"type": "way", "id": 574825698, "nodes": [1288967806, 21322160], "tags": {"alt_name": "Cunningham Highway", "foot": "yes", "highway": "trunk", "lanes": "2", "maxspeed": "60", "name": "Wood Street", "network": "AU:QLD", "oneway": "yes", "ref": "A15", "surface": "asphalt"}}, {"type": "way", "id": 574825700, "nodes": [1288967786, 1288967834], "tags": {"alt_name": "Cunningham Highway", "highway": "trunk", "lanes": "1", "maxspeed": "60", "name": "Wood Street", "network": "AU:QLD", "oneway": "yes", "ref": "A15", "surface": "asphalt"}}, {"type": "way", "id": 574825702, "nodes": [1288967786, 11254477979, 1288967850], "tags": {"alt_name": "Cunningham Highway", "highway": "trunk", "lanes": "1", "maxspeed": "60", "name": "Albion Street", "network": "AU:QLD", "oneway": "yes", "ref": "A15", "surface": "asphalt"}}, {"type": "way", "id": 761873273, "nodes": [1929856739, 313290472], "tags": {"alt_name": "Cunningham Highway", "destination:lanes": "Toowoomba;Brisbane|", "foot": "yes", "highway": "trunk", "lanes": "2", "maxspeed": "60", "name": "Wood Street", "network": "AU:QLD", "oneway": "yes", "ref": "A15", "surface": "asphalt", "turn:lanes": "left|through;right"}}, {"type": "way", "id": 761873274, "nodes": [7118316075, 11254477982, 1288967834], "tags": {"alt_name": "Cunningham Highway", "destination:lanes": "Showgrounds|Stanthorpe;Sydney;Inglewood;Goondiwindi", "foot": "yes", "highway": "trunk", "lanes": "2", "maxspeed": "60", "name": "Albion Street", "network": "AU:QLD", "oneway": "yes", "ref": "A15", "surface": "asphalt", "turn:lanes": "left;through;right|right"}}, {"type": "way", "id": 794281154, "nodes": [503976945, 503976929, 504745176, 503976934, 504745182, 313290846], "tags": {"alt_name": "Cunningham Highway", "foot": "yes", "highway": "trunk", "lanes": "2", "maxspeed": "60", "name": "Wood Street", "network": "AU:QLD;AU:QLD:SSTR", "oneway": "yes", "ref": "A15;ACW", "surface": "asphalt"}}, {"type": "way", "id": 795278746, "nodes": [1288967850, 7341661309], "tags": {"alt_name": "Cunningham Highway", "foot": "yes", "highway": "trunk", "lanes": "2", "maxspeed": "60", "name": "Albion Street", "network": "AU:QLD", "oneway": "yes", "ref": "A15", "surface": "asphalt"}}, {"type": "way", "id": 795278750, "nodes": [7341661364, 1929856685, 2019456592], "tags": {"alt_name": "Cunningham Highway", "foot": "yes", "highway": "trunk", "lanes": "2", "maxspeed": "60", "name": "Wood Street", "network": "AU:QLD", "oneway": "yes", "ref": "A15", "surface": "asphalt"}}, {"type": "way", "id": 865812336, "nodes": [313290512, 1929856708, 1929710712, 1929856706, 1929856725, 1929856728], "tags": {"alt_name": "Cunningham Highway", "foot": "yes", "highway": "trunk", "lanes": "2", "maxspeed": "60", "name": "Wood Street", "network": "AU:QLD;AU:QLD:SSTR", "oneway": "yes", "ref": "A15;ACW", "surface": "asphalt"}}, {"type": "way", "id": 865812337, "nodes": [313290471, 11254478010, 11092668002, 504745195, 2019456599], "tags": {"alt_name": "Cunningham Highway", "foot": "yes", "highway": "trunk", "lanes": "2", "maxspeed": "60", "name": "Wood Street", "network": "AU:QLD", "oneway": "yes", "ref": "A15", "surface": "asphalt"}}, {"type": "way", "id": 1116199180, "nodes": [503976900, 11271013801, 11390681090, 1929856739], "tags": {"alt_name": "Cunningham Highway", "foot": "yes", "highway": "trunk", "lanes": "2", "maxspeed": "60", "name": "Wood Street", "network": "AU:QLD", "oneway": "yes", "ref": "A15", "surface": "asphalt"}}, {"type": "way", "id": 1116199192, "nodes": [313290846, 504745189], "tags": {"alt_name": "Cunningham Highway", "foot": "yes", "highway": "trunk", "lanes": "2", "maxspeed": "60", "name": "Wood Street", "network": "AU:QLD;AU:QLD:SSTR", "oneway": "yes", "ref": "A15;ACW", "surface": "asphalt"}}, {"type": "way", "id": 1116199210, "nodes": [21322157, 11254478006, 1929856724], "tags": {"alt_name": "Cunningham Highway", "foot": "yes", "highway": "trunk", "lanes": "2", "maxspeed": "60", "name": "Wood Street", "network": "AU:QLD;AU:QLD:SSTR", "oneway": "yes", "ref": "A15;ACW", "surface": "asphalt"}}, {"type": "way", "id": 1116199211, "nodes": [1929856724, 313290512], "tags": {"alt_name": "Cunningham Highway", "foot": "yes", "highway": "trunk", "lanes": "2", "maxspeed": "60", "name": "Wood Street", "network": "AU:QLD;AU:QLD:SSTR", "oneway": "yes", "ref": "A15;ACW", "surface": "asphalt"}}, {"type": "way", "id": 1116199220, "nodes": [7341661332, 11282335775, 313290005], "tags": {"alt_name": "Cunningham Highway", "foot": "yes", "highway": "trunk", "lanes": "3", "maxspeed": "60", "name": "Albion Street", "network": "AU:QLD", "oneway": "yes", "ref": "A15", "surface": "asphalt", "turn:lanes": "||right"}}, {"type": "way", "id": 1116199221, "nodes": [313290066, 11254477958, 11273442806, 11301494835], "tags": {"alt_name": "Cunningham Highway", "foot": "yes", "highway": "trunk", "lanes": "2", "maxspeed": "60", "name": "Albion Street", "network": "AU:QLD;AU:QLD:SSTR", "oneway": "yes", "ref": "A15;ACW", "surface": "asphalt"}}, {"type": "way", "id": 1216732207, "nodes": [2019456592, 503976901], "tags": {"alt_name": "Cunningham Highway", "foot": "yes", "highway": "trunk", "lanes": "2", "maxspeed": "60", "name": "Wood Street", "network": "AU:QLD", "oneway": "yes", "ref": "A15", "surface": "asphalt"}}, {"type": "way", "id": 1216732208, "nodes": [503976901, 1929856677, 11273943522], "tags": {"alt_name": "Cunningham Highway", "foot": "yes", "highway": "trunk", "lanes": "2", "maxspeed": "60", "name": "Wood Street", "network": "AU:QLD", "oneway": "yes", "ref": "A15", "surface": "asphalt"}}, {"type": "way", "id": 1216732209, "nodes": [2019456599, 503976900], "tags": {"alt_name": "Cunningham Highway", "foot": "yes", "highway": "trunk", "lanes": "2", "maxspeed": "60", "name": "Wood Street", "network": "AU:QLD", "oneway": "yes", "ref": "A15", "surface": "asphalt"}}, {"type": "way", "id": 1216732210, "nodes": [11273943522, 11254478009, 21322157], "tags": {"alt_name": "Cunningham Highway", "foot": "yes", "highway": "trunk", "lanes": "3", "maxspeed": "60", "name": "Wood Street", "network": "AU:QLD", "oneway": "yes", "ref": "A15", "surface": "asphalt", "turn:lanes": "||right"}}, {"type": "way", "id": 1216732211, "nodes": [11273943523, 11271100302, 11254478005, 313290471], "tags": {"alt_name": "Cunningham Highway", "foot": "yes", "highway": "trunk", "lanes": "3", "maxspeed": "60", "name": "Wood Street", "network": "AU:QLD;AU:QLD:SSTR", "oneway": "yes", "ref": "A15;ACW", "surface": "asphalt", "turn:lanes": "||right"}}, {"type": "way", "id": 1217670284, "nodes": [504745189, 11282614807, 11273943523], "tags": {"alt_name": "Cunningham Highway", "foot": "yes", "highway": "trunk", "lanes": "2", "maxspeed": "60", "name": "Wood Street", "network": "AU:QLD;AU:QLD:SSTR", "oneway": "yes", "ref": "A15;ACW", "surface": "asphalt"}}, {"type": "way", "id": 1219675126, "nodes": [503976922, 11301494836], "tags": {"alt_name": "Cunningham Highway", "foot": "yes", "highway": "trunk", "lanes": "2", "maxspeed": "60", "name": "Albion Street", "network": "AU:QLD", "oneway": "yes", "ref": "A15", "surface": "asphalt"}}, {"type": "way", "id": 1219675127, "nodes": [1288967842, 11273374126], "tags": {"alt_name": "Cunningham Highway", "foot": "yes", "highway": "trunk", "lanes": "2", "maxspeed": "60", "name": "Albion Street", "network": "AU:QLD", "oneway": "yes", "ref": "A15", "surface": "asphalt"}}, {"type": "way", "id": 1219675128, "nodes": [11301494838, 503976922], "tags": {"alt_name": "Cunningham Highway", "foot": "yes", "highway": "trunk", "lanes": "3", "maxspeed": "60", "name": "Albion Street", "network": "AU:QLD", "oneway": "yes", "ref": "A15", "surface": "asphalt", "turn:lanes": "||right"}}, {"type": "way", "id": 1219675129, "nodes": [11301494837, 1288967842], "tags": {"alt_name": "Cunningham Highway", "foot": "yes", "highway": "trunk", "lanes": "3", "maxspeed": "60", "name": "Albion Street", "network": "AU:QLD", "oneway": "yes", "ref": "A15", "surface": "asphalt", "turn:lanes": "||right"}}, {"type": "way", "id": 1219675130, "nodes": [313290005, 11282335771, 11301494838], "tags": {"alt_name": "Cunningham Highway", "foot": "yes", "highway": "trunk", "lanes": "2", "maxspeed": "60", "name": "Albion Street", "network": "AU:QLD", "oneway": "yes", "ref": "A15", "surface": "asphalt"}}, {"type": "way", "id": 1219675131, "nodes": [1288967835, 11282335776, 7118316075], "tags": {"alt_name": "Cunningham Highway", "foot": "yes", "highway": "trunk", "lanes": "2", "maxspeed": "60", "name": "Albion Street", "network": "AU:QLD", "oneway": "yes", "ref": "A15", "surface": "asphalt"}}, {"type": "way", "id": 1219675132, "nodes": [11273374126, 11282335772, 1288967835], "tags": {"alt_name": "Cunningham Highway", "foot": "yes", "highway": "trunk", "lanes": "3", "maxspeed": "60", "name": "Albion Street", "network": "AU:QLD", "oneway": "yes", "ref": "A15", "surface": "asphalt", "turn:lanes": "||right"}}, {"type": "way", "id": 1219675133, "nodes": [7341661309, 7341661332], "tags": {"alt_name": "Cunningham Highway", "foot": "yes", "highway": "trunk", "lanes": "2", "maxspeed": "60", "name": "Albion Street", "network": "AU:QLD", "oneway": "yes", "ref": "A15", "surface": "asphalt"}}, {"type": "way", "id": 1229052386, "nodes": [1288967835, 4888703809, 11254477970, 11273374130], "tags": {"alt_name": "Warwick - Killarney Road", "highway": "primary", "lanes": "3", "lanes:backward": "2", "lanes:forward": "1", "maxspeed": "60", "name": "Percy Street", "surface": "asphalt", "turn:lanes:backward": "|right"}}, {"type": "way", "id": 1229052387, "nodes": [313290005, 1288967835], "tags": {"alt_name": "Warwick - Killarney Road", "highway": "primary", "maxspeed": "60", "name": "Percy Street", "surface": "asphalt"}}]}