{"version": 0.6, "generator": "Overpass API 0.7.61.5 4133829e", "osm3s": {"timestamp_osm_base": "2023-12-08T07:41:05Z", "copyright": "The data included in this document is from www.openstreetmap.org. The data is made available under ODbL."}, "elements": [{"type": "node", "id": 30995151, "lat": -31.8781886, "lon": 115.8007582, "tags": {"highway": "motorway_junction", "noref": "yes"}}, {"type": "node", "id": 30995152, "lat": -31.8804712, "lon": 115.8007533}, {"type": "node", "id": 30995153, "lat": -31.8876779, "lon": 115.8016093, "tags": {"created_by": "JOSM"}}, {"type": "node", "id": 30995154, "lat": -31.891225, "lon": 115.8025935}, {"type": "node", "id": 30995155, "lat": -31.8923076, "lon": 115.8031974}, {"type": "node", "id": 31037082, "lat": -31.881324, "lon": 115.8003282}, {"type": "node", "id": 31037086, "lat": -31.8825073, "lon": 115.7965715}, {"type": "node", "id": 31037175, "lat": -31.8788066, "lon": 115.8001626}, {"type": "node", "id": 31037365, "lat": -31.8930382, "lon": 115.8032387, "tags": {"highway": "motorway_junction", "noref": "yes"}}, {"type": "node", "id": 31037367, "lat": -31.8913064, "lon": 115.8022134}, {"type": "node", "id": 31037376, "lat": -31.8877405, "lon": 115.8012703}, {"type": "node", "id": 32032159, "lat": -31.8818395, "lon": 115.8003798}, {"type": "node", "id": 32032586, "lat": -31.8825083, "lon": 115.8008695, "tags": {"highway": "motorway_junction", "noref": "yes"}}, {"type": "node", "id": 32032633, "lat": -31.8862508, "lon": 115.8009845}, {"type": "node", "id": 51940530, "lat": -31.8899592, "lon": 115.8017547}, {"type": "node", "id": 51940540, "lat": -31.8899211, "lon": 115.8021323, "tags": {"created_by": "JOSM"}}, {"type": "node", "id": 51940547, "lat": -31.8920786, "lon": 115.80304}, {"type": "node", "id": 51940564, "lat": -31.8925532, "lon": 115.8028961}, {"type": "node", "id": 51940619, "lat": -31.8832772, "lon": 115.8009383}, {"type": "node", "id": 51940649, "lat": -31.8792585, "lon": 115.8001818}, {"type": "node", "id": 277758180, "lat": -31.8823736, "lon": 115.7993047}, {"type": "node", "id": 277758310, "lat": -31.8823202, "lon": 115.7965827}, {"type": "node", "id": 281222831, "lat": -31.8825733, "lon": 115.8029941}, {"type": "node", "id": 281222834, "lat": -31.8829848, "lon": 115.8049285}, {"type": "node", "id": 281222835, "lat": -31.8833001, "lon": 115.8054733}, {"type": "node", "id": 281222836, "lat": -31.8838284, "lon": 115.8061355}, {"type": "node", "id": 281222872, "lat": -31.8827477, "lon": 115.8042978}, {"type": "node", "id": 281222960, "lat": -31.8824548, "lon": 115.802908}, {"type": "node", "id": 281222961, "lat": -31.8824947, "lon": 115.803758}, {"type": "node", "id": 281222962, "lat": -31.8826233, "lon": 115.8043481}, {"type": "node", "id": 281222963, "lat": -31.8827924, "lon": 115.8048122}, {"type": "node", "id": 281222964, "lat": -31.8832748, "lon": 115.8056586}, {"type": "node", "id": 281223178, "lat": -31.8824455, "lon": 115.8019298}, {"type": "node", "id": 281223517, "lat": -31.8836778, "lon": 115.8059555}, {"type": "node", "id": 281223520, "lat": -31.8826293, "lon": 115.8037614}, {"type": "node", "id": 281224066, "lat": -31.8823278, "lon": 115.7938033}, {"type": "node", "id": 438165012, "lat": -31.8825122, "lon": 115.7999448, "tags": {"crossing": "traffic_signals", "highway": "crossing"}}, {"type": "node", "id": 438165013, "lat": -31.8823723, "lon": 115.7999406, "tags": {"crossing": "traffic_signals", "highway": "crossing"}}, {"type": "node", "id": 442962455, "lat": -31.8824601, "lon": 115.8033544}, {"type": "node", "id": 2552492128, "lat": -31.8825446, "lon": 115.7974858}, {"type": "node", "id": 4596424690, "lat": -31.8823741, "lon": 115.8000179}, {"type": "node", "id": 4596424693, "lat": -31.8823714, "lon": 115.799911, "tags": {"highway": "traffic_signals", "traffic_signals:direction": "forward"}}, {"type": "node", "id": 4596424694, "lat": -31.8823755, "lon": 115.8001743}, {"type": "node", "id": 4596424695, "lat": -31.8823767, "lon": 115.8002722}, {"type": "node", "id": 4596424700, "lat": -31.8824143, "lon": 115.8010306}, {"type": "node", "id": 4596424701, "lat": -31.8824213, "lon": 115.8012319, "tags": {"highway": "traffic_signals", "traffic_signals:direction": "forward"}}, {"type": "node", "id": 4596424706, "lat": -31.8824351, "lon": 115.8016313}, {"type": "node", "id": 4596424710, "lat": -31.8825109, "lon": 115.8000373, "tags": {"highway": "traffic_signals"}}, {"type": "node", "id": 4596424713, "lat": -31.8825087, "lon": 115.8001613, "tags": {"highway": "traffic_signals", "traffic_signals:direction": "forward"}}, {"type": "node", "id": 4596424714, "lat": -31.8825135, "lon": 115.8002835}, {"type": "node", "id": 4596424715, "lat": -31.8825188, "lon": 115.799623}, {"type": "node", "id": 4596424721, "lat": -31.8825551, "lon": 115.8010397}, {"type": "node", "id": 4596424722, "lat": -31.8825604, "lon": 115.8012425}, {"type": "node", "id": 4596424723, "lat": -31.8825608, "lon": 115.8014104}, {"type": "node", "id": 4596424724, "lat": -31.8825676, "lon": 115.8015164, "tags": {"highway": "traffic_signals", "traffic_signals:direction": "forward"}}, {"type": "node", "id": 4596424726, "lat": -31.882565, "lon": 115.8020588}, {"type": "node", "id": 4596424727, "lat": -31.8825705, "lon": 115.8022719}, {"type": "node", "id": 4605525985, "lat": -31.8824293, "lon": 115.8013826}, {"type": "node", "id": 4628844732, "lat": -31.891612, "lon": 115.8023541}, {"type": "node", "id": 4628844737, "lat": -31.8918907, "lon": 115.8024913}, {"type": "node", "id": 4628844743, "lat": -31.8921967, "lon": 115.8026657}, {"type": "node", "id": 4640427207, "lat": -31.8861703, "lon": 115.801346}, {"type": "node", "id": 4640427208, "lat": -31.8840291, "lon": 115.8010272}, {"type": "node", "id": 4640427209, "lat": -31.8851212, "lon": 115.801176}, {"type": "node", "id": 4640427210, "lat": -31.8851578, "lon": 115.8007986}, {"type": "node", "id": 4640427213, "lat": -31.8828548, "lon": 115.8008973}, {"type": "node", "id": 4656566368, "lat": -31.8825366, "lon": 115.7988611}, {"type": "node", "id": 4656566369, "lat": -31.8823672, "lon": 115.7988545}, {"type": "node", "id": 4656566370, "lat": -31.8825459, "lon": 115.7980576}, {"type": "node", "id": 4656566371, "lat": -31.8823637, "lon": 115.7985016}, {"type": "node", "id": 4656566372, "lat": -31.8823603, "lon": 115.7979355}, {"type": "node", "id": 4662857107, "lat": -31.880266, "lon": 115.8002466}, {"type": "node", "id": 4662857114, "lat": -31.8906089, "lon": 115.8019463}, {"type": "node", "id": 4662857118, "lat": -31.8833494, "lon": 115.8005377}, {"type": "node", "id": 4662857119, "lat": -31.8905778, "lon": 115.8023329}, {"type": "node", "id": 4663348459, "lat": -31.8813402, "lon": 115.8007847}, {"type": "node", "id": 4663348477, "lat": -31.8843673, "lon": 115.8010705}, {"type": "node", "id": 4663348797, "lat": -31.8792823, "lon": 115.8007396}, {"type": "node", "id": 4663348799, "lat": -31.8817617, "lon": 115.8008145}, {"type": "node", "id": 4663348803, "lat": -31.8916944, "lon": 115.8028192}, {"type": "node", "id": 4675763654, "lat": -31.8918806, "lon": 115.80292}, {"type": "node", "id": 4690617210, "lat": -31.8882569, "lon": 115.801383}, {"type": "node", "id": 6243690963, "lat": -31.8826627, "lon": 115.8039124}, {"type": "node", "id": 6243690964, "lat": -31.8825889, "lon": 115.8033919}, {"type": "node", "id": 6243690965, "lat": -31.8824761, "lon": 115.8035883}, {"type": "node", "id": 6243690966, "lat": -31.8825411, "lon": 115.804055}, {"type": "node", "id": 6243698805, "lat": -31.8838779, "lon": 115.8061949}, {"type": "node", "id": 6243698806, "lat": -31.8835332, "lon": 115.8057709}, {"type": "node", "id": 6243698814, "lat": -31.8836306, "lon": 115.8058953}, {"type": "node", "id": 6243698818, "lat": -31.8831492, "lon": 115.8052433}, {"type": "node", "id": 6243698819, "lat": -31.882926, "lon": 115.8051118}, {"type": "node", "id": 6244270118, "lat": -31.8823171, "lon": 115.7964932}, {"type": "node", "id": 6244270119, "lat": -31.8825068, "lon": 115.7964771}, {"type": "node", "id": 6280810452, "lat": -31.8777327, "lon": 115.8001483}, {"type": "node", "id": 6280810453, "lat": -31.8775588, "lon": 115.8007858}, {"type": "node", "id": 6280829957, "lat": -31.8824963, "lon": 115.7942757}, {"type": "node", "id": 6280837085, "lat": -31.8823219, "lon": 115.7952829}, {"type": "node", "id": 6280981781, "lat": -31.8825242, "lon": 115.8004781}, {"type": "node", "id": 6280981782, "lat": -31.8825458, "lon": 115.7980134}, {"type": "node", "id": 6285445596, "lat": -31.8823799, "lon": 115.8003375}, {"type": "node", "id": 6285445597, "lat": -31.8824082, "lon": 115.8009077}, {"type": "node", "id": 6298516134, "lat": -31.882319, "lon": 115.7963692, "tags": {"highway": "traffic_signals", "traffic_signals:direction": "forward"}}, {"type": "node", "id": 6298516135, "lat": -31.882319, "lon": 115.7960446}, {"type": "node", "id": 6298516136, "lat": -31.8825115, "lon": 115.7966682, "tags": {"highway": "traffic_signals", "traffic_signals:direction": "forward"}}, {"type": "node", "id": 9952673643, "lat": -31.8823223, "lon": 115.7966522, "tags": {"highway": "crossing"}}, {"type": "node", "id": 9952673644, "lat": -31.8825109, "lon": 115.7966554, "tags": {"highway": "crossing"}}, {"type": "way", "id": 4822524, "nodes": [30995152, 4663348459, 4663348799, 32032586], "tags": {"highway": "motorway", "lanes": "4", "maxspeed": "100", "name": "Mitchell Freeway", "network": "AU:WA:S", "oneway": "yes", "ref": "2", "surface": "asphalt", "turn:lanes": "slight_left;through|none|none|none"}}, {"type": "way", "id": 4828214, "nodes": [4596424710, 438165012, 4596424715, 4656566368, 4656566370, 6280981782], "tags": {"bicycle": "yes", "foot": "yes", "highway": "trunk", "lanes": "2", "maxspeed": "70", "name": "Karrinyup Road", "network": "AU:WA:S", "oneway": "yes", "ref": "76", "surface": "asphalt"}}, {"type": "way", "id": 25783526, "nodes": [4605525985, 4596424706, 281223178, 281222960, 442962455, 6243690965, 281222961, 6243690966, 281222962, 281222963, 6243698819, 281222964], "tags": {"highway": "trunk", "lanes": "2", "maxspeed": "70", "name": "Karrinyup Road", "network": "AU:WA:S", "oneway": "yes", "ref": "76", "source:lanes": "Esri World Imagery", "surface": "paved"}}, {"type": "way", "id": 44387395, "nodes": [277758310, 9952673643, 4656566372, 4656566371, 4656566369, 277758180, 4596424693, 438165013, 4596424690, 4596424694, 4596424695], "tags": {"bicycle": "yes", "foot": "yes", "highway": "trunk", "lanes": "2", "maxspeed": "70", "name": "Karrinyup Road", "network": "AU:WA:S", "oneway": "yes", "ref": "76", "surface": "asphalt"}}, {"type": "way", "id": 464542063, "nodes": [4596424695, 6285445596], "tags": {"bridge": "yes", "highway": "trunk", "lanes": "2", "layer": "1", "maxspeed": "70", "name": "Karrinyup Road", "network": "AU:WA:S", "oneway": "yes", "ref": "76", "source:lanes": "Esri World Imagery", "source:maxspeed": "https://portal-mainroads.opendata.arcgis.com/datasets", "surface": "paved"}}, {"type": "way", "id": 464542064, "nodes": [4596424721, 6280981781], "tags": {"bridge": "yes", "highway": "trunk", "lanes": "2", "layer": "1", "maxspeed": "70", "name": "Karrinyup Road", "network": "AU:WA:S", "oneway": "yes", "ref": "76", "source:lanes": "Esri World Imagery", "source:maxspeed": "https://portal-mainroads.opendata.arcgis.com/datasets", "surface": "paved"}}, {"type": "way", "id": 472044613, "nodes": [31037365, 51940564, 4628844743, 4628844737, 4628844732, 31037367, 4662857114, 51940530, 4690617210, 31037376, 32032633, 4640427210, 4662857118], "tags": {"highway": "motorway", "lanes": "3", "maxspeed": "80", "name": "Mitchell Freeway", "network": "AU:WA:S", "oneway": "yes", "ref": "2", "surface": "asphalt"}}, {"type": "way", "id": 472044614, "nodes": [4662857118, 32032159], "tags": {"highway": "motorway", "lanes": "4", "maxspeed": "100", "name": "Mitchell Freeway", "network": "AU:WA:S", "oneway": "yes", "ref": "2", "surface": "asphalt"}}, {"type": "way", "id": 472101857, "nodes": [30995151, 4663348797, 30995152], "tags": {"highway": "motorway", "lanes": "4", "maxspeed": "100", "name": "Mitchell Freeway", "network": "AU:WA:S", "oneway": "yes", "ref": "2", "surface": "asphalt"}}, {"type": "way", "id": 472101859, "nodes": [4663348477, 4640427209, 4640427207], "tags": {"highway": "motorway", "lanes": "4", "maxspeed": "100", "name": "Mitchell Freeway", "network": "AU:WA:S", "oneway": "yes", "ref": "2", "surface": "asphalt", "turn:lanes": "merge_to_right|merge_to_left|none|none"}}, {"type": "way", "id": 472101873, "nodes": [32032586, 4640427213, 51940619, 4640427208, 4663348477], "tags": {"highway": "motorway", "lanes": "4", "maxspeed": "100", "name": "Mitchell Freeway", "network": "AU:WA:S", "oneway": "yes", "ref": "2", "surface": "asphalt"}}, {"type": "way", "id": 475472447, "nodes": [6243698805, 281222836, 281223517, 6243698814, 6243698806, 281222835, 6243698818, 281222834, 281222872, 6243690963, 281223520, 6243690964, 281222831, 4596424727, 4596424726], "tags": {"highway": "trunk", "lanes": "2", "maxspeed": "70", "name": "Karrinyup Road", "network": "AU:WA:S", "oneway": "yes", "ref": "76", "source:lanes": "Esri World Imagery", "surface": "paved"}}, {"type": "way", "id": 501862016, "nodes": [4640427207, 30995153, 51940540, 4662857119, 30995154, 4663348803, 4675763654, 51940547, 30995155], "tags": {"highway": "motorway", "lanes": "4", "maxspeed": "100", "name": "Mitchell Freeway", "network": "AU:WA:S", "oneway": "yes", "ref": "2", "surface": "asphalt"}}, {"type": "way", "id": 577263313, "nodes": [4596424722, 4596424721], "tags": {"highway": "trunk", "lanes": "2", "maxspeed": "70", "name": "Karrinyup Road", "network": "AU:WA:S", "oneway": "yes", "ref": "76", "source:lanes": "Esri World Imagery", "surface": "paved"}}, {"type": "way", "id": 577263314, "nodes": [4596424700, 4596424701, 4605525985], "tags": {"highway": "trunk", "lanes": "4", "maxspeed": "70", "name": "Karrinyup Road", "network": "AU:WA:S", "oneway": "yes", "ref": "76", "source:lanes": "Esri World Imagery", "surface": "paved", "turn:lanes": "through|through|right|right"}}, {"type": "way", "id": 666837675, "nodes": [2552492128, 6298516136, 9952673644, 31037086, 6244270119], "tags": {"bicycle": "yes", "foot": "yes", "highway": "trunk", "lanes": "3", "maxspeed": "70", "name": "Karrinyup Road", "network": "AU:WA:S", "oneway": "yes", "ref": "76", "source:lanes": "Esri World Imagery", "surface": "asphalt", "turn:lanes": "||right"}}, {"type": "way", "id": 670703547, "nodes": [31037175, 6280810452], "tags": {"bicycle": "no", "foot": "no", "highway": "motorway", "horse": "no", "lanes": "5", "maxspeed": "100", "name": "Mitchell Freeway", "network": "AU:WA:S", "oneway": "yes", "ref": "2", "source:lanes": "Esri World Imagery", "surface": "asphalt", "turn:lanes": "merge_to_right||||"}}, {"type": "way", "id": 670703549, "nodes": [6280810453, 30995151], "tags": {"highway": "motorway", "lanes": "4", "maxspeed": "100", "name": "Mitchell Freeway", "network": "AU:WA:S", "oneway": "yes", "ref": "2", "surface": "asphalt", "turn:lanes": "slight_left;through|none|none|none"}}, {"type": "way", "id": 670706545, "nodes": [281224066, 6280837085], "tags": {"bicycle": "yes", "foot": "yes", "highway": "trunk", "lanes": "2", "maxspeed": "70", "name": "Karrinyup Road", "network": "AU:WA:S", "oneway": "yes", "ref": "76", "surface": "asphalt"}}, {"type": "way", "id": 670706547, "nodes": [6280837085, 6298516135, 6298516134, 6244270118, 277758310], "tags": {"bicycle": "yes", "foot": "yes", "highway": "trunk", "lanes": "2", "maxspeed": "70", "name": "Karrinyup Road", "network": "AU:WA:S", "oneway": "yes", "ref": "76", "source:lanes": "Esri World Imagery", "surface": "asphalt", "turn:lanes": "left|"}}, {"type": "way", "id": 670715560, "nodes": [4596424723, 4596424722], "tags": {"highway": "trunk", "lanes": "2", "maxspeed": "70", "name": "Karrinyup Road", "network": "AU:WA:S", "oneway": "yes", "ref": "76", "source:lanes": "Esri World Imagery", "surface": "paved"}}, {"type": "way", "id": 670715561, "nodes": [4596424726, 4596424724, 4596424723], "tags": {"highway": "trunk", "lanes": "2", "maxspeed": "70", "name": "Karrinyup Road", "network": "AU:WA:S", "oneway": "yes", "ref": "76", "source:lanes": "Esri World Imagery", "surface": "paved", "turn:lanes": "|through"}}, {"type": "way", "id": 670715562, "nodes": [4596424714, 4596424713, 4596424710], "tags": {"bicycle": "yes", "foot": "yes", "highway": "trunk", "lanes": "3", "maxspeed": "70", "name": "Karrinyup Road", "network": "AU:WA:S", "oneway": "yes", "ref": "76", "surface": "asphalt", "turn:lanes": "through||right"}}, {"type": "way", "id": 670715563, "nodes": [6280981781, 4596424714], "tags": {"bridge": "yes", "highway": "trunk", "lanes": "3", "layer": "1", "maxspeed": "70", "name": "Karrinyup Road", "network": "AU:WA:S", "oneway": "yes", "ref": "76", "source:maxspeed": "https://portal-mainroads.opendata.arcgis.com/datasets", "surface": "paved", "turn:lanes": "through||right"}}, {"type": "way", "id": 670715564, "nodes": [6244270119, 6280829957], "tags": {"bicycle": "yes", "foot": "yes", "highway": "trunk", "lanes": "2", "maxspeed": "70", "name": "Karrinyup Road", "network": "AU:WA:S", "oneway": "yes", "ref": "76", "surface": "asphalt"}}, {"type": "way", "id": 670715565, "nodes": [6280981782, 2552492128], "tags": {"bicycle": "yes", "foot": "yes", "highway": "trunk", "lanes": "3", "maxspeed": "70", "name": "Karrinyup Road", "network": "AU:WA:S", "oneway": "yes", "ref": "76", "source:lanes": "Esri World Imagery", "surface": "asphalt", "turn:lanes": "||right"}}, {"type": "way", "id": 671195861, "nodes": [6285445596, 6285445597], "tags": {"bridge": "yes", "highway": "trunk", "lanes": "3", "layer": "1", "maxspeed": "70", "name": "Karrinyup Road", "network": "AU:WA:S", "oneway": "yes", "ref": "76", "source:lanes": "Esri World Imagery", "source:maxspeed": "https://portal-mainroads.opendata.arcgis.com/datasets", "surface": "paved", "turn:lanes": "through|through|right"}}, {"type": "way", "id": 671195862, "nodes": [6285445597, 4596424700], "tags": {"bridge": "yes", "highway": "trunk", "lanes": "4", "layer": "1", "maxspeed": "70", "name": "Karrinyup Road", "network": "AU:WA:S", "oneway": "yes", "ref": "76", "source:lanes": "Esri World Imagery", "source:maxspeed": "https://portal-mainroads.opendata.arcgis.com/datasets", "surface": "paved", "turn:lanes": "through|through|right|right"}}, {"type": "way", "id": 671233556, "nodes": [32032159, 31037082, 4662857107, 51940649, 31037175], "tags": {"bicycle": "no", "foot": "no", "highway": "motorway", "horse": "no", "lanes": "4", "maxspeed": "100", "name": "Mitchell Freeway", "network": "AU:WA:S", "oneway": "yes", "ref": "2", "surface": "asphalt"}}]}