{"version": 0.6, "generator": "Overpass API 0.7.61.5 4133829e", "osm3s": {"timestamp_osm_base": "2023-12-06T11:37:21Z", "copyright": "The data included in this document is from www.openstreetmap.org. The data is made available under ODbL."}, "elements": [{"type": "node", "id": 12549288, "lat": -35.1833141, "lon": 149.1260485}, {"type": "node", "id": 12657733, "lat": -35.18295, "lon": 149.1257754}, {"type": "node", "id": 12657736, "lat": -35.1831231, "lon": 149.1261532}, {"type": "node", "id": 21759601, "lat": -35.1818371, "lon": 149.1285165}, {"type": "node", "id": 21759605, "lat": -35.1819311, "lon": 149.1286061}, {"type": "node", "id": 21759607, "lat": -35.1817704, "lon": 149.128659}, {"type": "node", "id": 21759628, "lat": -35.1799705, "lon": 149.1331664}, {"type": "node", "id": 21759629, "lat": -35.1800227, "lon": 149.1327459}, {"type": "node", "id": 21759630, "lat": -35.1801505, "lon": 149.1322386}, {"type": "node", "id": 21759632, "lat": -35.1802982, "lon": 149.1317499}, {"type": "node", "id": 25331193, "lat": -35.1884298, "lon": 149.1223789}, {"type": "node", "id": 32865166, "lat": -35.1818588, "lon": 149.1287542}, {"type": "node", "id": 231307354, "lat": -35.1810266, "lon": 149.13029}, {"type": "node", "id": 659672778, "lat": -35.1833516, "lon": 149.1258363}, {"type": "node", "id": 659672779, "lat": -35.1830132, "lon": 149.1256823}, {"type": "node", "id": 659672780, "lat": -35.1829277, "lon": 149.125889}, {"type": "node", "id": 659672781, "lat": -35.1832512, "lon": 149.1261177}, {"type": "node", "id": 667073268, "lat": -35.1808029, "lon": 149.1307384}, {"type": "node", "id": 673042081, "lat": -35.188287, "lon": 149.1219489}, {"type": "node", "id": 673042084, "lat": -35.1883092, "lon": 149.1222319, "tags": {"crossing": "traffic_signals", "highway": "traffic_signals", "traffic_signals:direction": "forward"}}, {"type": "node", "id": 673042085, "lat": -35.1880876, "lon": 149.1219653}, {"type": "node", "id": 673042089, "lat": -35.1883675, "lon": 149.1223038}, {"type": "node", "id": 673045626, "lat": -35.1874076, "lon": 149.120831}, {"type": "node", "id": 673045645, "lat": -35.1864652, "lon": 149.1199414}, {"type": "node", "id": 673045651, "lat": -35.1855242, "lon": 149.1210388}, {"type": "node", "id": 777911995, "lat": -35.1857103, "lon": 149.1206697}, {"type": "node", "id": 1603624228, "lat": -35.1872967, "lon": 149.1209415}, {"type": "node", "id": 1777707824, "lat": -35.1833564, "lon": 149.1258853}, {"type": "node", "id": 1777707874, "lat": -35.1829762, "lon": 149.1257258}, {"type": "node", "id": 1777707875, "lat": -35.1830287, "lon": 149.1261145}, {"type": "node", "id": 1777707886, "lat": -35.1832765, "lon": 149.1260963}, {"type": "node", "id": 1777707897, "lat": -35.183222, "lon": 149.1261353}, {"type": "node", "id": 1777707909, "lat": -35.1833408, "lon": 149.1259903}, {"type": "node", "id": 1777707910, "lat": -35.1829326, "lon": 149.1258364}, {"type": "node", "id": 1777707911, "lat": -35.183127, "lon": 149.1256303}, {"type": "node", "id": 4880020024, "lat": -35.1875675, "lon": 149.1212965}, {"type": "node", "id": 5183476268, "lat": -35.1838324, "lon": 149.1247123, "tags": {"bus": "yes", "gtfs_id": "6030", "name": "Gundaroo Drive before Nari Street", "network": "Transport Canberra", "public_transport": "stop_position", "ref": "6030"}}, {"type": "node", "id": 5183476789, "lat": -35.1839288, "lon": 149.1244772, "tags": {"bus": "yes", "gtfs_id": "6031", "name": "Gundaroo Drive after Ginn Street", "network": "Transport Canberra", "public_transport": "stop_position", "ref": "6031"}}, {"type": "node", "id": 5485550696, "lat": -35.1818285, "lon": 149.1288173}, {"type": "node", "id": 5485550700, "lat": -35.1812198, "lon": 149.1300026, "tags": {"crossing": "unmarked", "crossing:island": "no", "highway": "crossing", "tactile_paving": "no"}}, {"type": "node", "id": 5485550703, "lat": -35.1808669, "lon": 149.1307912}, {"type": "node", "id": 5485550704, "lat": -35.1802303, "lon": 149.1320276}, {"type": "node", "id": 5485550705, "lat": -35.1800735, "lon": 149.1325113}, {"type": "node", "id": 5485550706, "lat": -35.179995, "lon": 149.1329571}, {"type": "node", "id": 5485550711, "lat": -35.1801147, "lon": 149.1321509}, {"type": "node", "id": 5485550712, "lat": -35.1801804, "lon": 149.1320061}, {"type": "node", "id": 5485550713, "lat": -35.1803492, "lon": 149.1317794}, {"type": "node", "id": 5485551124, "lat": -35.1815369, "lon": 149.1294174}, {"type": "node", "id": 5499309721, "lat": -35.1809737, "lon": 149.1305888}, {"type": "node", "id": 5499309725, "lat": -35.1807154, "lon": 149.1310812}, {"type": "node", "id": 6192226025, "lat": -35.1822324, "lon": 149.1279862}, {"type": "node", "id": 6246232725, "lat": -35.1878794, "lon": 149.1217057}, {"type": "node", "id": 6246232726, "lat": -35.186831, "lon": 149.1201333}, {"type": "node", "id": 6247240552, "lat": -35.1832987, "lon": 149.1254829}, {"type": "node", "id": 6247240553, "lat": -35.1829467, "lon": 149.1259998}, {"type": "node", "id": 6247240556, "lat": -35.1825007, "lon": 149.1270997}, {"type": "node", "id": 6247240558, "lat": -35.1832682, "lon": 149.1256798}, {"type": "node", "id": 6247240562, "lat": -35.1833529, "lon": 149.1259394}, {"type": "node", "id": 6247240565, "lat": -35.1834961, "lon": 149.1250751}, {"type": "node", "id": 6247240566, "lat": -35.1845247, "lon": 149.1226872}, {"type": "node", "id": 6247240567, "lat": -35.1837691, "lon": 149.1244521}, {"type": "node", "id": 6247240568, "lat": -35.1853886, "lon": 149.1209281}, {"type": "node", "id": 6247240569, "lat": -35.1838531, "lon": 149.1242342, "tags": {"bus": "yes", "gtfs_id": "6031", "name": "Gundaroo Drive after Ginn Street", "network": "Transport Canberra", "public_transport": "stop_position", "ref": "6031"}}, {"type": "node", "id": 6247240570, "lat": -35.1855749, "lon": 149.1205774}, {"type": "node", "id": 6292608234, "lat": -35.1827148, "lon": 149.1269935}, {"type": "node", "id": 6292608240, "lat": -35.1824207, "lon": 149.1272707}, {"type": "node", "id": 6419831392, "lat": -35.1811723, "lon": 149.1299693, "tags": {"crossing": "unmarked", "crossing:island": "no", "highway": "crossing", "tactile_paving": "no"}}, {"type": "node", "id": 6422637192, "lat": -35.1818753, "lon": 149.1284339, "tags": {"button_operated": "yes", "crossing": "traffic_signals", "highway": "crossing", "tactile_paving": "no", "traffic_signals:sound": "yes", "traffic_signals:vibration": "yes"}}, {"type": "node", "id": 6422637194, "lat": -35.1818917, "lon": 149.128402}, {"type": "node", "id": 6422637197, "lat": -35.1816304, "lon": 149.1289609}, {"type": "node", "id": 6422637199, "lat": -35.1820436, "lon": 149.1283747}, {"type": "node", "id": 6422637204, "lat": -35.1839567, "lon": 149.1239721}, {"type": "node", "id": 6422637207, "lat": -35.1834146, "lon": 149.1256171, "tags": {"crossing": "unmarked", "crossing:island": "no", "highway": "crossing", "tactile_paving": "no"}}, {"type": "node", "id": 6422637208, "lat": -35.1832789, "lon": 149.125503, "tags": {"crossing": "unmarked", "crossing:island": "no", "highway": "crossing", "tactile_paving": "no"}}, {"type": "node", "id": 6566616485, "lat": -35.18431, "lon": 149.1231253}, {"type": "node", "id": 6566616486, "lat": -35.1840857, "lon": 149.1236472}, {"type": "node", "id": 6970851549, "lat": -35.1819705, "lon": 149.1285254, "tags": {"button_operated": "yes", "crossing": "traffic_signals", "highway": "crossing", "tactile_paving": "no", "traffic_signals:sound": "yes", "traffic_signals:vibration": "yes"}}, {"type": "node", "id": 6970851553, "lat": -35.1817341, "lon": 149.1287392, "tags": {"button_operated": "yes", "crossing": "traffic_signals", "highway": "crossing", "tactile_paving": "no", "traffic_signals:sound": "yes", "traffic_signals:vibration": "yes"}}, {"type": "node", "id": 6970851554, "lat": -35.1818192, "lon": 149.1288364, "tags": {"button_operated": "yes", "crossing": "traffic_signals", "highway": "crossing", "tactile_paving": "no", "traffic_signals:sound": "yes", "traffic_signals:vibration": "yes"}}, {"type": "node", "id": 6976437939, "lat": -35.1829323, "lon": 149.125946}, {"type": "node", "id": 6976437940, "lat": -35.1830553, "lon": 149.1256521}, {"type": "node", "id": 6976437941, "lat": -35.1831977, "lon": 149.1256386}, {"type": "node", "id": 6976437942, "lat": -35.1833108, "lon": 149.1257301}, {"type": "node", "id": 6976437943, "lat": -35.1829951, "lon": 149.1260828}, {"type": "node", "id": 6976437944, "lat": -35.18309, "lon": 149.1256375}, {"type": "node", "id": 6976437945, "lat": -35.1830914, "lon": 149.1261468}, {"type": "node", "id": 6976437946, "lat": -35.1833388, "lon": 149.1257877}, {"type": "node", "id": 7180809193, "lat": -35.1832345, "lon": 149.1256553}, {"type": "node", "id": 7180809194, "lat": -35.1831734, "lon": 149.1261514}, {"type": "node", "id": 7180809195, "lat": -35.1829676, "lon": 149.1260442}, {"type": "node", "id": 7180809196, "lat": -35.1828798, "lon": 149.1262888}, {"type": "node", "id": 7180809198, "lat": -35.1813608, "lon": 149.1296864}, {"type": "node", "id": 7180953649, "lat": -35.1850406, "lon": 149.1221016}, {"type": "node", "id": 7180953650, "lat": -35.184397, "lon": 149.1234099}, {"type": "node", "id": 7180953656, "lat": -35.1841834, "lon": 149.1234198, "tags": {"button_operated": "yes", "crossing": "traffic_signals", "highway": "crossing", "tactile_paving": "no", "traffic_signals:sound": "yes", "traffic_signals:vibration": "yes"}}, {"type": "node", "id": 7180953657, "lat": -35.1843199, "lon": 149.1235828, "tags": {"button_operated": "yes", "crossing": "traffic_signals", "highway": "crossing", "tactile_paving": "no", "traffic_signals:sound": "yes", "traffic_signals:vibration": "yes"}}, {"type": "node", "id": 7181108365, "lat": -35.1842162, "lon": 149.1233435, "tags": {"highway": "traffic_signals", "traffic_signals": "traffic_lights", "traffic_signals:direction": "forward"}}, {"type": "node", "id": 7181108366, "lat": -35.1842853, "lon": 149.1236507, "tags": {"highway": "traffic_signals", "traffic_signals": "traffic_lights", "traffic_signals:direction": "forward"}}, {"type": "node", "id": 7181108368, "lat": -35.1847869, "lon": 149.1226132}, {"type": "node", "id": 7181108369, "lat": -35.1845733, "lon": 149.1230468}, {"type": "node", "id": 7181108370, "lat": -35.1840728, "lon": 149.1241219}, {"type": "node", "id": 7181108371, "lat": -35.183659, "lon": 149.1250974}, {"type": "node", "id": 7181111111, "lat": -35.1817178, "lon": 149.1287739}, {"type": "node", "id": 7181111119, "lat": -35.1807303, "lon": 149.1308837, "tags": {"crossing": "unmarked", "crossing:island": "no", "crossing:markings": "no", "highway": "crossing", "tactile_paving": "no"}}, {"type": "node", "id": 7181111120, "lat": -35.1807934, "lon": 149.1309324, "tags": {"crossing": "unmarked", "crossing:island": "no", "crossing:markings": "no", "highway": "crossing", "tactile_paving": "no"}}, {"type": "node", "id": 7363461386, "lat": -35.1827043, "lon": 149.1266645}, {"type": "node", "id": 7363640954, "lat": -35.1813878, "lon": 149.1294955}, {"type": "node", "id": 7363640955, "lat": -35.1820435, "lon": 149.1280773}, {"type": "node", "id": 9170916329, "lat": -35.1829844, "lon": 149.1264387}, {"type": "node", "id": 9170916330, "lat": -35.1829565, "lon": 149.1264961}, {"type": "node", "id": 9170916332, "lat": -35.1828975, "lon": 149.1262124, "tags": {"crossing": "unmarked", "highway": "crossing"}}, {"type": "node", "id": 9170916333, "lat": -35.1830444, "lon": 149.1263151, "tags": {"crossing": "unmarked", "highway": "crossing"}}, {"type": "way", "id": 4844962, "nodes": [32865166, 21759605], "tags": {"highway": "primary", "lanes": "2", "name": "Gundaroo Drive", "source": "yahoo", "source:lanes": "ACTmapi Imagery 2018", "surface": "paved"}}, {"type": "way", "id": 4844963, "nodes": [12657736, 7180809194, 1777707897, 659672781, 1777707886, 12549288], "tags": {"highway": "primary", "junction": "roundabout", "lanes": "2", "maxspeed": "80", "noname": "yes", "surface": "asphalt"}}, {"type": "way", "id": 4844966, "nodes": [6247240553, 9170916332, 7180809196], "tags": {"highway": "primary", "lanes": "2", "maxspeed": "80", "name": "Gundaroo Drive", "oneway": "yes", "source:geometry": "ACT2018", "source:lanes": "ACTmapi Imagery 2018", "surface": "asphalt", "turn:lanes": "left|through;right"}}, {"type": "way", "id": 4844967, "nodes": [7180953650, 7181108369, 7181108368, 7180953649], "tags": {"cycleway:left": "share_busway", "highway": "primary", "lanes": "2", "maxspeed": "80", "name": "Gundaroo Drive", "oneway": "yes", "source:geometry": "ACT2016", "surface": "paved"}}, {"type": "way", "id": 52057064, "nodes": [21759607, 6970851553, 7181111111, 6422637197], "tags": {"highway": "primary", "lanes": "1", "maxspeed": "60", "name": "Gundaroo Drive", "oneway": "yes", "source:geometry": "LPI NSW Imagery", "source:maxspeed": "Mapillary", "source:name": "LPI NSW Base Map", "surface": "paved", "surface:grade": "3"}}, {"type": "way", "id": 491710230, "nodes": [673042081, 673045626, 6246232726], "tags": {"cycleway:left": "no", "highway": "primary", "lanes": "2", "maxspeed": "80", "name": "Gungahlin Drive", "noref": "yes", "oneway": "yes", "source:geometry": "ACT2016", "surface": "asphalt"}}, {"type": "way", "id": 491710234, "nodes": [673042085, 673042084, 673042089, 25331193], "tags": {"cycleway:left": "lane", "highway": "primary", "lanes": "3", "maxspeed": "80", "name": "Gungahlin Drive", "noref": "yes", "oneway": "yes", "source:geometry": "ACT2016", "surface": "asphalt", "turn:lanes": "||right"}}, {"type": "way", "id": 570561340, "nodes": [5485550713, 5499309725, 7181111120, 5485550703, 5499309721], "tags": {"highway": "primary", "lanes": "1", "name": "Gundaroo Drive", "oneway": "yes", "source:geometry": "LPI NSW Imagery", "source:name": "LPI NSW Base Map", "surface": "paved", "surface:grade": "3"}}, {"type": "way", "id": 661419080, "nodes": [21759605, 6970851549, 6422637199], "tags": {"highway": "primary", "lanes": "2", "maxspeed": "80", "name": "Gundaroo Drive", "oneway": "yes", "source:geometry": "ACT2018", "source:lanes": "ACTmapi Imagery 2018", "surface": "paved"}}, {"type": "way", "id": 661419081, "nodes": [6192226025, 6292608234], "tags": {"cycleway:left": "lane", "highway": "primary", "lanes": "2", "maxspeed": "80", "name": "Gundaroo Drive", "oneway": "yes", "source:geometry": "ACT2016", "surface": "paved"}}, {"type": "way", "id": 667109462, "nodes": [673045645, 1603624228, 4880020024, 6246232725], "tags": {"cycleway:left": "lane", "highway": "primary", "lanes": "2", "maxspeed": "80", "name": "Gungahlin Drive", "noref": "yes", "oneway": "yes", "source:geometry": "ACT2016", "surface": "asphalt"}}, {"type": "way", "id": 667114476, "nodes": [667073268, 7181111119, 21759632], "tags": {"highway": "primary", "lanes": "1", "maxspeed": "60", "name": "Gundaroo Drive", "oneway": "yes", "source:geometry": "LPI NSW Imagery", "source:maxspeed": "Mapillary", "source:name": "LPI NSW Base Map", "surface": "paved", "surface:grade": "3"}}, {"type": "way", "id": 667114478, "nodes": [231307354, 667073268], "tags": {"highway": "primary", "lanes": "2", "maxspeed": "60", "name": "Gundaroo Drive", "oneway": "yes", "source:geometry": "LPI NSW Imagery", "source:maxspeed": "Mapillary", "source:name": "LPI NSW Base Map", "surface": "paved", "surface:grade": "3", "turn:lanes": "|right"}}, {"type": "way", "id": 667233291, "nodes": [6247240570, 6247240568, 6247240566, 6566616485, 7181108365, 7180953656, 6566616486, 6422637204], "tags": {"cycleway:left": "lane", "highway": "primary", "lanes": "2", "maxspeed": "80", "name": "Gundaroo Drive", "oneway": "yes", "source:geometry": "ACT2016", "surface": "paved"}}, {"type": "way", "id": 671968521, "nodes": [673045651, 777911995], "tags": {"cycleway:left": "lane", "highway": "primary", "lanes": "5", "maxspeed": "80", "name": "Gundaroo Drive", "oneway": "yes", "source:geometry": "ACT2016", "surface": "paved"}}, {"type": "way", "id": 671968522, "nodes": [6292608234, 9170916330], "tags": {"cycleway:left": "lane", "highway": "primary", "lanes": "2", "maxspeed": "80", "name": "Gundaroo Drive", "oneway": "yes", "source:geometry": "ACT2016", "surface": "asphalt", "turn:lanes": "left;through|through;right"}}, {"type": "way", "id": 671968523, "nodes": [21759601, 21759607], "tags": {"highway": "primary", "lanes": "2", "name": "Gundaroo Drive", "surface": "paved"}}, {"type": "way", "id": 671968526, "nodes": [7363640955, 6422637194, 6422637192, 21759601], "tags": {"cycleway:left": "lane", "highway": "primary", "lanes": "3", "maxspeed": "80", "name": "Gundaroo Drive", "oneway": "yes", "source:geometry": "ACT2018", "source:lanes": "ACTmapi Imagery 2018", "surface": "paved", "turn:lanes": "||right"}}, {"type": "way", "id": 671968527, "nodes": [659672778, 6976437946, 6976437942, 6247240558, 7180809193, 6976437941, 1777707911], "tags": {"highway": "primary", "junction": "roundabout", "lanes": "1", "maxspeed": "80", "noname": "yes", "surface": "asphalt"}}, {"type": "way", "id": 671968528, "nodes": [6247240553, 7180809195, 6976437943, 1777707875, 6976437945, 12657736], "tags": {"cycleway:left": "no", "highway": "primary", "junction": "roundabout", "lanes": "1", "maxspeed": "80", "noname": "yes", "surface": "asphalt"}}, {"type": "way", "id": 671968529, "nodes": [1777707911, 6976437944, 6976437940, 659672779, 1777707874, 12657733], "tags": {"highway": "primary", "junction": "roundabout", "lanes": "2", "maxspeed": "80", "noname": "yes", "surface": "asphalt", "turn:lanes": "through|"}}, {"type": "way", "id": 671968530, "nodes": [6247240565, 6247240552, 6422637208, 1777707911], "tags": {"highway": "primary", "lanes": "2", "maxspeed": "80", "name": "Gundaroo Drive", "oneway": "yes", "source:geometry": "ACT2016", "surface": "asphalt", "turn:lanes": "left;through|right"}}, {"type": "way", "id": 685369775, "nodes": [21759605, 21759601], "tags": {"highway": "primary", "lanes": "2", "noname": "yes", "source:lanes": "ACTmapi Imagery 2018", "surface": "paved"}}, {"type": "way", "id": 685369776, "nodes": [21759607, 32865166], "tags": {"highway": "primary", "lanes": "2", "noname": "yes", "source": "yahoo", "source:lanes": "ACTmapi Imagery 2018", "surface": "paved"}}, {"type": "way", "id": 726508352, "nodes": [12549288, 1777707909, 6247240562], "tags": {"highway": "primary", "junction": "roundabout", "lanes": "2", "maxspeed": "80", "noname": "yes", "surface": "asphalt"}}, {"type": "way", "id": 726508353, "nodes": [12657733, 1777707910, 659672780, 6976437939, 6247240553], "tags": {"highway": "primary", "junction": "roundabout", "lanes": "2", "maxspeed": "80", "noname": "yes", "surface": "asphalt", "turn:lanes": "through|"}}, {"type": "way", "id": 726508354, "nodes": [659672778, 6422637207], "tags": {"highway": "primary", "lanes": "2", "maxspeed": "80", "name": "Gundaroo Drive", "oneway": "yes", "source:geometry": "ACT2016", "surface": "asphalt"}}, {"type": "way", "id": 726508355, "nodes": [6247240562, 1777707824, 659672778], "tags": {"cycleway:left": "no", "highway": "primary", "junction": "roundabout", "lanes": "2", "maxspeed": "80", "noname": "yes", "surface": "asphalt"}}, {"type": "way", "id": 732409124, "nodes": [6246232725, 673042085], "tags": {"cycleway:left": "lane", "highway": "primary", "lanes": "3", "maxspeed": "80", "name": "Gungahlin Drive", "noref": "yes", "oneway": "yes", "source:geometry": "ACT2016", "surface": "asphalt", "turn:lanes": "||right"}}, {"type": "way", "id": 735249002, "nodes": [5485551124, 6970851554, 5485550696, 32865166], "tags": {"highway": "primary", "lanes": "1", "name": "Gundaroo Drive", "oneway": "yes", "source:geometry": "LPI NSW Imagery", "source:name": "LPI NSW Base Map", "surface": "paved", "surface:grade": "3"}}, {"type": "way", "id": 745283425, "nodes": [21759628, 5485550706, 21759629, 5485550705, 21759630, 5485550704, 5485550713], "tags": {"highway": "primary", "lanes": "1", "name": "Gundaroo Drive", "oneway": "yes", "source": "nearmap", "source:lanes": "ACTmapi Imagery", "surface": "paved"}}, {"type": "way", "id": 769241701, "nodes": [7180809196, 7363461386, 6247240556], "tags": {"highway": "primary", "lanes": "2", "maxspeed": "80", "name": "Gundaroo Drive", "oneway": "yes", "source:geometry": "ACT2018", "source:lanes": "ACTmapi Imagery 2018", "surface": "asphalt", "turn:lanes": "left|through;right"}}, {"type": "way", "id": 769273674, "nodes": [5485550700, 7180809198, 5485551124], "tags": {"highway": "primary", "lanes": "1", "name": "Gundaroo Drive", "oneway": "yes", "source:geometry": "LPI NSW Imagery", "source:name": "LPI NSW Base Map", "surface": "paved", "surface:grade": "3"}}, {"type": "way", "id": 769273676, "nodes": [6422637197, 7363640954], "tags": {"highway": "primary", "lanes": "1", "maxspeed": "60", "name": "Gundaroo Drive", "oneway": "yes", "source:geometry": "LPI NSW Imagery", "source:maxspeed": "Mapillary", "source:name": "LPI NSW Base Map", "surface": "paved", "surface:grade": "3"}}, {"type": "way", "id": 769780757, "nodes": [6422637199, 6192226025], "tags": {"cycleway:left": "lane", "highway": "primary", "lanes": "2", "maxspeed": "80", "name": "Gundaroo Drive", "oneway": "yes", "source:geometry": "ACT2018", "source:lanes": "ACTmapi Imagery 2018", "surface": "paved"}}, {"type": "way", "id": 784213946, "nodes": [21759632, 5485550712, 5485550711], "tags": {"highway": "primary", "lanes": "1", "maxspeed": "60", "name": "Gundaroo Drive", "oneway": "yes", "source": "nearmap", "source:lanes": "ACTmapi Imagery", "source:maxspeed": "Mapillary", "surface": "paved"}}, {"type": "way", "id": 787555931, "nodes": [5499309721, 5485550700], "tags": {"highway": "primary", "lanes": "1", "name": "Gundaroo Drive", "oneway": "yes", "source:geometry": "LPI NSW Imagery", "source:name": "LPI NSW Base Map", "surface": "paved", "surface:grade": "3"}}, {"type": "way", "id": 787570260, "nodes": [7363640954, 6419831392, 231307354], "tags": {"highway": "primary", "lanes": "1", "maxspeed": "60", "name": "Gundaroo Drive", "oneway": "yes", "source:geometry": "LPI NSW Imagery", "source:maxspeed": "Mapillary", "source:name": "LPI NSW Base Map", "surface": "paved", "surface:grade": "3"}}, {"type": "way", "id": 787570261, "nodes": [6292608240, 7363640955], "tags": {"cycleway:left": "lane", "highway": "primary", "lanes": "4", "maxspeed": "80", "name": "Gundaroo Drive", "oneway": "yes", "source:geometry": "ACT2018", "source:lanes": "ACTmapi Imagery 2018", "surface": "paved", "turn:lanes": "left|||right"}}, {"type": "way", "id": 992611656, "nodes": [6247240556, 6292608240], "tags": {"cycleway:left": "lane", "highway": "primary", "lanes": "2", "maxspeed": "80", "name": "Gundaroo Drive", "oneway": "yes", "source:geometry": "ACT2018", "source:lanes": "ACTmapi Imagery 2018", "surface": "paved", "turn:lanes": "left|through;right"}}, {"type": "way", "id": 992611657, "nodes": [9170916330, 9170916329, 9170916333, 12657736], "tags": {"highway": "primary", "lanes": "2", "maxspeed": "80", "name": "Gundaroo Drive", "oneway": "yes", "source:geometry": "ACT2016", "surface": "asphalt", "turn:lanes": "left;through|through;right"}}, {"type": "way", "id": 992611660, "nodes": [6422637204, 6247240569, 6247240567, 6247240565], "tags": {"highway": "primary", "lanes": "2", "maxspeed": "80", "name": "Gundaroo Drive", "oneway": "yes", "source:geometry": "ACT2016", "surface": "asphalt"}}, {"type": "way", "id": 992611661, "nodes": [6422637207, 7181108371, 5183476268, 5183476789, 7181108370, 7181108366, 7180953657, 7180953650], "tags": {"cycleway:left": "lane", "highway": "primary", "lanes": "2", "maxspeed": "80", "name": "Gundaroo Drive", "oneway": "yes", "source:geometry": "ACT2016", "surface": "asphalt"}}, {"type": "way", "id": 992611662, "nodes": [7180953649, 673045651], "tags": {"cycleway:left": "lane", "highway": "primary", "lanes": "2", "maxspeed": "80", "name": "Gundaroo Drive", "oneway": "yes", "source:geometry": "ACT2016", "surface": "paved"}}, {"type": "way", "id": 1126606335, "nodes": [667073268, 5485550703], "tags": {"highway": "primary", "surface": "paved"}}]}