{"version": 0.6, "generator": "Overpass API 0.7.61.5 4133829e", "osm3s": {"timestamp_osm_base": "2023-12-08T07:39:01Z", "copyright": "The data included in this document is from www.openstreetmap.org. The data is made available under ODbL."}, "elements": [{"type": "node", "id": 31003495, "lat": -31.8974281, "lon": 115.8409503}, {"type": "node", "id": 31003515, "lat": -31.8999906, "lon": 115.8419575}, {"type": "node", "id": 31003518, "lat": -31.8943775, "lon": 115.8397403}, {"type": "node", "id": 31037042, "lat": -31.8890669, "lon": 115.8376766}, {"type": "node", "id": 31292209, "lat": -31.8890678, "lon": 115.8378047}, {"type": "node", "id": 31292212, "lat": -31.8905551, "lon": 115.8383826, "tags": {"crossing": "uncontrolled", "highway": "crossing"}}, {"type": "node", "id": 31292213, "lat": -31.8943386, "lon": 115.839847}, {"type": "node", "id": 31292214, "lat": -31.8971031, "lon": 115.8409518}, {"type": "node", "id": 31292215, "lat": -31.8999666, "lon": 115.8420646}, {"type": "node", "id": 225784712, "lat": -31.8927243, "lon": 115.8392365}, {"type": "node", "id": 275219189, "lat": -31.8890398, "lon": 115.8362389}, {"type": "node", "id": 275224162, "lat": -31.8888638, "lon": 115.8376003}, {"type": "node", "id": 275224164, "lat": -31.8888591, "lon": 115.8377288}, {"type": "node", "id": 275234067, "lat": -31.8927376, "lon": 115.8391064}, {"type": "node", "id": 359029887, "lat": -31.8966518, "lon": 115.8407663}, {"type": "node", "id": 359029891, "lat": -31.8966468, "lon": 115.8406248}, {"type": "node", "id": 359029971, "lat": -31.8966317, "lon": 115.8370102}, {"type": "node", "id": 359030026, "lat": -31.8965778, "lon": 115.8355144}, {"type": "node", "id": 359030108, "lat": -31.8965822, "lon": 115.8340647}, {"type": "node", "id": 359030286, "lat": -31.8966467, "lon": 115.8392778}, {"type": "node", "id": 359030300, "lat": -31.8966055, "lon": 115.8380819}, {"type": "node", "id": 359030364, "lat": -31.8903582, "lon": 115.8381789}, {"type": "node", "id": 359030393, "lat": -31.8890147, "lon": 115.8336867}, {"type": "node", "id": 359030418, "lat": -31.8984973, "lon": 115.841481}, {"type": "node", "id": 359030454, "lat": -31.9005612, "lon": 115.842312}, {"type": "node", "id": 359032045, "lat": -31.88906, "lon": 115.8407327}, {"type": "node", "id": 359032229, "lat": -31.8890171, "lon": 115.8429634}, {"type": "node", "id": 426425392, "lat": -31.8966463, "lon": 115.8396109}, {"type": "node", "id": 1247060216, "lat": -31.8890283, "lon": 115.8414751}, {"type": "node", "id": 1964667191, "lat": -31.8890195, "lon": 115.8441669}, {"type": "node", "id": 2362656338, "lat": -31.8890563, "lon": 115.8367714}, {"type": "node", "id": 2362656339, "lat": -31.889065, "lon": 115.838004}, {"type": "node", "id": 2362656343, "lat": -31.8892792, "lon": 115.8378835}, {"type": "node", "id": 2362656346, "lat": -31.8899539, "lon": 115.8381495, "tags": {"crossing": "uncontrolled", "highway": "crossing"}}, {"type": "node", "id": 2362656347, "lat": -31.8899859, "lon": 115.8380324, "tags": {"crossing": "uncontrolled", "highway": "crossing"}}, {"type": "node", "id": 2362656350, "lat": -31.8902044, "lon": 115.8382488}, {"type": "node", "id": 2362656351, "lat": -31.8905887, "lon": 115.8382663, "tags": {"crossing": "uncontrolled", "highway": "crossing"}}, {"type": "node", "id": 2362656353, "lat": -31.8919008, "lon": 115.8389105, "tags": {"crossing": "uncontrolled", "highway": "crossing"}}, {"type": "node", "id": 2362656354, "lat": -31.89193, "lon": 115.8387912, "tags": {"crossing": "uncontrolled", "highway": "crossing"}}, {"type": "node", "id": 2362656355, "lat": -31.8940185, "lon": 115.8397299, "tags": {"crossing": "uncontrolled", "highway": "crossing"}}, {"type": "node", "id": 2362656356, "lat": -31.8940541, "lon": 115.8396192, "tags": {"crossing": "uncontrolled", "highway": "crossing"}}, {"type": "node", "id": 2362656358, "lat": -31.8950428, "lon": 115.8401363, "tags": {"crossing": "uncontrolled", "highway": "crossing"}}, {"type": "node", "id": 2362656360, "lat": -31.8950763, "lon": 115.8400344, "tags": {"crossing": "uncontrolled", "highway": "crossing"}}, {"type": "node", "id": 2362656362, "lat": -31.8951216, "lon": 115.8401662}, {"type": "node", "id": 2362656364, "lat": -31.8996528, "lon": 115.8419357}, {"type": "node", "id": 4589261060, "lat": -31.8891968, "lon": 115.8377241, "tags": {"highway": "traffic_signals", "traffic_signals:direction": "forward"}}, {"type": "node", "id": 4589261065, "lat": -31.8891701, "lon": 115.8378427}, {"type": "node", "id": 4589261072, "lat": -31.8890674, "lon": 115.8379167, "tags": {"highway": "traffic_signals", "traffic_signals:direction": "forward"}}, {"type": "node", "id": 4589261079, "lat": -31.8890676, "lon": 115.8375162}, {"type": "node", "id": 4589261082, "lat": -31.8895989, "lon": 115.8380112}, {"type": "node", "id": 5100878939, "lat": -31.8967935, "lon": 115.8406904, "tags": {"crossing": "traffic_signals", "highway": "crossing"}}, {"type": "node", "id": 5100878940, "lat": -31.8967697, "lon": 115.8408187, "tags": {"crossing": "traffic_signals", "highway": "crossing"}}, {"type": "node", "id": 5516385640, "lat": -31.8964656, "lon": 115.8405592}, {"type": "node", "id": 5516385641, "lat": -31.8964298, "lon": 115.8406795, "tags": {"highway": "traffic_signals", "traffic_signals": "signal", "traffic_signals:direction": "forward"}}, {"type": "node", "id": 5518721806, "lat": -31.8951525, "lon": 115.8400645}, {"type": "node", "id": 5518721807, "lat": -31.8957294, "lon": 115.8402756}, {"type": "node", "id": 5518721808, "lat": -31.8942325, "lon": 115.8396865}, {"type": "node", "id": 6140660037, "lat": -31.8890044, "lon": 115.8291543}, {"type": "node", "id": 6141436629, "lat": -31.8980641, "lon": 115.8412121}, {"type": "node", "id": 6141436641, "lat": -31.8983633, "lon": 115.8413141}, {"type": "node", "id": 6141436651, "lat": -31.8983297, "lon": 115.841408}, {"type": "node", "id": 6141436663, "lat": -31.8979519, "lon": 115.8412769}, {"type": "node", "id": 6141436664, "lat": -31.8967815, "lon": 115.8408235}, {"type": "node", "id": 6141436675, "lat": -31.8990472, "lon": 115.8417093}, {"type": "node", "id": 6141437387, "lat": -31.8968136, "lon": 115.8406984, "tags": {"highway": "traffic_signals", "traffic_signals": "signal", "traffic_signals:direction": "forward"}}, {"type": "node", "id": 6141437404, "lat": -31.8966485, "lon": 115.8404462, "tags": {"highway": "traffic_signals", "traffic_signals": "signal", "traffic_signals:direction": "backward"}}, {"type": "node", "id": 6141437419, "lat": -31.8990888, "lon": 115.8416245}, {"type": "node", "id": 6142865797, "lat": -31.8896937, "lon": 115.8379246}, {"type": "node", "id": 6142865805, "lat": -31.8890597, "lon": 115.8368993}, {"type": "node", "id": 6142865821, "lat": -31.8904793, "lon": 115.838222}, {"type": "node", "id": 6142947875, "lat": -31.893032, "lon": 115.8393521}, {"type": "node", "id": 6142947878, "lat": -31.8928265, "lon": 115.8391418}, {"type": "node", "id": 6142947887, "lat": -31.89266, "lon": 115.8390757}, {"type": "node", "id": 6153432728, "lat": -31.8890174, "lon": 115.8430199, "tags": {"crossing": "uncontrolled", "highway": "crossing"}}, {"type": "node", "id": 6153432766, "lat": -31.8890099, "lon": 115.8420201}, {"type": "node", "id": 6153433091, "lat": -31.8934441, "lon": 115.8395196}, {"type": "node", "id": 6153433108, "lat": -31.8890677, "lon": 115.8372589}, {"type": "node", "id": 6153433140, "lat": -31.8890622, "lon": 115.8395332}, {"type": "node", "id": 6153433168, "lat": -31.8934715, "lon": 115.8393995}, {"type": "node", "id": 6153433318, "lat": -31.8890575, "lon": 115.8385936}, {"type": "node", "id": 6154630584, "lat": -31.8935939, "lon": 115.8394457}, {"type": "node", "id": 6154630691, "lat": -31.8890606, "lon": 115.8392126}, {"type": "node", "id": 6154630693, "lat": -31.8901261, "lon": 115.8380876}, {"type": "node", "id": 6243715424, "lat": -31.8890146, "lon": 115.8336009}, {"type": "node", "id": 6243925867, "lat": -31.8965736, "lon": 115.8369832}, {"type": "node", "id": 6243925871, "lat": -31.8965828, "lon": 115.8372675}, {"type": "node", "id": 6243925872, "lat": -31.8965737, "lon": 115.8370393}, {"type": "node", "id": 6243925873, "lat": -31.8965731, "lon": 115.8367954}, {"type": "node", "id": 6243925874, "lat": -31.8966124, "lon": 115.8373714}, {"type": "node", "id": 6243925875, "lat": -31.8966381, "lon": 115.8372775}, {"type": "node", "id": 6243925876, "lat": -31.8966283, "lon": 115.8368082}, {"type": "node", "id": 6243925877, "lat": -31.8965969, "lon": 115.8366868}, {"type": "node", "id": 6243939665, "lat": -31.8965763, "lon": 115.8395554}, {"type": "node", "id": 6243939666, "lat": -31.8966463, "lon": 115.8395574}, {"type": "node", "id": 6243939669, "lat": -31.896576, "lon": 115.8396104}, {"type": "node", "id": 6243939673, "lat": -31.8965703, "lon": 115.8407373}, {"type": "node", "id": 6243939674, "lat": -31.8965711, "lon": 115.8405974}, {"type": "node", "id": 6243939675, "lat": -31.8965777, "lon": 115.8392786}, {"type": "node", "id": 6243939676, "lat": -31.8965777, "lon": 115.8390632}, {"type": "node", "id": 6243939679, "lat": -31.896646, "lon": 115.8390713}, {"type": "node", "id": 6243939680, "lat": -31.8966107, "lon": 115.838972}, {"type": "node", "id": 6243939681, "lat": -31.896609, "lon": 115.8386931}, {"type": "node", "id": 6244034280, "lat": -31.9013107, "lon": 115.8425852}, {"type": "node", "id": 6244034494, "lat": -31.9007012, "lon": 115.8423573}, {"type": "node", "id": 6244034499, "lat": -31.9004888, "lon": 115.8422819}, {"type": "node", "id": 6244034500, "lat": -31.9005238, "lon": 115.8421497}, {"type": "node", "id": 6244034501, "lat": -31.8986818, "lon": 115.8415576}, {"type": "node", "id": 6244377077, "lat": -31.8890388, "lon": 115.8361356}, {"type": "node", "id": 6280331653, "lat": -31.8890259, "lon": 115.844997}, {"type": "node", "id": 6280370610, "lat": -31.895648, "lon": 115.8403658}, {"type": "node", "id": 6281001271, "lat": -31.8890534, "lon": 115.8366774}, {"type": "node", "id": 6285451262, "lat": -31.8932288, "lon": 115.8393025}, {"type": "node", "id": 6285451263, "lat": -31.8894802, "lon": 115.8378385}, {"type": "node", "id": 6285453388, "lat": -31.8929276, "lon": 115.839315}, {"type": "node", "id": 6285453390, "lat": -31.8923677, "lon": 115.8390915}, {"type": "node", "id": 9846161778, "lat": -31.8926181, "lon": 115.8391934}, {"type": "node", "id": 9846161780, "lat": -31.8926567, "lon": 115.8392091}, {"type": "node", "id": 9846161781, "lat": -31.8927756, "lon": 115.8392563}, {"type": "node", "id": 9846161783, "lat": -31.8929645, "lon": 115.8391969}, {"type": "node", "id": 9846161785, "lat": -31.8929011, "lon": 115.8391716}, {"type": "way", "id": 4853312, "nodes": [31037042, 275224162], "tags": {"highway": "trunk", "lanes": "3", "maxspeed": "70", "name": "Wanneroo Road", "network": "AU:WA:S", "oneway": "yes", "placement": "left_of:2", "ref": "60", "source:lanes": "Esri World Imagery", "surface": "paved", "turn:lanes": "||right"}}, {"type": "way", "id": 4853313, "nodes": [2362656343, 4589261082, 2362656346, 2362656350, 31292212, 2362656353, 6285453390], "tags": {"highway": "trunk", "lanes": "2", "maxspeed": "70", "name": "Wanneroo Road", "network": "AU:WA:S", "oneway": "yes", "ref": "60", "source:lanes": "Esri World Imagery", "surface": "paved"}}, {"type": "way", "id": 144558393, "nodes": [359029887, 359029891, 6141437404], "tags": {"highway": "primary", "imagery_used": "Esri", "maxspeed": "60", "maxspeed:type": "sign", "name": "Royal Street", "oneway": "yes", "source:geometry": "Esri World Imagery", "source:oneway": "Esri World Imagery", "surface": "asphalt"}}, {"type": "way", "id": 463678595, "nodes": [4589261060, 31037042], "tags": {"highway": "trunk", "lanes": "3", "maxspeed": "70", "name": "Wanneroo Road", "network": "AU:WA:S", "oneway": "yes", "placement": "left_of:2", "ref": "60", "source:lanes": "Esri World Imagery", "surface": "paved", "turn:lanes": "||right"}}, {"type": "way", "id": 463678599, "nodes": [4589261072, 31292209], "tags": {"highway": "trunk", "lanes": "3", "maxspeed": "70", "name": "Morley Drive", "network": "AU:WA:S", "oneway": "yes", "placement": "left_of:2", "ref": "76", "source:maxspeed": "https://portal-mainroads.opendata.arcgis.com/datasets", "surface": "paved", "turn:lanes": "||right"}}, {"type": "way", "id": 463678600, "nodes": [6244377077, 359030393, 6243715424, 6140660037], "tags": {"highway": "trunk", "lanes": "2", "maxspeed": "70", "name": "Morley Drive", "network": "AU:WA:S", "oneway": "yes", "ref": "76", "source:lanes": "Esri World Imagery", "surface": "paved"}}, {"type": "way", "id": 516387103, "nodes": [2362656358, 2362656362], "tags": {"highway": "trunk", "lanes": "2", "maxspeed": "70", "name": "Wanneroo Road", "network": "AU:WA:S", "oneway": "yes", "ref": "60", "source:lanes": "Esri World Imagery", "surface": "paved"}}, {"type": "way", "id": 574766418, "nodes": [5516385641, 6243939673, 359029887], "tags": {"highway": "trunk", "imagery_used": "Esri", "lanes": "3", "maxspeed": "60", "name": "Wanneroo Road", "network": "AU:WA:S", "oneway": "yes", "ref": "60", "surface": "paved", "turn:lanes": "||right"}}, {"type": "way", "id": 574766419, "nodes": [5516385640, 5518721807, 5518721806], "tags": {"highway": "trunk", "lanes": "2", "maxspeed": "60", "name": "Wanneroo Road", "network": "AU:WA:S", "oneway": "yes", "ref": "60", "source:lanes": "Esri World Imagery", "surface": "paved"}}, {"type": "way", "id": 575060254, "nodes": [5518721806, 2362656360], "tags": {"highway": "trunk", "lanes": "2", "maxspeed": "70", "name": "Wanneroo Road", "network": "AU:WA:S", "oneway": "yes", "ref": "60", "source:lanes": "Esri World Imagery", "surface": "paved"}}, {"type": "way", "id": 575060255, "nodes": [2362656362, 6280370610], "tags": {"highway": "trunk", "lanes": "2", "maxspeed": "60", "name": "Wanneroo Road", "network": "AU:WA:S", "oneway": "yes", "ref": "60", "source:lanes": "Esri World Imagery", "surface": "paved"}}, {"type": "way", "id": 578983578, "nodes": [31037042, 4589261079], "tags": {"highway": "trunk", "lanes": "2", "maxspeed": "70", "name": "Morley Drive", "network": "AU:WA:S", "oneway": "yes", "ref": "76", "source:maxspeed": "https://portal-mainroads.opendata.arcgis.com/datasets", "surface": "paved"}}, {"type": "way", "id": 578983579, "nodes": [31292209, 31037042], "tags": {"highway": "trunk", "lanes": "3", "maxspeed": "70", "name": "Morley Drive", "network": "AU:WA:S", "oneway": "yes", "placement": "left_of:2", "ref": "76", "source:maxspeed": "https://portal-mainroads.opendata.arcgis.com/datasets", "surface": "paved", "turn:lanes": "||right"}}, {"type": "way", "id": 578983580, "nodes": [275224164, 31292209], "tags": {"highway": "trunk", "lanes": "3", "maxspeed": "70", "name": "Wanneroo Road", "network": "AU:WA:S", "oneway": "yes", "placement": "left_of:2", "ref": "60", "source:lanes": "Esri World Imagery", "surface": "paved", "turn:lanes": "||right"}}, {"type": "way", "id": 655491869, "nodes": [6141436664, 31292214, 6141436663, 6141436651, 359030418, 6244034501, 6141436675, 2362656364, 31292215, 6244034499, 359030454, 6244034494, 6244034280], "tags": {"highway": "trunk", "imagery_used": "Esri", "lanes": "2", "maxspeed": "60", "name": "Wanneroo Road", "network": "AU:WA:S", "oneway": "yes", "ref": "60", "surface": "paved"}}, {"type": "way", "id": 655491894, "nodes": [6141437387, 5100878939, 359029891, 6243939674], "tags": {"highway": "trunk", "imagery_used": "Esri", "lanes": "3", "maxspeed": "60", "name": "Wanneroo Road", "network": "AU:WA:S", "oneway": "yes", "ref": "60", "surface": "paved", "turn:lanes": "||right"}}, {"type": "way", "id": 656882101, "nodes": [1964667191, 6153432728, 359032229, 6153432766, 1247060216], "tags": {"highway": "trunk", "lanes": "2", "maxspeed": "70", "name": "Morley Drive", "network": "AU:WA:S", "oneway": "yes", "ref": "76", "source:lanes": "Esri World Imagery", "surface": "paved"}}, {"type": "way", "id": 657104230, "nodes": [6154630693, 2362656347, 6142865797], "tags": {"highway": "trunk", "lanes": "2", "maxspeed": "70", "name": "Wanneroo Road", "network": "AU:WA:S", "oneway": "yes", "ref": "60", "source:lanes": "Esri World Imagery", "surface": "paved"}}, {"type": "way", "id": 657104231, "nodes": [2362656360, 31003518, 5518721808, 2362656356, 6154630584], "tags": {"highway": "trunk", "lanes": "2", "maxspeed": "70", "name": "Wanneroo Road", "network": "AU:WA:S", "oneway": "yes", "ref": "60", "source:lanes": "Esri World Imagery", "surface": "paved"}}, {"type": "way", "id": 657104232, "nodes": [6154630584, 6153433168, 6285451262], "tags": {"highway": "trunk", "lanes": "2", "maxspeed": "70", "name": "Wanneroo Road", "network": "AU:WA:S", "oneway": "yes", "ref": "60", "source:lanes": "Esri World Imagery", "surface": "paved"}}, {"type": "way", "id": 657104233, "nodes": [275234067, 6142947887, 2362656354, 2362656351, 6142865821, 359030364, 6154630693], "tags": {"highway": "trunk", "lanes": "2", "maxspeed": "70", "name": "Wanneroo Road", "network": "AU:WA:S", "oneway": "yes", "ref": "60", "source:lanes": "Esri World Imagery", "surface": "paved"}}, {"type": "way", "id": 657104234, "nodes": [2362656339, 4589261072], "tags": {"highway": "trunk", "lanes": "3", "maxspeed": "70", "name": "Morley Drive", "network": "AU:WA:S", "oneway": "yes", "placement": "left_of:2", "ref": "76", "surface": "paved", "turn:lanes": "through|none|right"}}, {"type": "way", "id": 657104235, "nodes": [6154630691, 6153433318, 2362656339], "tags": {"highway": "trunk", "lanes": "3", "maxspeed": "70", "name": "Morley Drive", "network": "AU:WA:S", "oneway": "yes", "placement": "left_of:2", "ref": "76", "surface": "paved", "turn:lanes": "left;through|none|right"}}, {"type": "way", "id": 666869239, "nodes": [6243925877, 6243925873, 6243925867, 6243925872, 6243925871, 6243925874], "tags": {"highway": "primary", "maxspeed": "60", "name": "Royal Street", "oneway": "yes", "source:geometry": "Esri World Imagery", "source:oneway": "Esri World Imagery", "surface": "asphalt"}}, {"type": "way", "id": 666869240, "nodes": [6243925874, 6243925875, 359029971, 6243925876, 6243925877], "tags": {"highway": "primary", "maxspeed": "60", "maxspeed:type": "sign", "name": "Royal Street", "oneway": "yes", "source:geometry": "Esri World Imagery", "source:oneway": "Esri World Imagery", "surface": "asphalt"}}, {"type": "way", "id": 666869242, "nodes": [6141437404, 426425392, 6243939666, 359030286, 6243939679, 6243939680], "tags": {"highway": "primary", "maxspeed": "60", "maxspeed:type": "sign", "name": "Royal Street", "oneway": "yes", "source:geometry": "Esri World Imagery", "source:oneway": "Esri World Imagery", "surface": "asphalt"}}, {"type": "way", "id": 666869702, "nodes": [6243939680, 6243939676, 6243939675, 6243939665, 6243939669, 6243939674, 6243939673], "tags": {"highway": "primary", "maxspeed": "60", "name": "Royal Street", "oneway": "yes", "source:geometry": "Esri World Imagery", "source:oneway": "Esri World Imagery", "surface": "asphalt"}}, {"type": "way", "id": 666869703, "nodes": [6243939680, 6243939681, 359030300, 6243925874], "tags": {"highway": "primary", "maxspeed": "60", "maxspeed:type": "sign", "name": "Royal Street", "surface": "asphalt"}}, {"type": "way", "id": 670654085, "nodes": [1247060216, 359032045], "tags": {"highway": "trunk", "lanes": "3", "maxspeed": "70", "name": "Morley Drive", "network": "AU:WA:S", "oneway": "yes", "ref": "76", "surface": "paved", "turn:lanes": "||right"}}, {"type": "way", "id": 670654086, "nodes": [359032045, 6153433140, 6154630691], "tags": {"highway": "trunk", "lanes": "2", "maxspeed": "70", "name": "Morley Drive", "network": "AU:WA:S", "oneway": "yes", "ref": "76", "source:lanes": "Esri World Imagery", "surface": "paved"}}, {"type": "way", "id": 670654088, "nodes": [6280331653, 1964667191], "tags": {"highway": "trunk", "lanes": "3", "maxspeed": "70", "name": "Morley Drive", "network": "AU:WA:S", "oneway": "yes", "ref": "76", "surface": "paved", "turn:lanes": "||right"}}, {"type": "way", "id": 670656291, "nodes": [6244034500, 31003515, 6141437419, 6141436641, 6141436629, 31003495], "tags": {"highway": "trunk", "imagery_used": "Esri", "lanes": "2", "maxspeed": "60", "name": "Wanneroo Road", "network": "AU:WA:S", "oneway": "yes", "ref": "60", "surface": "paved"}}, {"type": "way", "id": 670656292, "nodes": [6280370610, 5516385641], "tags": {"highway": "trunk", "lanes": "3", "maxspeed": "60", "name": "Wanneroo Road", "network": "AU:WA:S", "oneway": "yes", "ref": "60", "source:lanes": "Esri World Imagery", "surface": "paved", "turn:lanes": "||right"}}, {"type": "way", "id": 670656293, "nodes": [359029887, 5100878940, 6141436664], "tags": {"highway": "trunk", "imagery_used": "Esri", "lanes": "2", "maxspeed": "60", "name": "Wanneroo Road", "network": "AU:WA:S", "oneway": "yes", "ref": "60", "surface": "paved"}}, {"type": "way", "id": 670656294, "nodes": [31003495, 6141437387], "tags": {"highway": "trunk", "imagery_used": "Esri", "lanes": "3", "maxspeed": "60", "name": "Wanneroo Road", "network": "AU:WA:S", "oneway": "yes", "ref": "60", "surface": "paved", "turn:lanes": "||right"}}, {"type": "way", "id": 670656295, "nodes": [6285453388, 6142947875, 6153433091, 2362656355, 31292213, 2362656358], "tags": {"highway": "trunk", "lanes": "2", "maxspeed": "70", "name": "Wanneroo Road", "network": "AU:WA:S", "oneway": "yes", "ref": "60", "source:lanes": "Esri World Imagery", "surface": "paved"}}, {"type": "way", "id": 670717554, "nodes": [6281001271, 275219189, 6244377077], "tags": {"highway": "trunk", "lanes": "3", "maxspeed": "70", "name": "Morley Drive", "network": "AU:WA:S", "oneway": "yes", "ref": "76", "source:lanes": "Esri World Imagery", "surface": "paved", "turn:lanes": "||right"}}, {"type": "way", "id": 670717556, "nodes": [4589261079, 6153433108, 6142865805, 2362656338, 6281001271], "tags": {"highway": "trunk", "lanes": "2", "maxspeed": "70", "name": "Morley Drive", "network": "AU:WA:S", "oneway": "yes", "ref": "76", "source:lanes": "Esri World Imagery", "surface": "paved"}}, {"type": "way", "id": 671196428, "nodes": [6285451262, 9846161783, 9846161785, 6142947878, 275234067], "tags": {"highway": "trunk", "lanes": "3", "maxspeed": "70", "name": "Wanneroo Road", "network": "AU:WA:S", "oneway": "yes", "ref": "60", "source:lanes": "Esri World Imagery", "surface": "paved", "turn:lanes": "none|none|right"}}, {"type": "way", "id": 671196429, "nodes": [6285451263, 4589261060], "tags": {"highway": "trunk", "lanes": "3", "maxspeed": "70", "name": "Wanneroo Road", "network": "AU:WA:S", "oneway": "yes", "placement": "left_of:2", "ref": "60", "source:lanes": "Esri World Imagery", "surface": "paved", "turn:lanes": "||right"}}, {"type": "way", "id": 671196625, "nodes": [225784712, 9846161781, 6285453388], "tags": {"highway": "trunk", "lanes": "3", "maxspeed": "70", "name": "Wanneroo Road", "network": "AU:WA:S", "oneway": "yes", "ref": "60", "source:lanes": "Esri World Imagery", "surface": "paved", "turn:lanes": "||right"}}, {"type": "way", "id": 671196626, "nodes": [6285453390, 9846161778, 9846161780, 225784712], "tags": {"highway": "trunk", "lanes": "3", "maxspeed": "70", "name": "Wanneroo Road", "network": "AU:WA:S", "oneway": "yes", "ref": "60", "source:lanes": "Esri World Imagery", "surface": "paved", "turn:lanes": "||right"}}, {"type": "way", "id": 673371290, "nodes": [6243939674, 5516385640], "tags": {"highway": "trunk", "imagery_used": "Esri", "lanes": "2", "maxspeed": "60", "name": "Wanneroo Road", "network": "AU:WA:S", "oneway": "yes", "ref": "60", "surface": "paved"}}, {"type": "way", "id": 769440260, "nodes": [31292209, 4589261065, 2362656343], "tags": {"highway": "trunk", "lanes": "2", "maxspeed": "70", "name": "Wanneroo Road", "network": "AU:WA:S", "oneway": "yes", "ref": "60", "source:lanes": "Esri World Imagery", "surface": "paved"}}, {"type": "way", "id": 795149465, "nodes": [6142865797, 6285451263], "tags": {"highway": "trunk", "lanes": "2", "maxspeed": "70", "name": "Wanneroo Road", "network": "AU:WA:S", "oneway": "yes", "ref": "60", "source:lanes": "Esri World Imagery", "surface": "paved"}}, {"type": "way", "id": 1034127322, "nodes": [6243925877, 359030026, 359030108], "tags": {"highway": "primary", "maxspeed": "60", "maxspeed:type": "sign", "name": "Royal Street", "surface": "asphalt"}}]}