{"version": 0.6, "generator": "Overpass API 0.7.61.5 4133829e", "osm3s": {"timestamp_osm_base": "2023-12-08T07:36:00Z", "copyright": "The data included in this document is from www.openstreetmap.org. The data is made available under ODbL."}, "elements": [{"type": "node", "id": 33018870, "lat": -32.0693489, "lon": 115.968745}, {"type": "node", "id": 33018871, "lat": -32.0700874, "lon": 115.9678564}, {"type": "node", "id": 33018872, "lat": -32.0750548, "lon": 115.9615249}, {"type": "node", "id": 33018874, "lat": -32.0754831, "lon": 115.9610275}, {"type": "node", "id": 33018875, "lat": -32.0778515, "lon": 115.9579846}, {"type": "node", "id": 33019133, "lat": -32.0692625, "lon": 115.9686201}, {"type": "node", "id": 121859963, "lat": -32.0698927, "lon": 115.9678733}, {"type": "node", "id": 121859964, "lat": -32.0699857, "lon": 115.9679838}, {"type": "node", "id": 178543342, "lat": -32.0716558, "lon": 115.9656276}, {"type": "node", "id": 178543343, "lat": -32.0717462, "lon": 115.9657333}, {"type": "node", "id": 178553012, "lat": -32.0776842, "lon": 115.9581942}, {"type": "node", "id": 178553259, "lat": -32.0775913, "lon": 115.9580998}, {"type": "node", "id": 178601646, "lat": -32.0735922, "lon": 115.9633666}, {"type": "node", "id": 178604214, "lat": -32.0711009, "lon": 115.9663266}, {"type": "node", "id": 178604600, "lat": -32.071121, "lon": 115.9665313}, {"type": "node", "id": 178607321, "lat": -32.068509, "lon": 115.9694113}, {"type": "node", "id": 179900472, "lat": -32.0783647, "lon": 115.9573693}, {"type": "node", "id": 179900474, "lat": -32.0782686, "lon": 115.9572855}, {"type": "node", "id": 587886297, "lat": -32.0753955, "lon": 115.9609169}, {"type": "node", "id": 697337525, "lat": -32.0688009, "lon": 115.9691975}, {"type": "node", "id": 1849980339, "lat": -32.075107, "lon": 115.9610692}, {"type": "node", "id": 1849980340, "lat": -32.0751315, "lon": 115.9613686}, {"type": "node", "id": 1849980348, "lat": -32.0753874, "lon": 115.961058}, {"type": "node", "id": 1849980366, "lat": -32.0754311, "lon": 115.9611584}, {"type": "node", "id": 1849980370, "lat": -32.0753523, "lon": 115.9613852}, {"type": "node", "id": 1849980371, "lat": -32.0752097, "lon": 115.9609924}, {"type": "node", "id": 1849980372, "lat": -32.0750981, "lon": 115.961324}, {"type": "node", "id": 1849980376, "lat": -32.0753919, "lon": 115.9613438}, {"type": "node", "id": 1849980377, "lat": -32.0750762, "lon": 115.9612704}, {"type": "node", "id": 1849980388, "lat": -32.0752919, "lon": 115.9609922}, {"type": "node", "id": 1849980393, "lat": -32.0750792, "lon": 115.9611273}, {"type": "node", "id": 1849980416, "lat": -32.0749565, "lon": 115.9614738}, {"type": "node", "id": 1849980454, "lat": -32.075179, "lon": 115.9614034}, {"type": "node", "id": 1849980471, "lat": -32.0754143, "lon": 115.9613043}, {"type": "node", "id": 1849980483, "lat": -32.0751497, "lon": 115.9610229}, {"type": "node", "id": 1849980491, "lat": -32.0753433, "lon": 115.961016}, {"type": "node", "id": 1884296211, "lat": -32.0750677, "lon": 115.9611904}, {"type": "node", "id": 1884296216, "lat": -32.0752383, "lon": 115.9614204}, {"type": "node", "id": 1884296218, "lat": -32.0752485, "lon": 115.9609869}, {"type": "node", "id": 1884296227, "lat": -32.0752955, "lon": 115.9614145}, {"type": "node", "id": 1884296229, "lat": -32.0754343, "lon": 115.9612251}, {"type": "node", "id": 2949461405, "lat": -32.0745277, "lon": 115.9622297}, {"type": "node", "id": 2949461406, "lat": -32.0755798, "lon": 115.9606823}, {"type": "node", "id": 6236209901, "lat": -32.0705197, "lon": 115.9670687}, {"type": "node", "id": 6236209949, "lat": -32.0718682, "lon": 115.9653604}, {"type": "node", "id": 6236209953, "lat": -32.0715797, "lon": 115.9657225}, {"type": "node", "id": 6236209958, "lat": -32.0716672, "lon": 115.9658318}, {"type": "node", "id": 6236209959, "lat": -32.0717495, "lon": 115.9655097}, {"type": "node", "id": 6236209960, "lat": -32.0719537, "lon": 115.9654653}, {"type": "node", "id": 6236220247, "lat": -32.0690852, "lon": 115.9689834}, {"type": "node", "id": 6236220248, "lat": -32.0689948, "lon": 115.9688714}, {"type": "node", "id": 6236220249, "lat": -32.0699122, "lon": 115.9680717}, {"type": "node", "id": 6236220250, "lat": -32.0698112, "lon": 115.9679699}, {"type": "node", "id": 6241245243, "lat": -32.0781894, "lon": 115.9573808}, {"type": "node", "id": 6241245251, "lat": -32.078483, "lon": 115.9570039}, {"type": "node", "id": 6241249729, "lat": -32.0776525, "lon": 115.958235}, {"type": "node", "id": 6241249730, "lat": -32.0775595, "lon": 115.9581406}, {"type": "node", "id": 6241249731, "lat": -32.0776271, "lon": 115.9580567}, {"type": "node", "id": 6241249732, "lat": -32.0777078, "lon": 115.9581609}, {"type": "node", "id": 6241258842, "lat": -32.0708756, "lon": 115.9668459}, {"type": "node", "id": 6241258843, "lat": -32.0705972, "lon": 115.9669697}, {"type": "node", "id": 6241258852, "lat": -32.0711169, "lon": 115.9663064}, {"type": "node", "id": 6351814765, "lat": -32.0793706, "lon": 115.9560608}, {"type": "node", "id": 6351814766, "lat": -32.0772967, "lon": 115.958693}, {"type": "node", "id": 6351814767, "lat": -32.0771263, "lon": 115.9589123}, {"type": "node", "id": 6351956532, "lat": -32.0702316, "lon": 115.9674384}, {"type": "node", "id": 6351956533, "lat": -32.0712595, "lon": 115.9661265}, {"type": "node", "id": 6351956534, "lat": -32.0713561, "lon": 115.9660046}, {"type": "node", "id": 6351956535, "lat": -32.072055, "lon": 115.9651254}, {"type": "node", "id": 8997237617, "lat": -32.0781619, "lon": 115.9574139, "tags": {"crossing": "uncontrolled", "highway": "crossing"}}, {"type": "node", "id": 8997237618, "lat": -32.0782459, "lon": 115.9575118, "tags": {"crossing": "uncontrolled", "highway": "crossing"}}, {"type": "node", "id": 9037184102, "lat": -32.0715615, "lon": 115.9659671, "tags": {"crossing": "uncontrolled", "highway": "crossing"}}, {"type": "node", "id": 9037184103, "lat": -32.071467, "lon": 115.9658647, "tags": {"crossing": "uncontrolled", "highway": "crossing"}}, {"type": "node", "id": 9941682612, "lat": -32.0738095, "lon": 115.9631083, "tags": {"crossing": "uncontrolled", "highway": "crossing"}}, {"type": "node", "id": 9941682613, "lat": -32.0737294, "lon": 115.9630201, "tags": {"crossing": "uncontrolled", "highway": "crossing"}}, {"type": "way", "id": 4978686, "nodes": [178607321, 697337525, 6236220247, 33018870, 6236220249, 121859964, 33018871, 6241258842, 178604600], "tags": {"highway": "primary", "lanes": "2", "maxspeed": "60", "name": "Warton Road", "oneway": "yes", "surface": "asphalt"}}, {"type": "way", "id": 174309422, "nodes": [6241258852, 178604214, 6241258843, 6236209901, 6351956532], "tags": {"highway": "primary", "lanes": "2", "maxspeed": "60", "name": "Warton Road", "oneway": "yes", "surface": "asphalt"}}, {"type": "way", "id": 174309426, "nodes": [1849980388, 1884296218, 1849980371, 1849980483, 1849980339, 1849980393, 1884296211, 1849980377, 1849980372, 1849980340, 1849980454, 1884296216, 1884296227, 1849980370, 1849980376, 1849980471, 1884296229, 1849980366, 1849980348, 1849980491, 1849980388], "tags": {"highway": "primary", "junction": "roundabout", "lanes": "2", "maxspeed": "60", "name": "Warton Road", "surface": "asphalt"}}, {"type": "way", "id": 291482516, "nodes": [2949461405, 33018872, 1849980454], "tags": {"highway": "primary", "lanes": "2", "maxspeed": "60", "name": "Warton Road", "oneway": "yes", "surface": "asphalt", "turn:lanes": "left;through|through;right"}}, {"type": "way", "id": 291482517, "nodes": [2949461406, 587886297, 1849980388], "tags": {"highway": "primary", "lanes": "2", "maxspeed": "60", "name": "Warton Road", "oneway": "yes", "surface": "asphalt", "turn:lanes": "left;through|through;right"}}, {"type": "way", "id": 580936317, "nodes": [178604600, 9037184102, 6236209958, 178543343], "tags": {"highway": "primary", "lanes": "2", "maxspeed": "60", "name": "Warton Road", "oneway": "yes", "surface": "asphalt"}}, {"type": "way", "id": 580936319, "nodes": [6236209960, 178601646, 9941682612, 2949461405], "tags": {"highway": "primary", "lanes": "2", "maxspeed": "60", "name": "Warton Road", "oneway": "yes", "surface": "asphalt"}}, {"type": "way", "id": 671217214, "nodes": [6236209949, 6236209959, 178543342], "tags": {"highway": "primary", "lanes": "3", "maxspeed": "60", "name": "Warton Road", "oneway": "yes", "surface": "asphalt", "turn:lanes": "||right"}}, {"type": "way", "id": 671217215, "nodes": [1849980377, 1849980416, 9941682613, 6351956535], "tags": {"highway": "primary", "lanes": "2", "maxspeed": "60", "name": "Warton Road", "oneway": "yes", "surface": "asphalt"}}, {"type": "way", "id": 671217216, "nodes": [178543343, 6236209960], "tags": {"highway": "primary", "lanes": "2", "maxspeed": "60", "name": "Warton Road", "oneway": "yes", "surface": "asphalt"}}, {"type": "way", "id": 678356934, "nodes": [6241249732, 33018875, 8997237618, 179900472, 6351814765], "tags": {"highway": "primary", "lanes": "2", "maxspeed": "60", "name": "Warton Road", "oneway": "yes", "surface": "asphalt"}}, {"type": "way", "id": 678356936, "nodes": [6351814766, 6241249729, 178553012, 6241249732], "tags": {"highway": "primary", "lanes": "3", "maxspeed": "60", "name": "Warton Road", "oneway": "yes", "surface": "asphalt", "turn:lanes": "||right"}}, {"type": "way", "id": 678356938, "nodes": [6351814767, 6351814766], "tags": {"highway": "primary", "lanes": "3", "maxspeed": "60", "name": "Warton Road", "oneway": "yes", "surface": "asphalt"}}, {"type": "way", "id": 678356939, "nodes": [1849980366, 33018874, 6351814767], "tags": {"highway": "primary", "lanes": "2", "maxspeed": "60", "name": "Warton Road", "oneway": "yes", "surface": "asphalt"}}, {"type": "way", "id": 678356948, "nodes": [6241245251, 179900474, 6241245243, 8997237617, 6241249731, 178553259, 6241249730, 2949461406], "tags": {"highway": "primary", "lanes": "2", "maxspeed": "60", "name": "Warton Road", "oneway": "yes", "surface": "asphalt"}}, {"type": "way", "id": 678372737, "nodes": [6236220250, 33019133, 6236220248], "tags": {"highway": "primary", "lanes": "2", "maxspeed": "60", "name": "Warton Road", "oneway": "yes", "surface": "asphalt"}}, {"type": "way", "id": 678372738, "nodes": [121859963, 6236220250], "tags": {"highway": "primary", "lanes": "2", "maxspeed": "60", "name": "Warton Road", "oneway": "yes", "surface": "asphalt"}}, {"type": "way", "id": 678372739, "nodes": [6351956532, 121859963], "tags": {"highway": "primary", "lanes": "3", "maxspeed": "60", "name": "Warton Road", "oneway": "yes", "surface": "asphalt", "turn:lanes": "left||"}}, {"type": "way", "id": 678372741, "nodes": [6351956533, 6241258852], "tags": {"highway": "primary", "lanes": "3", "maxspeed": "60", "name": "Warton Road", "oneway": "yes", "source:lanes": "Esri World Imagery", "surface": "asphalt", "turn:lanes": "||right"}}, {"type": "way", "id": 678372742, "nodes": [6351956534, 6351956533], "tags": {"highway": "primary", "lanes": "3", "maxspeed": "60", "name": "Warton Road", "oneway": "yes", "source:lanes": "Esri World Imagery", "surface": "asphalt"}}, {"type": "way", "id": 678372743, "nodes": [178543342, 6236209953, 9037184103, 6351956534], "tags": {"highway": "primary", "lanes": "2", "maxspeed": "60", "name": "Warton Road", "oneway": "yes", "surface": "asphalt"}}, {"type": "way", "id": 678372744, "nodes": [6351956535, 6236209949], "tags": {"highway": "primary", "lanes": "3", "maxspeed": "60", "name": "Warton Road", "oneway": "yes", "surface": "asphalt"}}]}