{"version": 0.6, "generator": "Overpass API 0.7.61.5 4133829e", "osm3s": {"timestamp_osm_base": "2023-12-06T15:38:04Z", "copyright": "The data included in this document is from www.openstreetmap.org. The data is made available under ODbL."}, "elements": [{"type": "node", "id": 97196893, "lat": -42.7900619, "lon": 147.5614754}, {"type": "node", "id": 97196910, "lat": -42.7814585, "lon": 147.5627566, "tags": {"highway": "traffic_signals"}}, {"type": "node", "id": 174363915, "lat": -42.7809472, "lon": 147.5590928}, {"type": "node", "id": 174363934, "lat": -42.7808532, "lon": 147.5586857}, {"type": "node", "id": 174363942, "lat": -42.7807512, "lon": 147.558475}, {"type": "node", "id": 174363962, "lat": -42.7805789, "lon": 147.5582018}, {"type": "node", "id": 174364019, "lat": -42.7760956, "lon": 147.5515128}, {"type": "node", "id": 174364031, "lat": -42.7758641, "lon": 147.5513252}, {"type": "node", "id": 243800084, "lat": -42.7822929, "lon": 147.5686959}, {"type": "node", "id": 243800088, "lat": -42.782307, "lon": 147.5692345}, {"type": "node", "id": 333538091, "lat": -42.7812189, "lon": 147.5609554}, {"type": "node", "id": 333538094, "lat": -42.7831288, "lon": 147.5623105}, {"type": "node", "id": 333538111, "lat": -42.7844136, "lon": 147.561975}, {"type": "node", "id": 333538131, "lat": -42.7809028, "lon": 147.5588642}, {"type": "node", "id": 333538180, "lat": -42.7753615, "lon": 147.5509439}, {"type": "node", "id": 1154163391, "lat": -42.7866633, "lon": 147.5612785}, {"type": "node", "id": 1154163392, "lat": -42.7819107, "lon": 147.565216}, {"type": "node", "id": 1154163394, "lat": -42.7867193, "lon": 147.5614197}, {"type": "node", "id": 1154163396, "lat": -42.7867063, "lon": 147.5614958}, {"type": "node", "id": 1154163397, "lat": -42.7817027, "lon": 147.5650973}, {"type": "node", "id": 1154163398, "lat": -42.7867041, "lon": 147.5613392}, {"type": "node", "id": 1154163399, "lat": -42.7817184, "lon": 147.5652519}, {"type": "node", "id": 1154163401, "lat": -42.7864716, "lon": 147.5614495}, {"type": "node", "id": 1154163402, "lat": -42.781867, "lon": 147.5650265}, {"type": "node", "id": 1154163403, "lat": -42.7817407, "lon": 147.5650319}, {"type": "node", "id": 1154163404, "lat": -42.7864841, "lon": 147.5613412}, {"type": "node", "id": 1154163406, "lat": -42.7866063, "lon": 147.5612511}, {"type": "node", "id": 1154163407, "lat": -42.7817999, "lon": 147.5653098}, {"type": "node", "id": 1154163409, "lat": -42.7865593, "lon": 147.5615834}, {"type": "node", "id": 1154163410, "lat": -42.7816949, "lon": 147.5651367}, {"type": "node", "id": 1154163411, "lat": -42.7817658, "lon": 147.5652995}, {"type": "node", "id": 1154163413, "lat": -42.7865009, "lon": 147.5615327}, {"type": "node", "id": 1154163414, "lat": -42.7819171, "lon": 147.5651249}, {"type": "node", "id": 1154163415, "lat": -42.7818668, "lon": 147.5652864}, {"type": "node", "id": 1154163417, "lat": -42.781792, "lon": 147.5650041}, {"type": "node", "id": 1154163418, "lat": -42.78667, "lon": 147.5615557}, {"type": "node", "id": 1154163420, "lat": -42.7866062, "lon": 147.5615896}, {"type": "node", "id": 1154163421, "lat": -42.7865462, "lon": 147.5612636}, {"type": "node", "id": 1275141694, "lat": -42.7814844, "lon": 147.5629281}, {"type": "node", "id": 1275141846, "lat": -42.7782502, "lon": 147.5547319}, {"type": "node", "id": 1275141852, "lat": -42.7785288, "lon": 147.555147}, {"type": "node", "id": 1275142012, "lat": -42.7765231, "lon": 147.5520589}, {"type": "node", "id": 1275142075, "lat": -42.7823049, "lon": 147.5693934}, {"type": "node", "id": 1275293447, "lat": -42.7819912, "lon": 147.5665536}, {"type": "node", "id": 1275293452, "lat": -42.7800565, "lon": 147.5574233}, {"type": "node", "id": 1275293651, "lat": -42.7818682, "lon": 147.5656805}, {"type": "node", "id": 2640505960, "lat": -42.7849779, "lon": 147.5618511}, {"type": "node", "id": 2640505962, "lat": -42.7748369, "lon": 147.5505692}, {"type": "node", "id": 2697960665, "lat": -42.7811372, "lon": 147.5603954}, {"type": "node", "id": 2697960670, "lat": -42.7812495, "lon": 147.5611853}, {"type": "node", "id": 2698014115, "lat": -42.7815576, "lon": 147.5634131}, {"type": "node", "id": 2698014117, "lat": -42.7816173, "lon": 147.5637927}, {"type": "node", "id": 2698014119, "lat": -42.7816852, "lon": 147.5642588}, {"type": "node", "id": 2698014121, "lat": -42.7817111, "lon": 147.5645013}, {"type": "node", "id": 3804488983, "lat": -42.7818848, "lon": 147.5650455}, {"type": "node", "id": 3804488986, "lat": -42.7817398, "lon": 147.56528}, {"type": "node", "id": 3804488988, "lat": -42.7819054, "lon": 147.5650819}, {"type": "node", "id": 3804488989, "lat": -42.7816951, "lon": 147.5651775}, {"type": "node", "id": 3804488993, "lat": -42.7817279, "lon": 147.5646601}, {"type": "node", "id": 3804488995, "lat": -42.7818927, "lon": 147.5652558}, {"type": "node", "id": 3804488996, "lat": -42.7817651, "lon": 147.5650137}, {"type": "node", "id": 3804488997, "lat": -42.7818198, "lon": 147.5650038}, {"type": "node", "id": 3804488998, "lat": -42.781919, "lon": 147.5651707}, {"type": "node", "id": 3804489000, "lat": -42.7817184, "lon": 147.565061}, {"type": "node", "id": 3804489002, "lat": -42.7818468, "lon": 147.5650128}, {"type": "node", "id": 3804490536, "lat": -42.7862726, "lon": 147.5614754}, {"type": "node", "id": 3804490537, "lat": -42.7874733, "lon": 147.5615231}, {"type": "node", "id": 3804490538, "lat": -42.7865098, "lon": 147.5612956}, {"type": "node", "id": 3804490539, "lat": -42.7864864, "lon": 147.561505}, {"type": "node", "id": 3804490540, "lat": -42.7858755, "lon": 147.5616349}, {"type": "node", "id": 3804490541, "lat": -42.7866479, "lon": 147.5615739}, {"type": "node", "id": 3804490542, "lat": -42.7863701, "lon": 147.5614495}, {"type": "node", "id": 3804490544, "lat": -42.7865341, "lon": 147.5612742}, {"type": "node", "id": 3804490547, "lat": -42.7863469, "lon": 147.5613992}, {"type": "node", "id": 3804490548, "lat": -42.7868012, "lon": 147.5614093}, {"type": "node", "id": 3804490549, "lat": -42.7870492, "lon": 147.5615273}, {"type": "node", "id": 3804490550, "lat": -42.7867677, "lon": 147.5615541}, {"type": "node", "id": 3804490551, "lat": -42.7851615, "lon": 147.5617982}, {"type": "node", "id": 3804490552, "lat": -42.7869291, "lon": 147.5614924}, {"type": "node", "id": 3804490553, "lat": -42.7860995, "lon": 147.5615644}, {"type": "node", "id": 3804490554, "lat": -42.7864709, "lon": 147.5613974}, {"type": "node", "id": 3804490555, "lat": -42.7865347, "lon": 147.5615695}, {"type": "node", "id": 3804490556, "lat": -42.786429, "lon": 147.561473}, {"type": "node", "id": 6086997602, "lat": -42.7821581, "lon": 147.5677385}, {"type": "node", "id": 6086997603, "lat": -42.7821164, "lon": 147.5674425}, {"type": "node", "id": 7083670878, "lat": -42.7818796, "lon": 147.5657612}, {"type": "node", "id": 7435815681, "lat": -42.7820849, "lon": 147.5672188}, {"type": "node", "id": 7540891159, "lat": -42.7837538, "lon": 147.5621473}, {"type": "node", "id": 7540891190, "lat": -42.7787197, "lon": 147.5554314}, {"type": "node", "id": 8323918487, "lat": -42.7807197, "lon": 147.5584251}, {"type": "node", "id": 9239294988, "lat": -42.7849756, "lon": 147.5711204}, {"type": "node", "id": 9239294989, "lat": -42.7860985, "lon": 147.5696419}, {"type": "node", "id": 9239294990, "lat": -42.7873319, "lon": 147.5676489}, {"type": "node", "id": 9239294991, "lat": -42.7883675, "lon": 147.565975}, {"type": "node", "id": 9239294992, "lat": -42.7890848, "lon": 147.5648497}, {"type": "node", "id": 9402563735, "lat": -42.7766095, "lon": 147.5521774}, {"type": "node", "id": 9901057522, "lat": -42.7817031, "lon": 147.5652169}, {"type": "node", "id": 9901057523, "lat": -42.7818347, "lon": 147.5653053}, {"type": "node", "id": 10823073726, "lat": -42.7831075, "lon": 147.5734989}, {"type": "node", "id": 11036417993, "lat": -42.7866943, "lon": 147.5613246}, {"type": "way", "id": 22729466, "nodes": [1275141694, 2698014115, 2698014117, 2698014119, 2698014121, 3804488993], "tags": {"destination:forward": "Dunalley;Port Arthur", "highway": "trunk", "maxspeed": "50", "name": "Cole Street", "network": "AU:TAS", "ref": "A9", "surface": "asphalt"}}, {"type": "way", "id": 46905872, "nodes": [1275293452, 7540891190, 1275141852, 1275141846, 9402563735, 1275142012, 174364019, 174364031, 333538180, 2640505962], "tags": {"highway": "trunk", "maxspeed": "60", "name": "Tasman Highway", "network": "AU:TAS", "oneway": "no", "ref": "A3", "surface": "asphalt"}}, {"type": "way", "id": 99834384, "nodes": [1154163414, 3804488988, 3804488983, 1154163402, 3804489002, 3804488997, 1154163417, 3804488996, 1154163403, 3804489000, 1154163397, 1154163410, 3804488989, 9901057522, 1154163399, 3804488986, 1154163411, 1154163407, 9901057523, 1154163415, 3804488995, 1154163392, 3804488998, 1154163414], "tags": {"highway": "trunk", "junction": "roundabout", "lanes": "1", "maxspeed": "50", "network": "AU:TAS", "ref": "A9", "source": "survey", "surface": "asphalt"}}, {"type": "way", "id": 99834386, "nodes": [3804490544, 3804490547, 3804490536], "tags": {"highway": "trunk", "lanes": "1", "maxspeed": "60", "name": "Gordon Street", "network": "AU:TAS", "oneway": "yes", "ref": "A3", "surface": "asphalt"}}, {"type": "way", "id": 99834388, "nodes": [1154163411, 1275293651], "tags": {"destination": "Dunalley;Port Arthur", "highway": "trunk", "lanes": "1", "name": "Cole Street", "network": "AU:TAS", "oneway": "yes", "ref": "A9", "surface": "asphalt"}}, {"type": "way", "id": 99834390, "nodes": [3804490544, 3804490538, 1154163404, 3804490554, 1154163401, 3804490539], "tags": {"highway": "trunk", "junction": "roundabout", "lanes": "1", "maxspeed": "60", "network": "AU:TAS", "ref": "A3", "source": "survey", "surface": "asphalt"}}, {"type": "way", "id": 175847267, "nodes": [333538131, 174363915, 2697960665, 333538091, 2697960670, 97196910], "tags": {"destination:backward": "Orford;St Helens", "highway": "trunk", "maxspeed": "60", "name": "Cole Street", "network": "AU:TAS", "oneway": "no", "ref": "A3", "surface": "asphalt"}}, {"type": "way", "id": 258717363, "nodes": [2640505960, 333538111, 7540891159, 333538094, 97196910], "tags": {"destination:backward": "Hobart;Hobart Airport", "destination:forward": "Sorell", "highway": "trunk", "lanes": "2", "maxspeed": "50", "name": "Gordon Street", "network": "AU:TAS", "ref": "A3", "surface": "asphalt"}}, {"type": "way", "id": 377086388, "nodes": [1275293651, 7083670878, 1275293447, 7435815681, 6086997603], "tags": {"highway": "trunk", "maxspeed": "50", "name": "Cole Street", "network": "AU:TAS", "oneway": "no", "ref": "A9", "surface": "asphalt"}}, {"type": "way", "id": 377086389, "nodes": [3804488993, 1154163403], "tags": {"highway": "trunk", "lanes": "1", "maxspeed": "50", "name": "Cole Street", "network": "AU:TAS", "oneway": "yes", "ref": "A9", "surface": "asphalt"}}, {"type": "way", "id": 377086391, "nodes": [1275293651, 1154163415], "tags": {"highway": "trunk", "lanes": "1", "name": "Cole Street", "network": "AU:TAS", "oneway": "yes", "ref": "A9", "surface": "asphalt"}}, {"type": "way", "id": 377086393, "nodes": [3804489002, 3804488993], "tags": {"highway": "trunk", "lanes": "1", "maxspeed": "50", "name": "Cole Street", "network": "AU:TAS", "oneway": "yes", "ref": "A9", "surface": "asphalt"}}, {"type": "way", "id": 377086488, "nodes": [3804490549, 3804490552, 3804490548, 1154163398], "tags": {"highway": "trunk", "lanes": "1", "maxspeed": "60", "name": "Main Road", "network": "AU:TAS", "oneway": "yes", "ref": "A3", "surface": "asphalt"}}, {"type": "way", "id": 377086489, "nodes": [3804490536, 3804490542, 3804490556, 3804490539], "tags": {"highway": "trunk", "lanes": "1", "maxspeed": "60", "name": "Gordon Street", "network": "AU:TAS", "oneway": "yes", "ref": "A3", "surface": "asphalt"}}, {"type": "way", "id": 377086490, "nodes": [3804490536, 3804490553, 3804490540, 3804490551, 2640505960], "tags": {"highway": "trunk", "maxspeed": "60", "name": "Gordon Street", "network": "AU:TAS", "ref": "A3", "surface": "asphalt"}}, {"type": "way", "id": 377086492, "nodes": [3804490541, 3804490550, 3804490549], "tags": {"highway": "trunk", "lanes": "1", "maxspeed": "60", "name": "Tasman Highway", "network": "AU:TAS", "oneway": "yes", "ref": "A3", "surface": "asphalt"}}, {"type": "way", "id": 553897260, "nodes": [1275293452, 174363962, 8323918487, 174363942, 174363934, 333538131], "tags": {"destination:backward": "Orford;St Helens", "highway": "trunk", "maxspeed": "60", "name": "Tasman Highway", "network": "AU:TAS", "oneway": "no", "ref": "A3", "surface": "asphalt"}}, {"type": "way", "id": 648336454, "nodes": [6086997602, 243800084, 243800088, 1275142075], "tags": {"highway": "trunk", "maxspeed": "60", "name": "Arthur Highway", "network": "AU:TAS", "oneway": "no", "ref": "A9", "surface": "asphalt"}}, {"type": "way", "id": 648336455, "nodes": [6086997603, 6086997602], "tags": {"bridge": "yes", "highway": "trunk", "layer": "1", "name": "Arthur Highway", "network": "AU:TAS", "oneway": "no", "ref": "A9", "surface": "asphalt"}}, {"type": "way", "id": 676727778, "nodes": [97196893, 3804490537, 3804490549], "tags": {"highway": "trunk", "maxspeed": "50", "name": "Main Road", "network": "AU:TAS", "oneway": "no", "operator": "Department of State Growth", "operator:type": "government", "ref": "A3", "surface": "asphalt"}}, {"type": "way", "id": 726909440, "nodes": [1154163398, 11036417993, 1154163391, 1154163406, 1154163421, 3804490544], "tags": {"highway": "trunk", "junction": "roundabout", "lanes": "1", "maxspeed": "60", "network": "AU:TAS", "ref": "A3", "source": "survey", "surface": "asphalt"}}, {"type": "way", "id": 761867903, "nodes": [97196910, 1275141694], "tags": {"destination:forward": "Dunalley;Port Arthur", "highway": "trunk", "maxspeed": "50", "name": "Cole Street", "network": "AU:TAS", "ref": "A9", "surface": "asphalt"}}, {"type": "way", "id": 1000948170, "nodes": [10823073726, 9239294988, 9239294989, 9239294990, 9239294991, 9239294992], "tags": {"access": "yes", "highway": "trunk", "maxspeed": "80", "name": "Arthur Highway", "network": "AU:TAS", "ref": "A9", "surface": "asphalt"}}, {"type": "way", "id": 1105500203, "nodes": [3804490541, 1154163418, 1154163396, 1154163394, 1154163398], "tags": {"highway": "trunk", "junction": "roundabout", "lanes": "1", "maxspeed": "60", "network": "AU:TAS", "ref": "A3", "source": "survey", "surface": "asphalt"}}, {"type": "way", "id": 1105500204, "nodes": [3804490539, 1154163413, 3804490555, 1154163409, 1154163420, 3804490541], "tags": {"highway": "trunk", "junction": "roundabout", "lanes": "1", "maxspeed": "60", "network": "AU:TAS", "ref": "A3", "source": "survey", "surface": "asphalt"}}]}