{"version": 0.6, "generator": "Overpass API 0.7.61.5 4133829e", "osm3s": {"timestamp_osm_base": "2023-12-06T12:44:15Z", "copyright": "The data included in this document is from www.openstreetmap.org. The data is made available under ODbL."}, "elements": [{"type": "node", "id": 29373252, "lat": -12.4342368, "lon": 130.9252384, "tags": {"source": "Yahoo imagery"}}, {"type": "node", "id": 29381333, "lat": -12.4314306, "lon": 130.917674}, {"type": "node", "id": 29381615, "lat": -12.4431101, "lon": 130.949435}, {"type": "node", "id": 29381618, "lat": -12.4337773, "lon": 130.9244328}, {"type": "node", "id": 29381619, "lat": -12.4342381, "lon": 130.9256749}, {"type": "node", "id": 29381620, "lat": -12.4359902, "lon": 130.930244}, {"type": "node", "id": 29381621, "lat": -12.4376082, "lon": 130.9345859}, {"type": "node", "id": 29381622, "lat": -12.4416189, "lon": 130.9454092}, {"type": "node", "id": 29381725, "lat": -12.4328065, "lon": 130.9218333}, {"type": "node", "id": 29381726, "lat": -12.4333909, "lon": 130.9233981}, {"type": "node", "id": 29602174, "lat": -12.4334422, "lon": 130.9235356}, {"type": "node", "id": 29602176, "lat": -12.4332039, "lon": 130.9228975}, {"type": "node", "id": 30210331, "lat": -12.4295114, "lon": 130.9125078}, {"type": "node", "id": 1667681226, "lat": -12.4335632, "lon": 130.9234059}, {"type": "node", "id": 1667681228, "lat": -12.4335246, "lon": 130.9237561}, {"type": "node", "id": 1667681229, "lat": -12.4336106, "lon": 130.9235349}, {"type": "node", "id": 1667681244, "lat": -12.4339452, "lon": 130.9244452}, {"type": "node", "id": 1836104725, "lat": -12.4398735, "lon": 130.9407604}, {"type": "node", "id": 1836573319, "lat": -12.43129, "lon": 130.9177283}, {"type": "node", "id": 2866509030, "lat": -12.4320717, "lon": 130.9198632}, {"type": "node", "id": 2866509031, "lat": -12.432222, "lon": 130.9197986}, {"type": "node", "id": 2867877841, "lat": -12.4345709, "lon": 130.9260618}, {"type": "node", "id": 3670348792, "lat": -12.4336468, "lon": 130.9236334, "tags": {"highway": "traffic_signals", "traffic_signals:direction": "forward"}}, {"type": "node", "id": 3670348793, "lat": -12.433353, "lon": 130.9232968, "tags": {"highway": "traffic_signals", "traffic_signals:direction": "forward"}}, {"type": "node", "id": 4083070724, "lat": -12.435064, "lon": 130.9273185}, {"type": "node", "id": 4083070727, "lat": -12.4353699, "lon": 130.9286028}, {"type": "node", "id": 4083070735, "lat": -12.4355924, "lon": 130.9285251}, {"type": "node", "id": 4085100804, "lat": -12.4323847, "lon": 130.9202348}, {"type": "node", "id": 4085100841, "lat": -12.4334445, "lon": 130.923083}, {"type": "node", "id": 4085162954, "lat": -12.4335776, "lon": 130.9238981}, {"type": "node", "id": 4085162976, "lat": -12.4342992, "lon": 130.9258321}, {"type": "node", "id": 4854728856, "lat": -12.4294586, "lon": 130.9127634}, {"type": "node", "id": 5215077828, "lat": -12.4332818, "lon": 130.9226403}, {"type": "node", "id": 5215077835, "lat": -12.4328622, "lon": 130.9219823, "tags": {"bus": "yes", "name": "Berrimah", "operator": "Northern Territory Government", "public_transport": "stop_position", "ref": "BMH"}}, {"type": "node", "id": 5215077840, "lat": -12.4328121, "lon": 130.9213808, "tags": {"bus": "yes", "name": "Berrimah", "operator": "Northern Territory Government", "public_transport": "stop_position", "ref": "BMH"}}, {"type": "node", "id": 5317908828, "lat": -12.4336469, "lon": 130.9240836}, {"type": "node", "id": 7171170334, "lat": -12.43755, "lon": 130.9344297, "tags": {"highway": "traffic_signals", "traffic_signals": "signal", "traffic_signals:direction": "forward"}}, {"type": "node", "id": 7891918255, "lat": -12.4376646, "lon": 130.9347005, "tags": {"highway": "crossing"}}, {"type": "way", "id": 538844780, "nodes": [29602176, 3670348793, 29381726, 29602174, 1667681228, 4085162954, 5317908828, 29381618], "tags": {"highway": "trunk", "maxspeed": "90", "name": "Stuart Highway", "network": "AU:NT", "oneway": "yes", "ref": "A1", "surface": "paved"}}, {"type": "way", "id": 538844782, "nodes": [1667681244, 3670348792, 1667681229, 1667681226, 4085100841, 5215077828], "tags": {"highway": "trunk", "lanes": "2", "maxspeed": "90", "name": "Stuart Highway", "network": "AU:NT", "oneway": "yes", "ref": "A1", "source": "survey", "surface": "asphalt"}}, {"type": "way", "id": 550057382, "nodes": [4854728856, 1836573319, 2866509030, 29381725], "tags": {"highway": "trunk", "lanes": "2", "maxspeed": "90", "name": "Stuart Highway", "network": "AU:NT", "oneway": "yes", "ref": "A1", "surface": "asphalt"}}, {"type": "way", "id": 550057387, "nodes": [5215077828, 5215077840, 4085100804, 2866509031, 29381333, 30210331], "tags": {"highway": "trunk", "lanes": "2", "maxspeed": "90", "name": "Stuart Highway", "network": "AU:NT", "oneway": "yes", "ref": "A1", "source": "survey", "surface": "asphalt"}}, {"type": "way", "id": 550057388, "nodes": [4083070735, 4083070724, 2867877841, 29373252], "tags": {"highway": "trunk", "lanes": "2", "maxspeed": "90", "name": "Stuart Highway", "network": "AU:NT", "oneway": "yes", "ref": "A1", "source": "survey", "surface": "asphalt"}}, {"type": "way", "id": 572126197, "nodes": [29381618, 29381619, 4085162976, 4083070727, 29381620, 7171170334, 29381621, 7891918255, 1836104725, 29381622, 29381615], "tags": {"highway": "trunk", "maxspeed": "90", "name": "Stuart Highway", "network": "AU:NT", "oneway": "yes", "ref": "A1", "surface": "paved"}}, {"type": "way", "id": 772237038, "nodes": [29381725, 5215077835, 29602176], "tags": {"highway": "trunk", "maxspeed": "90", "name": "Stuart Highway", "network": "AU:NT", "oneway": "yes", "ref": "A1", "surface": "paved"}}, {"type": "way", "id": 772237041, "nodes": [29373252, 1667681244], "tags": {"highway": "trunk", "lanes": "2", "maxspeed": "90", "name": "Stuart Highway", "network": "AU:NT", "oneway": "yes", "ref": "A1", "source": "survey", "surface": "asphalt"}}]}