{"version": 0.6, "generator": "Overpass API 0.7.61.5 4133829e", "osm3s": {"timestamp_osm_base": "2023-12-06T14:56:51Z", "copyright": "The data included in this document is from www.openstreetmap.org. The data is made available under ODbL."}, "elements": [{"type": "node", "id": 29492060, "lat": -34.9236001, "lon": 138.5875472}, {"type": "node", "id": 29492074, "lat": -34.9248233, "lon": 138.5876137}, {"type": "node", "id": 29492093, "lat": -34.9307191, "lon": 138.5880806, "tags": {"highway": "traffic_signals"}}, {"type": "node", "id": 29492094, "lat": -34.9291775, "lon": 138.5879777}, {"type": "node", "id": 29492095, "lat": -34.9277692, "lon": 138.5878596, "tags": {"highway": "traffic_signals"}}, {"type": "node", "id": 29492096, "lat": -34.9263945, "lon": 138.5877486}, {"type": "node", "id": 29492097, "lat": -34.9242639, "lon": 138.5875784}, {"type": "node", "id": 29492098, "lat": -34.9231345, "lon": 138.5875105}, {"type": "node", "id": 29492386, "lat": -34.9232418, "lon": 138.5873036, "tags": {"junction": "yes"}}, {"type": "node", "id": 29492387, "lat": -34.9248014, "lon": 138.5874047}, {"type": "node", "id": 29492388, "lat": -34.9264027, "lon": 138.5875209}, {"type": "node", "id": 29492389, "lat": -34.9277794, "lon": 138.5876221, "tags": {"highway": "traffic_signals"}}, {"type": "node", "id": 29492390, "lat": -34.9291903, "lon": 138.5877256}, {"type": "node", "id": 30036013, "lat": -34.9219169, "lon": 138.5862365}, {"type": "node", "id": 30036014, "lat": -34.9209819, "lon": 138.5840126}, {"type": "node", "id": 30036022, "lat": -34.9214593, "lon": 138.5858476, "tags": {"highway": "motorway_junction"}}, {"type": "node", "id": 30036023, "lat": -34.9207978, "lon": 138.5841309}, {"type": "node", "id": 30036028, "lat": -34.9220834, "lon": 138.5871842, "tags": {"crossing": "traffic_signals", "highway": "crossing", "tactile_paving": "yes"}}, {"type": "node", "id": 30036060, "lat": -34.9221942, "lon": 138.587087}, {"type": "node", "id": 30036061, "lat": -34.9220856, "lon": 138.586634}, {"type": "node", "id": 30036070, "lat": -34.9223574, "lon": 138.5872564, "tags": {"button_operated": "yes", "crossing": "traffic_signals", "highway": "traffic_signals", "tactile_paving": "yes", "traffic_signals:sound": "yes", "traffic_signals:vibration": "yes"}}, {"type": "node", "id": 30036145, "lat": -34.9204803, "lon": 138.5826587}, {"type": "node", "id": 30036156, "lat": -34.9203718, "lon": 138.5829014}, {"type": "node", "id": 98694767, "lat": -34.9301086, "lon": 138.5811881}, {"type": "node", "id": 98694774, "lat": -34.9296588, "lon": 138.5831839}, {"type": "node", "id": 98696274, "lat": -34.9295604, "lon": 138.5835762}, {"type": "node", "id": 98696287, "lat": -34.9294915, "lon": 138.5839496}, {"type": "node", "id": 98696302, "lat": -34.929445, "lon": 138.5843386}, {"type": "node", "id": 98696311, "lat": -34.9294066, "lon": 138.5847725}, {"type": "node", "id": 98696350, "lat": -34.9293313, "lon": 138.5857792}, {"type": "node", "id": 98696362, "lat": -34.9292683, "lon": 138.5865879}, {"type": "node", "id": 98696363, "lat": -34.929227, "lon": 138.5870537}, {"type": "node", "id": 98698475, "lat": -34.928877, "lon": 138.5877028}, {"type": "node", "id": 98701750, "lat": -34.9293358, "lon": 138.5877363}, {"type": "node", "id": 98701764, "lat": -34.9293666, "lon": 138.5870564}, {"type": "node", "id": 98701773, "lat": -34.9293894, "lon": 138.5865935}, {"type": "node", "id": 98701785, "lat": -34.9294281, "lon": 138.5858004}, {"type": "node", "id": 98701820, "lat": -34.9294929, "lon": 138.5847719}, {"type": "node", "id": 98701822, "lat": -34.9295289, "lon": 138.5843645}, {"type": "node", "id": 98701827, "lat": -34.9295837, "lon": 138.5839813}, {"type": "node", "id": 98701830, "lat": -34.9296394, "lon": 138.5836745}, {"type": "node", "id": 98701842, "lat": -34.9302209, "lon": 138.5812277}, {"type": "node", "id": 137485914, "lat": -34.9236088, "lon": 138.587315}, {"type": "node", "id": 137485971, "lat": -34.9307301, "lon": 138.5878419, "tags": {"highway": "traffic_signals"}}, {"type": "node", "id": 244320772, "lat": -34.9249517, "lon": 138.5876253}, {"type": "node", "id": 244320773, "lat": -34.9244634, "lon": 138.587592}, {"type": "node", "id": 247750590, "lat": -34.9232413, "lon": 138.5875173}, {"type": "node", "id": 247758965, "lat": -34.9293291, "lon": 138.5879876}, {"type": "node", "id": 249554808, "lat": -34.9249314, "lon": 138.5874127}, {"type": "node", "id": 249555022, "lat": -34.9230188, "lon": 138.5875009}, {"type": "node", "id": 322372497, "lat": -34.9301171, "lon": 138.5880383}, {"type": "node", "id": 656151208, "lat": -34.9212695, "lon": 138.5849931, "tags": {"railway": "level_crossing"}}, {"type": "node", "id": 664946424, "lat": -34.9211491, "lon": 138.5850747}, {"type": "node", "id": 711945192, "lat": -34.922546, "lon": 138.5872743}, {"type": "node", "id": 1705637975, "lat": -34.9297197, "lon": 138.5832911}, {"type": "node", "id": 1705637996, "lat": -34.9297394, "lon": 138.5832101}, {"type": "node", "id": 1705638049, "lat": -34.9296415, "lon": 138.5832639}, {"type": "node", "id": 1788455670, "lat": -34.929059, "lon": 138.5879684, "tags": {"highway": "traffic_signals", "traffic_signals:direction": "forward"}}, {"type": "node", "id": 1788455671, "lat": -34.9291956, "lon": 138.5875865, "tags": {"highway": "traffic_signals", "traffic_signals:direction": "forward"}}, {"type": "node", "id": 1788455673, "lat": -34.9294438, "lon": 138.5877444, "tags": {"highway": "traffic_signals", "traffic_signals:direction": "forward"}}, {"type": "node", "id": 1834847481, "lat": -34.9228569, "lon": 138.5872907}, {"type": "node", "id": 1839949115, "lat": -34.9221439, "lon": 138.5868273}, {"type": "node", "id": 1839949118, "lat": -34.9222011, "lon": 138.5871607, "tags": {"crossing": "traffic_signals", "highway": "crossing", "tactile_paving": "yes"}}, {"type": "node", "id": 1839949140, "lat": -34.9236755, "lon": 138.5875528, "tags": {"highway": "crossing"}}, {"type": "node", "id": 1839949143, "lat": -34.9236854, "lon": 138.5873212, "tags": {"crossing": "traffic_signals", "highway": "crossing"}}, {"type": "node", "id": 1839949145, "lat": -34.9237057, "lon": 138.5873226, "tags": {"highway": "traffic_signals", "traffic_signals:direction": "forward"}}, {"type": "node", "id": 1839949229, "lat": -34.9246781, "lon": 138.5876048, "tags": {"highway": "traffic_signals", "traffic_signals:direction": "forward"}}, {"type": "node", "id": 1839949283, "lat": -34.9250068, "lon": 138.5874182, "tags": {"button_operated": "yes", "crossing": "traffic_signals", "highway": "crossing", "tactile_paving": "yes", "traffic_signals:sound": "yes", "traffic_signals:vibration": "yes"}}, {"type": "node", "id": 1839949285, "lat": -34.9250189, "lon": 138.587631, "tags": {"button_operated": "yes", "crossing": "traffic_signals", "highway": "crossing", "tactile_paving": "yes", "traffic_signals:sound": "yes", "traffic_signals:vibration": "yes"}}, {"type": "node", "id": 1839949299, "lat": -34.9250344, "lon": 138.5874203, "tags": {"highway": "traffic_signals", "traffic_signals:direction": "forward"}}, {"type": "node", "id": 1839949378, "lat": -34.9291006, "lon": 138.5879716, "tags": {"crossing": "traffic_signals", "highway": "crossing"}}, {"type": "node", "id": 1839949379, "lat": -34.9291176, "lon": 138.587722, "tags": {"crossing": "traffic_signals", "highway": "crossing"}}, {"type": "node", "id": 1839949381, "lat": -34.9291949, "lon": 138.5875983, "tags": {"crossing": "traffic_signals", "highway": "crossing"}}, {"type": "node", "id": 1839949382, "lat": -34.9292198, "lon": 138.5871766}, {"type": "node", "id": 1839949385, "lat": -34.9293416, "lon": 138.5876076, "tags": {"crossing": "traffic_signals", "highway": "crossing"}}, {"type": "node", "id": 1839949390, "lat": -34.9294133, "lon": 138.5879934, "tags": {"crossing": "traffic_signals", "highway": "crossing"}}, {"type": "node", "id": 1839949391, "lat": -34.9294222, "lon": 138.5877435, "tags": {"highway": "crossing"}}, {"type": "node", "id": 1839949395, "lat": -34.9295407, "lon": 138.5879988}, {"type": "node", "id": 1964122024, "lat": -34.9220339, "lon": 138.5871088, "tags": {"railway": "tram_level_crossing"}}, {"type": "node", "id": 2207706263, "lat": -34.9254135, "lon": 138.5874481}, {"type": "node", "id": 2207706265, "lat": -34.9262391, "lon": 138.5875088}, {"type": "node", "id": 2392586865, "lat": -34.9208443, "lon": 138.5836328}, {"type": "node", "id": 2392586871, "lat": -34.9235348, "lon": 138.5873098}, {"type": "node", "id": 2397995303, "lat": -34.922492, "lon": 138.5874491}, {"type": "node", "id": 2398019859, "lat": -34.9248885, "lon": 138.5876186}, {"type": "node", "id": 2744201917, "lat": -34.9266685, "lon": 138.5875404}, {"type": "node", "id": 5234365920, "lat": -34.9212213, "lon": 138.5850258, "tags": {"railway": "level_crossing"}}, {"type": "node", "id": 5234367221, "lat": -34.9213464, "lon": 138.5849421}, {"type": "node", "id": 5528582130, "lat": -34.9283184, "lon": 138.5879034}, {"type": "node", "id": 5528582131, "lat": -34.9283273, "lon": 138.5876613}, {"type": "node", "id": 6302893482, "lat": -34.9278791, "lon": 138.5878663}, {"type": "node", "id": 6302893483, "lat": -34.9278917, "lon": 138.5876289}, {"type": "node", "id": 6302927044, "lat": -34.9306509, "lon": 138.5878314}, {"type": "node", "id": 6302927045, "lat": -34.9306388, "lon": 138.5880728}, {"type": "node", "id": 6360099318, "lat": -34.9222738, "lon": 138.5873707}, {"type": "node", "id": 6360099324, "lat": -34.9221472, "lon": 138.5872612, "tags": {"railway": "tram_level_crossing"}}, {"type": "node", "id": 6360099349, "lat": -34.9223502, "lon": 138.587414, "tags": {"button_operated": "yes", "crossing": "traffic_signals", "highway": "crossing", "tactile_paving": "yes", "traffic_signals:sound": "yes", "traffic_signals:vibration": "yes"}}, {"type": "node", "id": 6360099359, "lat": -34.9222089, "lon": 138.5873186}, {"type": "node", "id": 6360099363, "lat": -34.9221673, "lon": 138.5869209}, {"type": "node", "id": 6360099377, "lat": -34.9219225, "lon": 138.5868622}, {"type": "node", "id": 6360099487, "lat": -34.9222081, "lon": 138.5872487}, {"type": "node", "id": 6360099504, "lat": -34.9221845, "lon": 138.5870141}, {"type": "node", "id": 8653525711, "lat": -34.9237079, "lon": 138.5873228, "tags": {"highway": "speed_camera", "maxspeed": "60", "ref": "65, 128 Safety Camera 60 Km/h"}}, {"type": "node", "id": 9351931219, "lat": -34.9204789, "lon": 138.5832104}, {"type": "node", "id": 9937452612, "lat": -34.9246858, "lon": 138.587396, "tags": {"button_operated": "yes", "crossing": "traffic_signals", "highway": "crossing", "tactile_paving": "yes", "traffic_signals:sound": "yes", "traffic_signals:vibration": "yes"}}, {"type": "node", "id": 9937452613, "lat": -34.9247234, "lon": 138.5876076, "tags": {"button_operated": "yes", "crossing": "traffic_signals", "highway": "crossing", "tactile_paving": "yes", "traffic_signals:sound": "yes", "traffic_signals:vibration": "yes"}}, {"type": "node", "id": 9937499917, "lat": -34.9276977, "lon": 138.5876161, "tags": {"crossing": "traffic_signals", "highway": "crossing"}}, {"type": "node", "id": 9937499918, "lat": -34.9276834, "lon": 138.5878527, "tags": {"crossing": "traffic_signals", "highway": "crossing"}}, {"type": "node", "id": 9937499930, "lat": -34.9234895, "lon": 138.5873088, "tags": {"crossing": "traffic_signals", "highway": "crossing"}}, {"type": "node", "id": 9937499931, "lat": -34.9235211, "lon": 138.5875387, "tags": {"crossing": "traffic_signals", "highway": "crossing"}}, {"type": "node", "id": 10073886063, "lat": -34.9218925, "lon": 138.5867626}, {"type": "node", "id": 10073886064, "lat": -34.9219806, "lon": 138.587012, "tags": {"highway": "traffic_signals", "traffic_signals": "signal", "traffic_signals:direction": "forward"}}, {"type": "node", "id": 10073886065, "lat": -34.9218031, "lon": 138.5865184}, {"type": "node", "id": 10073886066, "lat": -34.9218509, "lon": 138.5866413}, {"type": "node", "id": 10073886067, "lat": -34.9217507, "lon": 138.5863986}, {"type": "node", "id": 10229533934, "lat": -34.9221147, "lon": 138.5867248}, {"type": "node", "id": 10229533935, "lat": -34.9220562, "lon": 138.5865581}, {"type": "node", "id": 10229533948, "lat": -34.9220608, "lon": 138.5871529}, {"type": "node", "id": 10229533952, "lat": -34.9222052, "lon": 138.5872095}, {"type": "node", "id": 10229533953, "lat": -34.9222086, "lon": 138.5872915}, {"type": "node", "id": 10229533954, "lat": -34.922419, "lon": 138.5874354}, {"type": "node", "id": 10229533963, "lat": -34.9219519, "lon": 138.5869407}, {"type": "node", "id": 10229533968, "lat": -34.9222884, "lon": 138.5872513}, {"type": "node", "id": 10229533971, "lat": -34.9222575, "lon": 138.5872493}, {"type": "node", "id": 11033593232, "lat": -34.9220076, "lon": 138.5870628}, {"type": "node", "id": 11066906326, "lat": -34.9229122, "lon": 138.587493}, {"type": "node", "id": 11313979850, "lat": -34.922388, "lon": 138.5872593, "tags": {"highway": "traffic_signals", "traffic_signals": "signal", "traffic_signals:direction": "forward"}}, {"type": "way", "id": 4638166, "nodes": [137485914, 29492060], "tags": {"foot": "yes", "highway": "primary", "lanes": "1", "lit": "yes", "maxspeed": "50", "name": "Hindley Street", "postal_code": "5000", "sidewalk": "both", "surface": "asphalt"}}, {"type": "way", "id": 4717190, "nodes": [6360099359, 10229533953, 6360099487], "tags": {"highway": "primary", "is_in": "Adelaide,South Australia,Australia", "lanes": "3", "lit": "yes", "maxspeed": "60", "name": "Port Road", "oneway": "yes", "postal_code": "5000", "surface": "asphalt"}}, {"type": "way", "id": 4717224, "nodes": [5234367221, 30036014, 2392586865, 30036145], "tags": {"highway": "primary", "lanes": "3", "maxspeed": "60", "name": "Port Road", "oneway": "yes", "smoothness": "good", "surface": "asphalt"}}, {"type": "way", "id": 11066166, "nodes": [98694767, 98694774], "tags": {"cycleway": "lane", "highway": "primary", "lanes": "2", "lit": "yes", "maxspeed": "60", "name": "Sir Donald Bradman Drive", "network": "AU:SA", "oneway": "yes", "postal_code": "5000", "ref": "A6", "surface": "asphalt"}}, {"type": "way", "id": 11066731, "nodes": [98701750, 1839949385, 98701764, 98701773], "tags": {"cycleway:left": "lane", "cycleway:left:lane": "exclusive", "highway": "primary", "lanes": "2", "lit": "yes", "maxspeed": "60", "name": "Sir Donald Bradman Drive", "network": "AU:SA", "old_name": "Burrbridge Road", "oneway": "yes", "postal_code": "5000", "ref": "A6", "source": "survey", "surface": "asphalt"}}, {"type": "way", "id": 14293588, "nodes": [30036022, 10073886067, 10073886065, 10073886066, 10073886063, 6360099377, 10229533963, 10073886064, 11033593232, 1964122024, 10229533948, 30036028, 6360099324], "tags": {"cycleway:left": "lane", "highway": "primary", "lanes": "3", "lit": "yes", "maxspeed": "60", "name": "Port Road", "oneway": "yes", "postal_code": "5000", "source": "survey", "surface": "asphalt"}}, {"type": "way", "id": 19956448, "nodes": [29492388, 2207706265, 2207706263, 1839949299, 1839949283, 249554808], "tags": {"cycleway:left": "no", "foot": "yes", "highway": "primary", "is_in": "Adelaide,South Australia,Australia", "lanes": "4", "lit": "yes", "maxspeed": "60", "name": "West Terrace", "oneway": "yes", "postal_code": "5000", "shoulder": "no", "sidewalk": "left", "source": "survey", "surface": "asphalt"}}, {"type": "way", "id": 22762482, "nodes": [249555022, 29492098, 247750590], "tags": {"cycleway:left": "lane", "cycleway:right": "no", "highway": "primary", "lanes": "5", "lit": "yes", "maxspeed": "60", "name": "West Terrace", "oneway": "yes", "postal_code": "5000", "sidewalk": "left", "source": "survey", "surface": "asphalt"}}, {"type": "way", "id": 23204334, "nodes": [29492386, 1834847481, 711945192, 11313979850, 30036070], "tags": {"cycleway:left": "no", "highway": "primary", "lanes": "3", "lit": "yes", "maxspeed": "60", "name": "West Terrace", "oneway": "yes", "postal_code": "5000", "source": "nearmap", "surface": "asphalt"}}, {"type": "way", "id": 69354579, "nodes": [98694774, 1705638049, 98696274, 98696287, 98696302, 98696311, 98696350, 98696362, 98696363, 1839949382], "tags": {"cycleway": "lane", "highway": "primary", "lanes": "2", "lit": "yes", "maxspeed": "60", "name": "Sir Donald Bradman Drive", "network": "AU:SA", "oneway": "yes", "postal_code": "5000", "ref": "A6", "surface": "asphalt"}}, {"type": "way", "id": 110004273, "nodes": [98701773, 98701785, 98701820, 98701822, 98701827, 98701830, 1705637975, 1705637996, 98701842], "tags": {"cycleway:left": "lane", "cycleway:left:lane": "exclusive", "highway": "primary", "lanes": "2", "lit": "yes", "maxspeed": "60", "name": "Sir Donald Bradman Drive", "network": "AU:SA", "old_name": "Burrbridge Road", "oneway": "yes", "postal_code": "5000", "ref": "A6", "source": "survey", "surface": "asphalt"}}, {"type": "way", "id": 150739319, "nodes": [29492060, 1839949140, 29492097, 244320773], "tags": {"cycleway:both": "no", "foot": "yes", "highway": "primary", "lanes": "5", "lit": "yes", "maxspeed": "60", "name": "West Terrace", "oneway": "yes", "postal_code": "5000", "sidewalk": "left", "source": "survey", "surface": "asphalt"}}, {"type": "way", "id": 150739320, "nodes": [137485914, 2392586871, 9937499930, 29492386], "tags": {"highway": "primary", "is_in": "Adelaide,South Australia,Australia", "lanes": "5", "lit": "yes", "maxspeed": "60", "name": "West Terrace", "oneway": "yes", "postal_code": "5000", "source": "survey", "surface": "asphalt"}}, {"type": "way", "id": 184857825, "nodes": [5528582130, 1788455670, 1839949378, 29492094], "tags": {"cycleway:both": "no", "foot": "yes", "highway": "primary", "lanes": "5", "lit": "yes", "maxspeed": "60", "name": "West Terrace", "oneway": "yes", "postal_code": "5000", "sidewalk": "left", "source": "survey", "surface": "asphalt"}}, {"type": "way", "id": 184857826, "nodes": [244320773, 1839949229, 9937452613, 29492074], "tags": {"cycleway:both": "no", "foot": "yes", "highway": "primary", "lanes": "4", "lit": "yes", "maxspeed": "60", "name": "West Terrace", "oneway": "yes", "postal_code": "5000", "shoulder": "no", "sidewalk": "left", "source": "survey", "surface": "asphalt"}}, {"type": "way", "id": 226830974, "nodes": [137485971, 6302927044, 1788455673, 1839949391, 98701750], "tags": {"foot": "yes", "highway": "primary", "lanes": "4", "lit": "yes", "maxspeed": "60", "name": "West Terrace", "oneway": "yes", "postal_code": "5000", "sidewalk": "left", "source": "survey", "surface": "asphalt"}}, {"type": "way", "id": 314943980, "nodes": [5234367221, 656151208, 5234365920, 664946424], "tags": {"highway": "primary", "name": "George Street", "surface": "asphalt"}}, {"type": "way", "id": 576411161, "nodes": [1839949395, 322372497, 6302927045, 29492093], "tags": {"cycleway:both": "no", "foot": "yes", "highway": "primary", "lanes": "5", "lit": "yes", "maxspeed": "60", "name": "West Terrace", "oneway": "yes", "postal_code": "5000", "sidewalk": "left", "source": "survey", "surface": "asphalt"}}, {"type": "way", "id": 576411837, "nodes": [247758965, 1839949390, 1839949395], "tags": {"cycleway:both": "no", "foot": "yes", "highway": "primary", "lanes": "5", "lit": "yes", "maxspeed": "60", "name": "West Terrace", "oneway": "yes", "postal_code": "5000", "sidewalk": "left", "source": "survey", "surface": "asphalt"}}, {"type": "way", "id": 576411838, "nodes": [29492094, 247758965], "tags": {"cycleway:both": "no", "foot": "yes", "highway": "primary", "lanes": "5", "lit": "yes", "maxspeed": "60", "name": "West Terrace", "oneway": "yes", "postal_code": "5000", "sidewalk": "left", "source": "survey", "surface": "asphalt"}}, {"type": "way", "id": 576411839, "nodes": [98701750, 29492390], "tags": {"foot": "yes", "highway": "primary", "lanes": "4", "lit": "yes", "maxspeed": "60", "name": "West Terrace", "oneway": "yes", "postal_code": "5000", "sidewalk": "left", "source": "survey", "surface": "asphalt"}}, {"type": "way", "id": 576412998, "nodes": [29492095, 6302893482, 5528582130], "tags": {"cycleway:both": "no", "foot": "yes", "highway": "primary", "lanes": "5", "lit": "yes", "maxspeed": "60", "name": "West Terrace", "oneway": "yes", "postal_code": "5000", "sidewalk": "left", "source": "survey", "surface": "asphalt"}}, {"type": "way", "id": 576412999, "nodes": [244320772, 1839949285, 29492096], "tags": {"cycleway:both": "no", "foot": "yes", "highway": "primary", "lanes": "5", "lit": "yes", "maxspeed": "60", "name": "West Terrace", "oneway": "yes", "postal_code": "5000", "shoulder": "no", "sidewalk": "left", "source": "survey", "surface": "asphalt"}}, {"type": "way", "id": 576413000, "nodes": [5528582131, 6302893483, 29492389], "tags": {"cycleway:left": "no", "foot": "yes", "highway": "primary", "lanes": "4", "lit": "yes", "maxspeed": "60", "name": "West Terrace", "oneway": "yes", "postal_code": "5000", "sidewalk": "left", "source": "survey", "surface": "asphalt"}}, {"type": "way", "id": 576413001, "nodes": [29492390, 1839949379, 98698475], "tags": {"foot": "yes", "highway": "primary", "lanes": "4", "lit": "yes", "maxspeed": "60", "name": "West Terrace", "oneway": "yes", "postal_code": "5000", "sidewalk": "left", "source": "survey", "surface": "asphalt"}}, {"type": "way", "id": 576414120, "nodes": [29492387, 9937452612, 8653525711, 1839949145, 1839949143, 137485914], "tags": {"foot": "yes", "highway": "primary", "is_in": "Adelaide,South Australia,Australia", "lanes": "4", "lit": "yes", "maxspeed": "60", "name": "West Terrace", "oneway": "yes", "postal_code": "5000", "sidewalk": "left", "source": "survey", "surface": "asphalt"}}, {"type": "way", "id": 576414121, "nodes": [249554808, 29492387], "tags": {"cycleway:left": "no", "foot": "yes", "highway": "primary", "is_in": "Adelaide,South Australia,Australia", "lanes": "4", "lit": "yes", "maxspeed": "60", "name": "West Terrace", "oneway": "yes", "postal_code": "5000", "sidewalk": "left", "source": "survey", "surface": "asphalt"}}, {"type": "way", "id": 576414122, "nodes": [29492074, 2398019859, 244320772], "tags": {"cycleway:both": "no", "foot": "yes", "highway": "primary", "lanes": "4", "lit": "yes", "maxspeed": "60", "name": "West Terrace", "oneway": "yes", "postal_code": "5000", "shoulder": "no", "sidewalk": "left", "source": "survey", "surface": "asphalt"}}, {"type": "way", "id": 698213367, "nodes": [29492389, 9937499917, 2744201917, 29492388], "tags": {"foot": "yes", "highway": "primary", "lanes": "4", "lit": "yes", "maxspeed": "60", "name": "West Terrace", "oneway": "yes", "postal_code": "5000", "sidewalk": "left", "source": "survey", "surface": "asphalt"}}, {"type": "way", "id": 698213368, "nodes": [29492096, 9937499918, 29492095], "tags": {"cycleway:both": "no", "foot": "yes", "highway": "primary", "lanes": "5", "lit": "yes", "maxspeed": "60", "name": "West Terrace", "oneway": "yes", "postal_code": "5000", "sidewalk": "left", "source": "survey", "surface": "asphalt"}}, {"type": "way", "id": 732410806, "nodes": [1839949382, 1788455671, 1839949381, 29492390], "tags": {"cycleway": "lane", "highway": "primary", "lanes": "2", "lit": "yes", "maxspeed": "60", "name": "Sir Donald Bradman Drive", "network": "AU:SA", "oneway": "yes", "postal_code": "5000", "ref": "A6", "surface": "asphalt"}}, {"type": "way", "id": 741969087, "nodes": [664946424, 30036022], "tags": {"cycleway:left": "lane", "highway": "primary", "is_in": "Adelaide,South Australia,Australia", "lanes": "3", "maxspeed": "60", "name": "Port Road", "oneway": "yes", "postal_code": "5000", "source": "survey", "surface": "asphalt"}}, {"type": "way", "id": 741974113, "nodes": [30036013, 5234367221], "tags": {"highway": "primary", "lanes": "3", "maxspeed": "60", "name": "Port Road", "oneway": "yes", "surface": "asphalt"}}, {"type": "way", "id": 785131298, "nodes": [2397995303, 11066906326, 249555022], "tags": {"cycleway:left": "lane", "cycleway:right": "no", "foot": "yes", "highway": "primary", "lanes": "4", "lit": "yes", "maxspeed": "60", "name": "West Terrace", "oneway": "yes", "postal_code": "5000", "sidewalk": "left", "source": "survey", "surface": "asphalt"}}, {"type": "way", "id": 785131299, "nodes": [30036156, 9351931219, 30036023, 664946424], "tags": {"cycleway:left": "lane", "highway": "primary", "is_in": "Adelaide,South Australia,Australia", "lanes": "3", "maxspeed": "60", "name": "Port Road", "oneway": "yes", "postal_code": "5000", "source": "survey", "surface": "asphalt"}}, {"type": "way", "id": 786910086, "nodes": [98698475, 5528582131], "tags": {"foot": "yes", "highway": "primary", "lanes": "4", "lit": "yes", "maxspeed": "60", "name": "West Terrace", "oneway": "yes", "postal_code": "5000", "sidewalk": "left", "source": "survey", "surface": "asphalt"}}, {"type": "way", "id": 1003270641, "nodes": [6360099487, 10229533952, 1839949118, 30036060, 6360099504, 6360099363, 1839949115, 10229533934, 30036061, 10229533935, 30036013], "tags": {"highway": "primary", "is_in": "Adelaide,South Australia,Australia", "lanes": "3", "lit": "yes", "maxspeed": "60", "name": "Port Road", "oneway": "yes", "postal_code": "5000", "surface": "asphalt"}}, {"type": "way", "id": 1003270645, "nodes": [6360099324, 6360099359], "tags": {"cycleway:left": "lane", "cycleway:right": "no", "foot": "yes", "highway": "primary", "lanes": "3", "lit": "yes", "maxspeed": "60", "name": "West Terrace", "oneway": "yes", "postal_code": "5000", "source": "survey", "surface": "asphalt"}}, {"type": "way", "id": 1080885665, "nodes": [247750590, 9937499931, 29492060], "tags": {"cycleway:left": "lane", "cycleway:right": "no", "highway": "primary", "lanes": "5", "lit": "yes", "maxspeed": "60", "name": "West Terrace", "oneway": "yes", "postal_code": "5000", "sidewalk": "left", "source": "survey", "surface": "asphalt"}}, {"type": "way", "id": 1118484077, "nodes": [6360099487, 6360099324], "tags": {"highway": "primary", "lanes": "3", "lit": "yes", "maxspeed": "60", "name": "West Terrace", "oneway": "yes", "surface": "asphalt"}}, {"type": "way", "id": 1192078857, "nodes": [6360099349, 10229533954, 2397995303], "tags": {"cycleway:left": "lane", "cycleway:right": "no", "foot": "yes", "highway": "primary", "lanes": "3", "lit": "yes", "maxspeed": "60", "name": "West Terrace", "oneway": "yes", "postal_code": "5000", "source": "survey", "surface": "asphalt"}}, {"type": "way", "id": 1192078858, "nodes": [30036070, 10229533968, 10229533971, 6360099487], "tags": {"cycleway:left": "no", "highway": "primary", "lanes": "3", "lit": "yes", "maxspeed": "60", "name": "West Terrace", "oneway": "yes", "postal_code": "5000", "source": "nearmap", "surface": "asphalt"}}, {"type": "way", "id": 1192080084, "nodes": [6360099359, 6360099318, 6360099349], "tags": {"cycleway:left": "lane", "cycleway:right": "no", "foot": "yes", "highway": "primary", "lanes": "3", "lit": "yes", "maxspeed": "60", "name": "West Terrace", "oneway": "yes", "postal_code": "5000", "source": "survey", "surface": "asphalt"}}]}