{"version": 0.6, "generator": "Overpass API 0.7.61.5 4133829e", "osm3s": {"timestamp_osm_base": "2023-12-06T14:19:10Z", "copyright": "The data included in this document is from www.openstreetmap.org. The data is made available under ODbL."}, "elements": [{"type": "node", "id": 21277122, "lat": -27.1789182, "lon": 151.2587697, "tags": {"highway": "traffic_signals"}}, {"type": "node", "id": 21278081, "lat": -27.1860225, "lon": 151.2494479}, {"type": "node", "id": 297399480, "lat": -27.1745841, "lon": 151.2513944}, {"type": "node", "id": 297399481, "lat": -27.175016, "lon": 151.2515889}, {"type": "node", "id": 297399482, "lat": -27.1752713, "lon": 151.2517337}, {"type": "node", "id": 297399483, "lat": -27.1758905, "lon": 151.2519014}, {"type": "node", "id": 297399484, "lat": -27.1760838, "lon": 151.2518504}, {"type": "node", "id": 297426008, "lat": -27.1777528, "lon": 151.2553453}, {"type": "node", "id": 297836125, "lat": -27.1795917, "lon": 151.257886}, {"type": "node", "id": 297836198, "lat": -27.1831834, "lon": 151.2531732}, {"type": "node", "id": 299443848, "lat": -27.1669852, "lon": 151.2500802}, {"type": "node", "id": 318536710, "lat": -27.1784249, "lon": 151.257542}, {"type": "node", "id": 331183532, "lat": -27.1703335, "lon": 151.2507109}, {"type": "node", "id": 345524904, "lat": -27.1720965, "lon": 151.2509479}, {"type": "node", "id": 345525445, "lat": -27.1808789, "lon": 151.256197}, {"type": "node", "id": 364344562, "lat": -27.1802363, "lon": 151.2570402}, {"type": "node", "id": 364344721, "lat": -27.1815813, "lon": 151.2552755}, {"type": "node", "id": 415488458, "lat": -27.1757366, "lon": 151.2519121}, {"type": "node", "id": 415488459, "lat": -27.175974, "lon": 151.2518786}, {"type": "node", "id": 415488461, "lat": -27.1762198, "lon": 151.2518008}, {"type": "node", "id": 415488462, "lat": -27.1763849, "lon": 151.2517482}, {"type": "node", "id": 415488463, "lat": -27.1768745, "lon": 151.2515234}, {"type": "node", "id": 432264181, "lat": -27.1785586, "lon": 151.2579458}, {"type": "node", "id": 440111711, "lat": -27.1665222, "lon": 151.2499796, "tags": {"railway": "level_crossing"}}, {"type": "node", "id": 469560535, "lat": -27.1728792, "lon": 151.2510565}, {"type": "node", "id": 469560538, "lat": -27.1736308, "lon": 151.2512013}, {"type": "node", "id": 469560877, "lat": -27.1741498, "lon": 151.2512858}, {"type": "node", "id": 469561303, "lat": -27.1676688, "lon": 151.2502317}, {"type": "node", "id": 469561304, "lat": -27.16948, "lon": 151.2505522}, {"type": "node", "id": 469642855, "lat": -27.1747798, "lon": 151.2514789}, {"type": "node", "id": 469650174, "lat": -27.1681831, "lon": 151.2503242}, {"type": "node", "id": 619053589, "lat": -27.1703892, "lon": 151.2507145}, {"type": "node", "id": 1974883581, "lat": -27.1785065, "lon": 151.2577951}, {"type": "node", "id": 5512545502, "lat": -27.1755362, "lon": 151.2518638}, {"type": "node", "id": 5512545503, "lat": -27.1756316, "lon": 151.2519}, {"type": "node", "id": 5585696235, "lat": -27.184808, "lon": 151.2510415}, {"type": "node", "id": 5585696239, "lat": -27.1835682, "lon": 151.2526683}, {"type": "node", "id": 5585696240, "lat": -27.1835226, "lon": 151.2527282}, {"type": "node", "id": 6124474797, "lat": -27.1773257, "lon": 151.2534678}, {"type": "node", "id": 6124474798, "lat": -27.177284, "lon": 151.2532291}, {"type": "node", "id": 6124474799, "lat": -27.1769815, "lon": 151.2518975}, {"type": "node", "id": 6124474800, "lat": -27.1760116, "lon": 151.2487558}, {"type": "node", "id": 6124474801, "lat": -27.1755481, "lon": 151.2472263}, {"type": "node", "id": 6124474802, "lat": -27.1748752, "lon": 151.2452227}, {"type": "node", "id": 6124474803, "lat": -27.1747559, "lon": 151.2448499, "tags": {"highway": "traffic_signals", "traffic_signals": "signal"}}, {"type": "node", "id": 6124474806, "lat": -27.1761565, "lon": 151.2492675}, {"type": "node", "id": 6570000985, "lat": -27.1776073, "lon": 151.2547874}, {"type": "node", "id": 6570000987, "lat": -27.1774498, "lon": 151.2540337}, {"type": "node", "id": 6735117218, "lat": -27.1713126, "lon": 151.2508433}, {"type": "node", "id": 6735117219, "lat": -27.1698463, "lon": 151.2506179}, {"type": "node", "id": 6735117220, "lat": -27.1686627, "lon": 151.2504141}, {"type": "node", "id": 6735117222, "lat": -27.1656524, "lon": 151.2498066}, {"type": "node", "id": 6735124207, "lat": -27.1743741, "lon": 151.2513368}, {"type": "node", "id": 6735124229, "lat": -27.1767042, "lon": 151.2509319}, {"type": "node", "id": 6735124230, "lat": -27.1766047, "lon": 151.2507241}, {"type": "node", "id": 6967780280, "lat": -27.1772146, "lon": 151.2529156}, {"type": "node", "id": 9103472477, "lat": -27.1777277, "lon": 151.2552435, "tags": {"railway": "level_crossing"}}, {"type": "node", "id": 9103472480, "lat": -27.1772972, "lon": 151.2533048}, {"type": "node", "id": 9103472481, "lat": -27.1773073, "lon": 151.2533622}, {"type": "node", "id": 10818875885, "lat": -27.1766364, "lon": 151.2509639}, {"type": "node", "id": 10818875889, "lat": -27.1765216, "lon": 151.2517285}, {"type": "node", "id": 10818875891, "lat": -27.1768788, "lon": 151.2518465}, {"type": "node", "id": 10818875892, "lat": -27.1768175, "lon": 151.2513148}, {"type": "node", "id": 10818875893, "lat": -27.1770074, "lon": 151.2521366}, {"type": "node", "id": 10818875894, "lat": -27.1768993, "lon": 151.2519209}, {"type": "node", "id": 10818875896, "lat": -27.1765559, "lon": 151.2516488}, {"type": "node", "id": 10818875897, "lat": -27.1768155, "lon": 151.2516151}, {"type": "node", "id": 10818875898, "lat": -27.1767971, "lon": 151.2515519}, {"type": "node", "id": 10818875899, "lat": -27.1765046, "lon": 151.2516695}, {"type": "node", "id": 10818875900, "lat": -27.1766346, "lon": 151.2516852}, {"type": "node", "id": 10818897674, "lat": -27.1769292, "lon": 151.2517125, "tags": {"highway": "traffic_signals", "traffic_signals": "signal", "traffic_signals:direction": "forward"}}, {"type": "node", "id": 10818897675, "lat": -27.1767698, "lon": 151.2514504, "tags": {"highway": "traffic_signals", "traffic_signals": "signal", "traffic_signals:direction": "forward"}}, {"type": "node", "id": 10818897679, "lat": -27.1768359, "lon": 151.2516909, "tags": {"button_operated": "yes", "crossing": "traffic_signals", "crossing:island": "yes", "crossing:markings": "dashes", "highway": "crossing", "tactile_paving": "yes"}}, {"type": "node", "id": 10818897680, "lat": -27.1769158, "lon": 151.2516648, "tags": {"button_operated": "yes", "crossing": "traffic_signals", "crossing:island": "yes", "crossing:markings": "dashes", "highway": "crossing", "tactile_paving": "yes"}}, {"type": "node", "id": 10818897683, "lat": -27.1767329, "lon": 151.2515775, "tags": {"button_operated": "yes", "crossing": "traffic_signals", "crossing:island": "yes", "crossing:markings": "dashes", "highway": "crossing", "tactile_paving": "yes"}}, {"type": "node", "id": 10818897684, "lat": -27.1767505, "lon": 151.2516408, "tags": {"button_operated": "yes", "crossing": "traffic_signals", "crossing:island": "yes", "crossing:markings": "dashes", "highway": "crossing", "tactile_paving": "yes"}}, {"type": "node", "id": 11196834439, "lat": -27.1768929, "lon": 151.2515866}, {"type": "node", "id": 11330096560, "lat": -27.1828377, "lon": 151.2536272}, {"type": "node", "id": 11330096563, "lat": -27.1824605, "lon": 151.2541217}, {"type": "way", "id": 4016018, "nodes": [21278081, 5585696235, 5585696239, 5585696240, 297836198, 11330096560, 11330096563, 364344721, 345525445, 364344562, 297836125, 21277122], "tags": {"highway": "primary", "lanes": "2", "maxspeed": "60", "name": "Nicholson Street", "network": "AU:QLD:S", "oneway": "no", "ref": "49", "surface": "asphalt"}}, {"type": "way", "id": 35420335, "nodes": [415488462, 10818875889], "tags": {"highway": "primary", "lanes": "1", "maxspeed": "60", "name": "Jandowae Road", "network": "AU:QLD:S", "oneway": "yes", "operator": "Department of Transport and Main Roads", "operator:type": "government", "ref": "82", "surface": "asphalt"}}, {"type": "way", "id": 177829330, "nodes": [318536710, 297426008], "tags": {"highway": "trunk", "lanes": "4", "maxspeed": "60", "name": "Warrego Highway", "network": "AU:QLD;AU:QLD:S", "oneway": "no", "ref": "A2;82", "source:maxspeed": "sign", "surface": "asphalt"}}, {"type": "way", "id": 653506716, "nodes": [297426008, 9103472477, 6570000985, 6570000987, 6124474797, 9103472481], "tags": {"highway": "trunk", "lanes": "4", "maxspeed": "60", "name": "Warrego Highway", "network": "AU:QLD;AU:QLD:S", "oneway": "no", "ref": "A2;82", "surface": "asphalt"}}, {"type": "way", "id": 653506717, "nodes": [432264181, 1974883581, 318536710], "tags": {"highway": "trunk", "lanes": "4", "maxspeed": "60", "name": "Warrego Highway", "network": "AU:QLD;AU:QLD:S", "oneway": "no", "ref": "A2;82", "source:maxspeed": "sign", "surface": "asphalt"}}, {"type": "way", "id": 784542880, "nodes": [6735124230, 6124474806, 6124474800, 6124474801, 6124474802, 6124474803], "tags": {"highway": "trunk", "lanes": "4", "maxspeed": "70", "name": "Warrego Highway", "network": "AU:QLD", "oneway": "no", "ref": "A2", "surface": "asphalt"}}, {"type": "way", "id": 984664140, "nodes": [6967780280, 10818875893], "tags": {"highway": "trunk", "lanes": "5", "lanes:backward": "2", "lanes:forward": "3", "maxspeed": "70", "name": "Warrego Highway", "network": "AU:QLD;AU:QLD:S", "oneway": "no", "ref": "A2;82", "surface": "asphalt", "turn:lanes:forward": "through|through|right"}}, {"type": "way", "id": 984664143, "nodes": [9103472480, 6124474798, 6967780280], "tags": {"highway": "trunk", "lanes": "4", "lanes:backward": "2", "lanes:forward": "2", "maxspeed": "60", "name": "Warrego Highway", "network": "AU:QLD;AU:QLD:S", "oneway": "no", "ref": "A2;82", "surface": "asphalt"}}, {"type": "way", "id": 984664144, "nodes": [9103472481, 9103472480], "tags": {"highway": "trunk", "lanes": "4", "maxspeed": "60", "name": "Warrego Highway", "network": "AU:QLD;AU:QLD:S", "oneway": "no", "ref": "A2;82", "surface": "asphalt"}}, {"type": "way", "id": 1005975550, "nodes": [6735117222, 440111711, 299443848, 469561303, 469650174, 6735117220, 469561304, 6735117219, 331183532, 619053589, 6735117218, 345524904, 469560535, 469560538, 469560877, 6735124207, 297399480, 469642855, 297399481, 297399482, 5512545502, 5512545503, 415488458, 297399483, 415488459, 297399484, 415488461, 415488462], "tags": {"highway": "primary", "lanes": "2", "maxspeed": "60", "name": "Jandowae Road", "network": "AU:QLD:S", "oneway": "no", "operator": "Department of Transport and Main Roads", "operator:type": "government", "ref": "82", "source": "survey", "surface": "asphalt"}}, {"type": "way", "id": 1163296656, "nodes": [6735124230, 10818875885, 10818897675, 10818875898], "tags": {"highway": "trunk", "lanes": "2", "maxspeed": "70", "name": "Warrego Highway", "network": "AU:QLD", "oneway": "yes", "operator": "Department of Transport and Main Roads", "operator:type": "government", "ref": "A2", "surface": "asphalt"}}, {"type": "way", "id": 1163296657, "nodes": [415488463, 10818875898], "tags": {"highway": "primary", "lanes": "1", "maxspeed": "60", "name": "Jandowae Road", "network": "AU:QLD:S", "oneway": "yes", "operator": "Department of Transport and Main Roads", "operator:type": "government", "ref": "82", "surface": "asphalt"}}, {"type": "way", "id": 1163296658, "nodes": [10818875893, 6124474799, 10818897674, 10818897680, 11196834439], "tags": {"highway": "trunk", "lanes": "3", "maxspeed": "70", "name": "Warrego Highway", "network": "AU:QLD;AU:QLD:S", "oneway": "yes", "operator": "Department of Transport and Main Roads", "operator:type": "government", "ref": "A2;82", "surface": "asphalt", "turn:lanes": "through|through|right"}}, {"type": "way", "id": 1163296659, "nodes": [415488463, 10818875892, 6735124229, 6735124230], "tags": {"highway": "trunk", "lanes": "2", "maxspeed": "70", "name": "Warrego Highway", "network": "AU:QLD", "oneway": "yes", "operator": "Department of Transport and Main Roads", "operator:type": "government", "ref": "A2", "surface": "asphalt"}}, {"type": "way", "id": 1163296665, "nodes": [10818875897, 10818897679, 10818875891], "tags": {"highway": "trunk", "lanes": "2", "maxspeed": "70", "name": "Warrego Highway", "network": "AU:QLD;AU:QLD:S", "oneway": "yes", "operator": "Department of Transport and Main Roads", "operator:type": "government", "ref": "A2;82", "surface": "asphalt"}}, {"type": "way", "id": 1163296679, "nodes": [10818875896, 10818875899, 415488462], "tags": {"highway": "primary", "lanes": "1", "maxspeed": "60", "name": "Jandowae Road", "network": "AU:QLD:S", "oneway": "yes", "operator": "Department of Transport and Main Roads", "operator:type": "government", "ref": "82", "surface": "asphalt"}}, {"type": "way", "id": 1163296680, "nodes": [10818875889, 10818875900, 10818897684, 10818875897], "tags": {"highway": "primary", "lanes": "1", "maxspeed": "60", "name": "Jandowae Road", "network": "AU:QLD:S", "oneway": "yes", "operator": "Department of Transport and Main Roads", "operator:type": "government", "ref": "82", "surface": "asphalt", "turn:lanes": "right"}}, {"type": "way", "id": 1163296681, "nodes": [10818875897, 11196834439], "tags": {"highway": "primary", "lanes": "1", "maxspeed": "60", "name": "Jandowae Road", "network": "AU:QLD:S", "oneway": "yes", "operator": "Department of Transport and Main Roads", "operator:type": "government", "ref": "82", "surface": "asphalt", "turn:lanes": "right"}}, {"type": "way", "id": 1163296682, "nodes": [10818875891, 10818875894, 10818875893], "tags": {"highway": "trunk", "lanes": "2", "maxspeed": "70", "name": "Warrego Highway", "network": "AU:QLD;AU:QLD:S", "oneway": "yes", "operator": "Department of Transport and Main Roads", "operator:type": "government", "ref": "A2;82", "surface": "asphalt"}}, {"type": "way", "id": 1163296683, "nodes": [10818875898, 10818897683, 10818875896], "tags": {"highway": "primary", "lanes": "1", "maxspeed": "60", "name": "Jandowae Road", "network": "AU:QLD:S", "oneway": "yes", "operator": "Department of Transport and Main Roads", "operator:type": "government", "ref": "82", "surface": "asphalt"}}, {"type": "way", "id": 1163296684, "nodes": [10818875898, 10818875897], "tags": {"highway": "trunk", "lanes": "2", "maxspeed": "70", "name": "Warrego Highway", "network": "AU:QLD", "oneway": "yes", "operator": "Department of Transport and Main Roads", "operator:type": "government", "ref": "A2", "surface": "asphalt"}}, {"type": "way", "id": 1208393367, "nodes": [11196834439, 415488463], "tags": {"highway": "trunk", "lanes": "3", "maxspeed": "70", "name": "Warrego Highway", "network": "AU:QLD;AU:QLD:S", "oneway": "yes", "operator": "Department of Transport and Main Roads", "operator:type": "government", "ref": "A2;82", "surface": "asphalt", "turn:lanes": "through|through|right"}}]}