{"version": 0.6, "generator": "Overpass API 0.7.61.5 4133829e", "osm3s": {"timestamp_osm_base": "2023-12-06T13:26:01Z", "copyright": "The data included in this document is from www.openstreetmap.org. The data is made available under ODbL."}, "elements": [{"type": "node", "id": 289381803, "lat": -21.6784639, "lon": 148.692424}, {"type": "node", "id": 289381805, "lat": -21.680523, "lon": 148.6925589}, {"type": "node", "id": 289381806, "lat": -21.6777179, "lon": 148.6923869}, {"type": "node", "id": 289381810, "lat": -21.682314, "lon": 148.6928919}, {"type": "node", "id": 289382159, "lat": -21.6901099, "lon": 148.695089}, {"type": "node", "id": 289382160, "lat": -21.691944, "lon": 148.6955839}, {"type": "node", "id": 289382369, "lat": -21.6769143, "lon": 148.6923398}, {"type": "node", "id": 289382608, "lat": -21.6794154, "lon": 148.6924807}, {"type": "node", "id": 291700427, "lat": -21.6878174, "lon": 148.6944732}, {"type": "node", "id": 687518298, "lat": -21.6829421, "lon": 148.693083}, {"type": "node", "id": 1806070185, "lat": -21.6920888, "lon": 148.6956269}, {"type": "node", "id": 1806086100, "lat": -21.6875199, "lon": 148.6943684}, {"type": "node", "id": 1806090938, "lat": -21.6831142, "lon": 148.6931423}, {"type": "node", "id": 1806102773, "lat": -21.6924582, "lon": 148.6957384}, {"type": "node", "id": 1806151837, "lat": -21.6833163, "lon": 148.6932025}, {"type": "node", "id": 1806151854, "lat": -21.6852933, "lon": 148.6937288}, {"type": "node", "id": 1806151859, "lat": -21.6792187, "lon": 148.692469}, {"type": "node", "id": 2828967826, "lat": -21.6821573, "lon": 148.6928628}, {"type": "node", "id": 2828967830, "lat": -21.6807101, "lon": 148.6925937}, {"type": "node", "id": 5249775495, "lat": -21.6799692, "lon": 148.6925198}, {"type": "node", "id": 5249775496, "lat": -21.6933966, "lon": 148.6960037}, {"type": "node", "id": 5512149989, "lat": -21.6843707, "lon": 148.6934832}, {"type": "node", "id": 9936369619, "lat": -21.6795213, "lon": 148.6924882}, {"type": "way", "id": 26412916, "nodes": [289382608, 1806151859, 289381803, 289381806, 289382369], "tags": {"highway": "trunk", "maxspeed": "80", "name": "Peak Downs Highway", "network": "AU:QLD:S", "ref": "70", "source": "survey", "surface": "asphalt"}}, {"type": "way", "id": 169444361, "nodes": [687518298, 289381810, 2828967826, 2828967830, 289381805, 5249775495], "tags": {"highway": "trunk", "maxspeed": "60", "name": "Peak Downs Highway", "network": "AU:QLD:S", "ref": "70", "source": "survey", "surface": "asphalt"}}, {"type": "way", "id": 543028829, "nodes": [5249775495, 9936369619, 289382608], "tags": {"highway": "trunk", "maxspeed": "60", "name": "Peak Downs Highway", "network": "AU:QLD:S", "ref": "70", "source": "survey", "surface": "asphalt"}}, {"type": "way", "id": 543028878, "nodes": [5249775496, 1806102773, 1806070185, 289382160, 289382159, 291700427, 1806086100, 1806151854, 5512149989], "tags": {"highway": "trunk", "maxspeed": "80", "name": "Waverley Street", "network": "AU:QLD:S", "ref": "70", "source": "survey", "surface": "asphalt"}}, {"type": "way", "id": 574165670, "nodes": [5512149989, 1806151837], "tags": {"highway": "trunk", "maxspeed": "80", "name": "Waverley Street", "network": "AU:QLD:S", "ref": "70", "source": "survey", "surface": "asphalt"}}, {"type": "way", "id": 574165672, "nodes": [1806151837, 1806090938, 687518298], "tags": {"highway": "trunk", "maxspeed": "80", "name": "Waverley Street", "network": "AU:QLD:S", "ref": "70", "source": "survey", "surface": "asphalt"}}]}