{"version": 0.6, "generator": "Overpass API 0.7.61.5 4133829e", "osm3s": {"timestamp_osm_base": "2023-12-06T11:38:22Z", "copyright": "The data included in this document is from www.openstreetmap.org. The data is made available under ODbL."}, "elements": [{"type": "node", "id": 31913600, "lat": -35.2408917, "lon": 149.0564525}, {"type": "node", "id": 31913601, "lat": -35.2401568, "lon": 149.0566211}, {"type": "node", "id": 31913602, "lat": -35.2390914, "lon": 149.0569653, "tags": {"highway": "traffic_signals", "traffic_signals": "traffic_lights", "traffic_signals:direction": "forward"}}, {"type": "node", "id": 31913603, "lat": -35.2381216, "lon": 149.0573355}, {"type": "node", "id": 31913604, "lat": -35.2373921, "lon": 149.0575837}, {"type": "node", "id": 31913605, "lat": -35.2365523, "lon": 149.0577787}, {"type": "node", "id": 31913607, "lat": -35.2338683, "lon": 149.0579991}, {"type": "node", "id": 31913608, "lat": -35.2312851, "lon": 149.0581785}, {"type": "node", "id": 31913609, "lat": -35.2301573, "lon": 149.058454}, {"type": "node", "id": 31913610, "lat": -35.2288162, "lon": 149.0589899}, {"type": "node", "id": 32476548, "lat": -35.2358788, "lon": 149.0578923, "tags": {"highway": "traffic_signals", "traffic_signals": "traffic_lights", "traffic_signals:direction": "both"}}, {"type": "node", "id": 97033069, "lat": -35.2357264, "lon": 149.057918, "tags": {"highway": "traffic_signals", "traffic_signals": "traffic_lights", "traffic_signals:direction": "both"}}, {"type": "node", "id": 246936205, "lat": -35.2357724, "lon": 149.0580914, "tags": {"highway": "traffic_signals", "traffic_signals": "traffic_lights", "traffic_signals:direction": "both"}}, {"type": "node", "id": 246936264, "lat": -35.2295674, "lon": 149.0590615}, {"type": "node", "id": 246936265, "lat": -35.2305368, "lon": 149.05873}, {"type": "node", "id": 246936266, "lat": -35.231578, "lon": 149.0585087}, {"type": "node", "id": 246936267, "lat": -35.2330747, "lon": 149.0583512}, {"type": "node", "id": 246936268, "lat": -35.2339866, "lon": 149.058263}, {"type": "node", "id": 246936269, "lat": -35.2351228, "lon": 149.0581556}, {"type": "node", "id": 246936270, "lat": -35.2366645, "lon": 149.057992}, {"type": "node", "id": 246936271, "lat": -35.2378273, "lon": 149.0577336}, {"type": "node", "id": 246936272, "lat": -35.2391681, "lon": 149.0572757, "tags": {"highway": "traffic_signals", "traffic_signals": "traffic_lights", "traffic_signals:direction": "forward"}}, {"type": "node", "id": 246936273, "lat": -35.2408797, "lon": 149.0567221}, {"type": "node", "id": 247032924, "lat": -35.2359228, "lon": 149.0580815, "tags": {"highway": "traffic_signals", "traffic_signals": "traffic_lights", "traffic_signals:direction": "both"}}, {"type": "node", "id": 247033993, "lat": -35.2283298, "lon": 149.0596575}, {"type": "node", "id": 247034271, "lat": -35.227409, "lon": 149.0602542}, {"type": "node", "id": 247034826, "lat": -35.2277961, "lon": 149.0599815, "tags": {"button_operated": "yes", "crossing": "traffic_signals", "highway": "crossing", "tactile_paving": "yes", "traffic_signals:sound": "yes", "traffic_signals:vibration": "yes"}}, {"type": "node", "id": 286059943, "lat": -35.2297344, "lon": 149.0589914}, {"type": "node", "id": 286059944, "lat": -35.2296454, "lon": 149.058633}, {"type": "node", "id": 309358064, "lat": -35.2390792, "lon": 149.0573062, "tags": {"button_operated": "yes", "crossing": "traffic_signals", "highway": "crossing", "tactile_paving": "no", "traffic_signals:sound": "yes", "traffic_signals:vibration": "yes"}}, {"type": "node", "id": 645357960, "lat": -35.2364382, "lon": 149.0580245}, {"type": "node", "id": 645357988, "lat": -35.2356857, "lon": 149.0580955, "tags": {"button_operated": "yes", "crossing": "traffic_signals", "highway": "crossing", "tactile_paving": "no", "traffic_signals:sound": "yes", "traffic_signals:vibration": "yes"}}, {"type": "node", "id": 645357990, "lat": -35.2356359, "lon": 149.0579332, "tags": {"button_operated": "yes", "crossing": "traffic_signals", "highway": "crossing", "tactile_paving": "no", "traffic_signals:sound": "yes", "traffic_signals:vibration": "yes"}}, {"type": "node", "id": 645357997, "lat": -35.2352105, "lon": 149.057952}, {"type": "node", "id": 655954410, "lat": -35.2278958, "lon": 149.0599204}, {"type": "node", "id": 660054637, "lat": -35.2359921, "lon": 149.0578732}, {"type": "node", "id": 660054639, "lat": -35.2354046, "lon": 149.0581276}, {"type": "node", "id": 898540098, "lat": -35.2338737, "lon": 149.0582722}, {"type": "node", "id": 898540100, "lat": -35.2339767, "lon": 149.0579949}, {"type": "node", "id": 937493310, "lat": -35.2407634, "lon": 149.0567536}, {"type": "node", "id": 937493312, "lat": -35.2407826, "lon": 149.0564743}, {"type": "node", "id": 1255415006, "lat": -35.2324202, "lon": 149.0580482}, {"type": "node", "id": 2535847362, "lat": -35.2276721, "lon": 149.0600697}, {"type": "node", "id": 2535847363, "lat": -35.2291989, "lon": 149.0592121}, {"type": "node", "id": 2535847364, "lat": -35.2301947, "lon": 149.0588341}, {"type": "node", "id": 2535847365, "lat": -35.230849, "lon": 149.0586508}, {"type": "node", "id": 2535847366, "lat": -35.2375013, "lon": 149.0578249}, {"type": "node", "id": 3725489051, "lat": -35.2279909, "lon": 149.0598594, "tags": {"button_operated": "yes", "crossing": "traffic_signals", "highway": "crossing", "tactile_paving": "yes", "traffic_signals:sound": "yes", "traffic_signals:vibration": "yes"}}, {"type": "node", "id": 5017930419, "lat": -35.2318551, "lon": 149.0580951}, {"type": "node", "id": 5017930420, "lat": -35.2307127, "lon": 149.0582988}, {"type": "node", "id": 5017932321, "lat": -35.2291388, "lon": 149.0588375}, {"type": "node", "id": 5026224870, "lat": -35.2377559, "lon": 149.0574654}, {"type": "node", "id": 5026224871, "lat": -35.2385645, "lon": 149.0571671}, {"type": "node", "id": 5026224872, "lat": -35.2369822, "lon": 149.0576935}, {"type": "node", "id": 5056088676, "lat": -35.2370864, "lon": 149.0579197}, {"type": "node", "id": 5056088681, "lat": -35.2346083, "lon": 149.0581981}, {"type": "node", "id": 5056088686, "lat": -35.2323269, "lon": 149.0584224}, {"type": "node", "id": 5066135261, "lat": -35.2391636, "lon": 149.0569422, "tags": {"button_operated": "yes", "crossing": "traffic_signals", "highway": "crossing", "tactile_paving": "no", "traffic_signals:sound": "yes", "traffic_signals:vibration": "yes"}}, {"type": "node", "id": 6194841302, "lat": -35.2394145, "lon": 149.0568617}, {"type": "node", "id": 6194841303, "lat": -35.2388914, "lon": 149.0570419}, {"type": "node", "id": 6194841310, "lat": -35.2388626, "lon": 149.0573805}, {"type": "node", "id": 6194841311, "lat": -35.2393661, "lon": 149.0572109}, {"type": "node", "id": 6257386993, "lat": -35.2384999, "lon": 149.057503}, {"type": "node", "id": 6257386994, "lat": -35.2398423, "lon": 149.0567246}, {"type": "node", "id": 6324378643, "lat": -35.2390239, "lon": 149.0569916}, {"type": "node", "id": 6578154540, "lat": -35.2390069, "lon": 149.0569983, "tags": {"button_operated": "yes", "crossing": "traffic_signals", "highway": "crossing", "tactile_paving": "no", "traffic_signals:sound": "yes", "traffic_signals:vibration": "yes"}}, {"type": "node", "id": 6578154542, "lat": -35.2392238, "lon": 149.0572575, "tags": {"button_operated": "yes", "crossing": "traffic_signals", "highway": "crossing", "tactile_paving": "no", "traffic_signals:sound": "yes", "traffic_signals:vibration": "yes"}}, {"type": "node", "id": 7178551997, "lat": -35.2277589, "lon": 149.060008, "tags": {"highway": "traffic_signals", "traffic_signals": "traffic_lights", "traffic_signals:direction": "forward"}}, {"type": "node", "id": 7178551998, "lat": -35.2280367, "lon": 149.0598288}, {"type": "node", "id": 7406408700, "lat": -35.2380231, "lon": 149.057668}, {"type": "node", "id": 8398303792, "lat": -35.2299774, "lon": 149.0585169}, {"type": "node", "id": 8398303793, "lat": -35.2300462, "lon": 149.0588848}, {"type": "node", "id": 8542443491, "lat": -35.2294957, "lon": 149.0590908}, {"type": "node", "id": 9169350771, "lat": -35.2381396, "lon": 149.0576277}, {"type": "node", "id": 9169350772, "lat": -35.2402294, "lon": 149.0569284}, {"type": "node", "id": 9169350773, "lat": -35.2404637, "lon": 149.0568517}, {"type": "way", "id": 76160151, "nodes": [31913607, 1255415006, 5017930419, 31913608, 5017930420, 31913609, 8398303792, 286059944, 5017932321, 31913610], "tags": {"cycleway:left": "lane", "highway": "primary", "lanes": "2", "maxspeed": "80", "name": "Coulter Drive", "oneway": "yes", "source:geometry": "NSW LPI Imagery", "source:lanes": "ACTmapi Imagery 2018", "surface": "asphalt"}}, {"type": "way", "id": 76160152, "nodes": [246936269, 660054639, 645357988, 246936205], "tags": {"cycleway:left": "lane", "highway": "primary", "lanes": "4", "maxspeed": "80", "name": "Coulter Drive", "oneway": "yes", "source:geometry": "NSW LPI Imagery", "source:lanes": "ACTmapi Imagery 2018", "surface": "asphalt", "turn:lanes": "|||right"}}, {"type": "way", "id": 76160153, "nodes": [898540100, 31913607], "tags": {"bridge": "yes", "bridge_number": "1091", "cycleway:left": "lane", "highway": "primary", "lanes": "2", "layer": "1", "maxspeed": "80", "name": "Coulter Drive", "oneway": "yes", "source:geometry": "NSW LPI Imagery", "source:lanes": "ACTmapi Imagery 2018", "surface": "paved"}}, {"type": "way", "id": 76160155, "nodes": [898540098, 246936268], "tags": {"bridge": "yes", "bridge_number": "1090", "cycleway:left": "lane", "highway": "primary", "lanes": "2", "layer": "1", "maxspeed": "80", "name": "Coulter Drive", "oneway": "yes", "source:geometry": "NSW LPI Imagery", "source:lanes": "ACTmapi Imagery 2018", "surface": "paved"}}, {"type": "way", "id": 80323743, "nodes": [31913600, 937493312], "tags": {"bridge": "yes", "bridge_number": "1064", "cycleway:left": "lane", "highway": "primary", "lanes": "2", "layer": "1", "maxspeed": "80", "name": "Coulter Drive", "oneway": "yes", "source:geometry": "NSW LPI Imagery", "source:lanes": "ACTmapi Imagery 2018", "surface": "paved"}}, {"type": "way", "id": 80323745, "nodes": [937493310, 246936273], "tags": {"bridge": "yes", "bridge_number": "1065", "cycleway:left": "lane", "highway": "primary", "lanes": "3", "layer": "1", "maxspeed": "80", "name": "Coulter Drive", "oneway": "yes", "source:geometry": "NSW LPI Imagery", "source:lanes": "ACTmapi Imagery 2018", "surface": "paved"}}, {"type": "way", "id": 489278364, "nodes": [246936272, 6578154542, 6194841311, 9169350772, 9169350773], "tags": {"highway": "primary", "lanes": "3", "maxspeed": "80", "name": "Coulter Drive", "oneway": "yes", "source:geometry": "NSW LPI Imagery", "source:lanes": "ACTmapi Imagery 2018", "surface": "asphalt"}}, {"type": "way", "id": 489278367, "nodes": [645357960, 246936270, 5056088676, 2535847366, 246936271, 7406408700, 9169350771], "tags": {"cycleway:left": "separate", "highway": "primary", "lanes": "3", "maxspeed": "80", "name": "Coulter Drive", "oneway": "yes", "source:geometry": "NSW LPI Imagery", "source:lanes": "ACTmapi Imagery 2018", "surface": "asphalt"}}, {"type": "way", "id": 489278370, "nodes": [31913605, 660054637, 32476548, 97033069], "tags": {"cycleway:left": "lane", "highway": "primary", "lanes": "3", "maxspeed": "80", "name": "Coulter Drive", "oneway": "yes", "source:geometry": "NSW LPI Imagery", "source:lanes": "ACTmapi Imagery 2018", "surface": "asphalt", "turn:lanes": "||right"}}, {"type": "way", "id": 489278373, "nodes": [97033069, 645357990, 645357997], "tags": {"cycleway:left": "lane", "highway": "primary", "lanes": "2", "maxspeed": "80", "name": "Coulter Drive", "oneway": "yes", "source:geometry": "NSW LPI Imagery", "source:lanes": "ACTmapi Imagery 2018", "surface": "paved"}}, {"type": "way", "id": 489278378, "nodes": [5026224872, 31913605], "tags": {"cycleway:left": "lane", "highway": "primary", "lanes": "2", "maxspeed": "80", "name": "Coulter Drive", "oneway": "yes", "source:geometry": "NSW LPI Imagery", "source:lanes": "ACTmapi Imagery 2018", "surface": "asphalt"}}, {"type": "way", "id": 489297180, "nodes": [247034271, 2535847362, 7178551997, 247034826, 655954410, 3725489051, 7178551998, 247033993, 2535847363, 8542443491, 246936264, 286059943, 8398303793, 2535847364, 246936265, 2535847365, 246936266, 5056088686, 246936267, 898540098], "tags": {"cycleway:left": "lane", "highway": "primary", "lanes": "2", "maxspeed": "80", "name": "Coulter Drive", "oneway": "yes", "source:geometry": "NSW LPI Imagery", "source:lanes": "ACTmapi Imagery 2018", "surface": "asphalt"}}, {"type": "way", "id": 546708898, "nodes": [246936268, 5056088681, 246936269], "tags": {"cycleway:left": "lane", "highway": "primary", "lanes": "2", "maxspeed": "80", "name": "Coulter Drive", "oneway": "yes", "source:geometry": "NSW LPI Imagery", "source:lanes": "ACTmapi Imagery 2018", "surface": "asphalt"}}, {"type": "way", "id": 668199626, "nodes": [246936205, 247032924], "tags": {"highway": "primary", "lanes": "2", "maxspeed": "80", "name": "Coulter Drive", "oneway": "yes", "source:geometry": "NSW LPI Imagery", "source:lanes": "ACTmapi Imagery 2018", "surface": "asphalt"}}, {"type": "way", "id": 668199630, "nodes": [6194841310, 309358064, 246936272], "tags": {"highway": "primary", "lanes": "4", "maxspeed": "80", "name": "Coulter Drive", "oneway": "yes", "source:geometry": "NSW LPI Imagery", "source:lanes": "ACTmapi Imagery 2018", "surface": "paved", "turn:lanes": "|||right"}}, {"type": "way", "id": 668199634, "nodes": [937493312, 31913601, 6257386994], "tags": {"cycleway:left": "lane", "highway": "primary", "lanes": "2", "maxspeed": "80", "name": "Coulter Drive", "oneway": "yes", "source:geometry": "NSW LPI Imagery", "source:lanes": "ACTmapi Imagery 2018", "surface": "paved"}}, {"type": "way", "id": 736283463, "nodes": [6257386994, 6194841302], "tags": {"cycleway:left": "lane", "highway": "primary", "lanes": "3", "maxspeed": "80", "name": "Coulter Drive", "oneway": "yes", "source:geometry": "NSW LPI Imagery", "source:lanes": "ACTmapi Imagery 2018", "surface": "paved", "turn:lanes": "||right"}}, {"type": "way", "id": 736283996, "nodes": [6257386993, 6194841310], "tags": {"cycleway:left": "separate", "highway": "primary", "lanes": "4", "maxspeed": "80", "name": "Coulter Drive", "oneway": "yes", "source:geometry": "NSW LPI Imagery", "source:lanes": "ACTmapi Imagery 2018", "surface": "asphalt", "turn:lanes": "|||right"}}, {"type": "way", "id": 770023584, "nodes": [645357997, 898540100], "tags": {"cycleway:left": "lane", "highway": "primary", "lanes": "2", "maxspeed": "80", "name": "Coulter Drive", "oneway": "yes", "source:geometry": "NSW LPI Imagery", "source:lanes": "ACTmapi Imagery 2018", "surface": "asphalt"}}, {"type": "way", "id": 792233900, "nodes": [247032924, 645357960], "tags": {"cycleway:left": "no", "highway": "primary", "lanes": "3", "maxspeed": "80", "name": "Coulter Drive", "oneway": "yes", "source:geometry": "NSW LPI Imagery", "source:lanes": "ACTmapi Imagery 2018", "surface": "asphalt"}}, {"type": "way", "id": 792233902, "nodes": [31913602, 6324378643, 6578154540, 6194841303, 5026224871, 31913603, 5026224870, 31913604, 5026224872], "tags": {"cycleway:left": "lane", "highway": "primary", "lanes": "2", "maxspeed": "80", "name": "Coulter Drive", "oneway": "yes", "source:geometry": "NSW LPI Imagery", "source:lanes": "ACTmapi Imagery 2018", "surface": "paved"}}, {"type": "way", "id": 792233905, "nodes": [6194841302, 5066135261, 31913602], "tags": {"cycleway:left": "lane", "highway": "primary", "lanes": "3", "maxspeed": "80", "name": "Coulter Drive", "oneway": "yes", "source:geometry": "NSW LPI Imagery", "source:lanes": "ACTmapi Imagery 2018", "surface": "paved", "turn:lanes": "||right"}}, {"type": "way", "id": 992435589, "nodes": [9169350771, 6257386993], "tags": {"cycleway:left": "separate", "highway": "primary", "lanes": "3", "maxspeed": "80", "name": "Coulter Drive", "oneway": "yes", "source:geometry": "NSW LPI Imagery", "source:lanes": "ACTmapi Imagery 2018", "surface": "asphalt"}}, {"type": "way", "id": 992435590, "nodes": [9169350773, 937493310], "tags": {"cycleway:left": "lane", "highway": "primary", "lanes": "3", "maxspeed": "80", "name": "Coulter Drive", "oneway": "yes", "source:geometry": "NSW LPI Imagery", "source:lanes": "ACTmapi Imagery 2018", "surface": "paved"}}]}