{"version": 0.6, "generator": "Overpass API 0.7.61.5 4133829e", "osm3s": {"timestamp_osm_base": "2023-12-06T10:27:59Z", "copyright": "The data included in this document is from www.openstreetmap.org. The data is made available under ODbL."}, "elements": [{"type": "node", "id": 241806679, "lat": -33.4041859, "lon": 151.4665568}, {"type": "node", "id": 241806680, "lat": -33.4034232, "lon": 151.4672147}, {"type": "node", "id": 241806681, "lat": -33.4014633, "lon": 151.4685971}, {"type": "node", "id": 241806682, "lat": -33.400332, "lon": 151.4696553}, {"type": "node", "id": 241806684, "lat": -33.3975848, "lon": 151.4728514}, {"type": "node", "id": 241806710, "lat": -33.3960959, "lon": 151.4737634}, {"type": "node", "id": 357506823, "lat": -33.3998084, "lon": 151.4702604}, {"type": "node", "id": 357508149, "lat": -33.4049708, "lon": 151.4658366}, {"type": "node", "id": 477128768, "lat": -33.3965668, "lon": 151.4735561}, {"type": "node", "id": 477128822, "lat": -33.3972433, "lon": 151.4731478}, {"type": "node", "id": 477128823, "lat": -33.3966558, "lon": 151.4735025}, {"type": "node", "id": 477128824, "lat": -33.3969098, "lon": 151.4734366}, {"type": "node", "id": 477128825, "lat": -33.3969803, "lon": 151.4734456}, {"type": "node", "id": 477128826, "lat": -33.3970579, "lon": 151.4733735}, {"type": "node", "id": 477128827, "lat": -33.3970617, "lon": 151.4732616}, {"type": "node", "id": 477128828, "lat": -33.3970119, "lon": 151.473194}, {"type": "node", "id": 477128829, "lat": -33.3969412, "lon": 151.4731779}, {"type": "node", "id": 477128830, "lat": -33.3968514, "lon": 151.4732613}, {"type": "node", "id": 477128831, "lat": -33.3968519, "lon": 151.4733657}, {"type": "node", "id": 477128832, "lat": -33.3968763, "lon": 151.4732164}, {"type": "node", "id": 493300678, "lat": -33.3985881, "lon": 151.4717331}, {"type": "node", "id": 519548510, "lat": -33.3967647, "lon": 151.4734589}, {"type": "node", "id": 519548512, "lat": -33.3967361, "lon": 151.4734109}, {"type": "node", "id": 519557973, "lat": -33.4009915, "lon": 151.4689804}, {"type": "node", "id": 940105649, "lat": -33.396948, "lon": 151.4734482}, {"type": "node", "id": 940105651, "lat": -33.3970168, "lon": 151.4734278}, {"type": "node", "id": 940105652, "lat": -33.397046, "lon": 151.4733961}, {"type": "node", "id": 940105655, "lat": -33.3970692, "lon": 151.4733283}, {"type": "node", "id": 940105658, "lat": -33.3970408, "lon": 151.4732216}, {"type": "node", "id": 940105662, "lat": -33.3969747, "lon": 151.4731785}, {"type": "node", "id": 940105664, "lat": -33.3969037, "lon": 151.4731923}, {"type": "node", "id": 940105667, "lat": -33.396843, "lon": 151.4733074}, {"type": "node", "id": 940105668, "lat": -33.3968734, "lon": 151.4734053}, {"type": "node", "id": 1835265591, "lat": -33.3990806, "lon": 151.4711769}, {"type": "node", "id": 5142118157, "lat": -33.4039832, "lon": 151.4667289}, {"type": "node", "id": 5750460011, "lat": -33.3995365, "lon": 151.4706943}, {"type": "node", "id": 5750460012, "lat": -33.3998719, "lon": 151.4703286}, {"type": "node", "id": 5750460014, "lat": -33.400597, "lon": 151.4695315}, {"type": "node", "id": 5750460015, "lat": -33.401044, "lon": 151.4690722}, {"type": "node", "id": 5750460016, "lat": -33.4015323, "lon": 151.4686531}, {"type": "node", "id": 5750460017, "lat": -33.4021115, "lon": 151.4682071}, {"type": "node", "id": 5750460018, "lat": -33.4020425, "lon": 151.4681512}, {"type": "node", "id": 5750460019, "lat": -33.4026244, "lon": 151.4677831}, {"type": "node", "id": 5750460020, "lat": -33.3993555, "lon": 151.4707745}, {"type": "node", "id": 5750460721, "lat": -33.4002165, "lon": 151.4697852}, {"type": "node", "id": 6135455899, "lat": -33.4052165, "lon": 151.4655983}, {"type": "node", "id": 6135455900, "lat": -33.4047216, "lon": 151.4660785}, {"type": "node", "id": 6135455901, "lat": -33.404398, "lon": 151.4663661}, {"type": "node", "id": 6427240050, "lat": -33.3987922, "lon": 151.4715052}, {"type": "node", "id": 6427240056, "lat": -33.4002254, "lon": 151.4699261}, {"type": "node", "id": 6427240057, "lat": -33.4006631, "lon": 151.4693092}, {"type": "node", "id": 6427240058, "lat": -33.3994175, "lon": 151.470824}, {"type": "node", "id": 6427240059, "lat": -33.399239, "lon": 151.4710211}, {"type": "node", "id": 6427240065, "lat": -33.3962708, "lon": 151.4737}, {"type": "node", "id": 6427240071, "lat": -33.397414, "lon": 151.4730066}, {"type": "node", "id": 6427240072, "lat": -33.398088, "lon": 151.4723025}, {"type": "node", "id": 7043938425, "lat": -33.3970748, "lon": 151.4732092, "tags": {"direction": "forward", "highway": "give_way"}}, {"type": "node", "id": 7043938428, "lat": -33.3968517, "lon": 151.4734455, "tags": {"direction": "forward", "highway": "give_way"}}, {"type": "way", "id": 39807018, "nodes": [477128824, 940105649, 477128825, 940105651, 940105652, 477128826, 940105655, 477128827, 940105658, 477128828, 940105662, 477128829, 940105664, 477128832, 477128830, 940105667, 477128831, 940105668, 477128824], "tags": {"highway": "trunk", "junction": "roundabout", "lanes": "1", "maxspeed": "60", "network": "AU:NSW", "noname": "yes", "ref": "A49", "surface": "asphalt"}}, {"type": "way", "id": 41937317, "nodes": [477128823, 519548510, 7043938428, 477128824], "tags": {"highway": "trunk", "lanes": "1", "maxspeed": "60", "name": "The Entrance Road", "network": "AU:NSW", "oneway": "yes", "ref": "A49", "surface": "asphalt"}}, {"type": "way", "id": 41937318, "nodes": [477128830, 519548512, 477128823], "tags": {"highway": "trunk", "lanes": "1", "maxspeed": "60", "name": "The Entrance Road", "network": "AU:NSW", "oneway": "yes", "ref": "A49", "surface": "asphalt"}}, {"type": "way", "id": 172641381, "nodes": [477128826, 477128822], "tags": {"highway": "trunk", "lanes": "1", "maxspeed": "60", "name": "The Entrance Road", "network": "AU:NSW", "oneway": "yes", "ref": "A49", "source:name": "NSW LPI Base Map", "source:name:date": "2016-02", "surface": "asphalt"}}, {"type": "way", "id": 172641383, "nodes": [477128822, 7043938425, 940105658], "tags": {"highway": "trunk", "lanes": "1", "maxspeed": "60", "name": "The Entrance Road", "network": "AU:NSW", "oneway": "yes", "ref": "A49", "source:name": "NSW LPI Base Map", "source:name:date": "2016-02", "surface": "asphalt"}}, {"type": "way", "id": 172641388, "nodes": [477128822, 6427240071, 241806684, 6427240072, 493300678, 6427240050], "tags": {"highway": "trunk", "lanes": "2", "maxspeed": "60", "name": "The Entrance Road", "network": "AU:NSW", "ref": "A49", "source": "bing", "source:name": "NSW LPI Base Map", "source:name:date": "2016-02", "surface": "asphalt"}}, {"type": "way", "id": 260042595, "nodes": [5750460019, 5750460018, 241806681, 519557973, 6427240057, 241806682, 5750460721], "tags": {"highway": "trunk", "lanes": "1", "maxspeed": "70", "name": "The Entrance Road", "network": "AU:NSW", "oneway": "yes", "ref": "A49", "source": "bing", "source:geometry": "LPI NSW Imagery", "source:name": "NSW LPI Base Map", "source:name:date": "2016-02", "surface": "asphalt"}}, {"type": "way", "id": 606518065, "nodes": [5750460015, 5750460016, 5750460017, 5750460019], "tags": {"highway": "trunk", "lanes": "1", "maxspeed": "70", "name": "The Entrance Road", "network": "AU:NSW", "oneway": "yes", "ref": "A49", "source": "bing", "source:geometry": "LPI NSW Imagery", "source:name": "NSW LPI Base Map", "source:name:date": "2016-02", "surface": "asphalt"}}, {"type": "way", "id": 654761478, "nodes": [6135455899, 357508149], "tags": {"cycleway": "lane", "highway": "trunk", "lanes": "3", "lanes:backward": "1", "lanes:forward": "2", "maxspeed": "70", "name": "The Entrance Road", "network": "AU:NSW", "ref": "A49", "source": "bing", "source:name": "NSW LPI Base Map", "source:name:date": "2016-02", "surface": "asphalt", "turn:lanes:forward": "|right"}}, {"type": "way", "id": 654761479, "nodes": [357508149, 6135455900], "tags": {"cycleway": "lane", "highway": "trunk", "lanes:backward": "1", "lanes:forward": "2", "maxspeed": "70", "name": "The Entrance Road", "network": "AU:NSW", "ref": "A49", "source": "bing", "source:name": "NSW LPI Base Map", "source:name:date": "2016-02", "surface": "asphalt", "turn:lanes:forward": "none|merge_to_left"}}, {"type": "way", "id": 654761480, "nodes": [6135455900, 6135455901], "tags": {"cycleway": "lane", "highway": "trunk", "lanes": "3", "lanes:backward": "1", "lanes:forward": "2", "maxspeed": "70", "name": "The Entrance Road", "network": "AU:NSW", "ref": "A49", "source": "bing", "source:name": "NSW LPI Base Map", "source:name:date": "2016-02", "surface": "asphalt", "turn:lanes:forward": "left|"}}, {"type": "way", "id": 654761481, "nodes": [6135455901, 241806679, 5142118157], "tags": {"cycleway": "lane", "highway": "trunk", "lanes": "4", "lanes:backward": "2", "lanes:forward": "2", "maxspeed": "70", "name": "The Entrance Road", "network": "AU:NSW", "ref": "A49", "source": "bing", "source:name": "NSW LPI Base Map", "source:name:date": "2016-02", "surface": "asphalt", "turn:lanes:backward": "|merge_to_left", "turn:lanes:forward": "left|"}}, {"type": "way", "id": 654761482, "nodes": [5142118157, 241806680], "tags": {"cycleway": "lane", "highway": "trunk", "lanes": "4", "lanes:backward": "2", "lanes:forward": "2", "maxspeed": "70", "name": "The Entrance Road", "network": "AU:NSW", "ref": "A49", "source": "bing", "source:name": "NSW LPI Base Map", "source:name:date": "2016-02", "surface": "asphalt", "turn:lanes:backward": "|right", "turn:lanes:forward": "merge_to_right|"}}, {"type": "way", "id": 654761483, "nodes": [241806680, 5750460019], "tags": {"cycleway": "lane", "highway": "trunk", "lanes": "2", "maxspeed": "70", "name": "The Entrance Road", "network": "AU:NSW", "ref": "A49", "source": "bing", "source:name": "NSW LPI Base Map", "source:name:date": "2016-02", "surface": "asphalt"}}, {"type": "way", "id": 685777979, "nodes": [6427240050, 1835265591], "tags": {"highway": "trunk", "lanes": "2", "maxspeed": "70", "name": "The Entrance Road", "network": "AU:NSW", "ref": "A49", "source": "bing", "source:name": "NSW LPI Base Map", "source:name:date": "2016-02", "surface": "asphalt"}}, {"type": "way", "id": 685777985, "nodes": [5750460014, 5750460015], "tags": {"highway": "trunk", "lanes": "2", "maxspeed": "70", "name": "The Entrance Road", "network": "AU:NSW", "oneway": "yes", "ref": "A49", "source": "bing", "source:geometry": "LPI NSW Imagery", "source:name": "NSW LPI Base Map", "source:name:date": "2016-02", "surface": "asphalt", "turn:lanes": "none|right"}}, {"type": "way", "id": 685777986, "nodes": [5750460012, 6427240056, 5750460014], "tags": {"highway": "trunk", "lanes": "1", "maxspeed": "70", "name": "The Entrance Road", "network": "AU:NSW", "oneway": "yes", "ref": "A49", "source": "bing", "source:geometry": "LPI NSW Imagery", "source:name": "NSW LPI Base Map", "source:name:date": "2016-02", "surface": "asphalt"}}, {"type": "way", "id": 685777987, "nodes": [5750460721, 357506823], "tags": {"highway": "trunk", "lanes": "2", "maxspeed": "70", "name": "The Entrance Road", "network": "AU:NSW", "oneway": "yes", "ref": "A49", "source": "bing", "source:geometry": "LPI NSW Imagery", "source:name": "NSW LPI Base Map", "source:name:date": "2016-02", "surface": "asphalt", "turn:lanes": "none|right"}}, {"type": "way", "id": 685777988, "nodes": [6427240058, 5750460011, 5750460012], "tags": {"highway": "trunk", "lanes": "2", "maxspeed": "70", "name": "The Entrance Road", "network": "AU:NSW", "oneway": "yes", "ref": "A49", "source": "bing", "source:geometry": "LPI NSW Imagery", "source:name": "NSW LPI Base Map", "source:name:date": "2016-02", "surface": "asphalt"}}, {"type": "way", "id": 685777989, "nodes": [5750460020, 1835265591], "tags": {"highway": "trunk", "lanes": "1", "maxspeed": "70", "name": "The Entrance Road", "network": "AU:NSW", "oneway": "yes", "ref": "A49", "source": "bing", "source:geometry": "LPI NSW Imagery", "source:name": "NSW LPI Base Map", "source:name:date": "2016-02", "surface": "asphalt"}}, {"type": "way", "id": 685777990, "nodes": [357506823, 5750460020], "tags": {"highway": "trunk", "lanes": "2", "maxspeed": "70", "name": "The Entrance Road", "network": "AU:NSW", "oneway": "yes", "ref": "A49", "source": "bing", "source:geometry": "LPI NSW Imagery", "source:name": "NSW LPI Base Map", "source:name:date": "2016-02", "surface": "asphalt"}}, {"type": "way", "id": 685777991, "nodes": [1835265591, 6427240059, 6427240058], "tags": {"highway": "trunk", "lanes": "1", "maxspeed": "70", "name": "The Entrance Road", "network": "AU:NSW", "oneway": "yes", "ref": "A49", "source": "bing", "source:geometry": "LPI NSW Imagery", "source:name": "NSW LPI Base Map", "source:name:date": "2016-02", "surface": "asphalt"}}, {"type": "way", "id": 685777995, "nodes": [477128768, 477128823], "tags": {"highway": "trunk", "lanes": "2", "maxspeed": "60", "name": "The Entrance Road", "network": "AU:NSW", "ref": "A49", "source": "bing", "source:name": "NSW LPI Base Map", "source:name:date": "2016-02", "surface": "asphalt"}}, {"type": "way", "id": 685777996, "nodes": [241806710, 6427240065, 477128768], "tags": {"highway": "trunk", "lanes": "4", "maxspeed": "60", "name": "The Entrance Road", "network": "AU:NSW", "ref": "A49", "source": "bing", "source:name": "NSW LPI Base Map", "source:name:date": "2016-02", "surface": "asphalt"}}]}