{"version": 0.6, "generator": "Overpass API 0.7.61.5 4133829e", "osm3s": {"timestamp_osm_base": "2023-12-06T11:32:06Z", "copyright": "The data included in this document is from www.openstreetmap.org. The data is made available under ODbL."}, "elements": [{"type": "node", "id": 7988461, "lat": -35.2479825, "lon": 149.1317998}, {"type": "node", "id": 7988477, "lat": -35.2482495, "lon": 149.1339422}, {"type": "node", "id": 7988478, "lat": -35.2482833, "lon": 149.1342779}, {"type": "node", "id": 14169943, "lat": -35.2450933, "lon": 149.1343361}, {"type": "node", "id": 14169946, "lat": -35.2441912, "lon": 149.1344711, "tags": {"highway": "traffic_signals", "traffic_signals": "traffic_lights", "traffic_signals:direction": "both"}}, {"type": "node", "id": 14172328, "lat": -35.2481594, "lon": 149.1339544}, {"type": "node", "id": 14172329, "lat": -35.2481791, "lon": 149.1342774}, {"type": "node", "id": 14868168, "lat": -35.2442132, "lon": 149.1347647, "tags": {"highway": "traffic_signals", "traffic_signals": "traffic_lights", "traffic_signals:direction": "both"}}, {"type": "node", "id": 14868169, "lat": -35.2449759, "lon": 149.1346328}, {"type": "node", "id": 14868170, "lat": -35.2470435, "lon": 149.1342792}, {"type": "node", "id": 14868171, "lat": -35.2474246, "lon": 149.134259}, {"type": "node", "id": 26903310, "lat": -35.2526436, "lon": 149.1332247}, {"type": "node", "id": 26932578, "lat": -35.2523981, "lon": 149.1336516}, {"type": "node", "id": 33172863, "lat": -35.2532036, "lon": 149.1331342, "tags": {"button_operated": "yes", "crossing": "traffic_signals", "highway": "crossing", "tactile_paving": "yes", "traffic_signals:sound": "yes"}}, {"type": "node", "id": 660915706, "lat": -35.2499596, "lon": 149.1340386}, {"type": "node", "id": 660915708, "lat": -35.2503708, "lon": 149.1339734}, {"type": "node", "id": 833789082, "lat": -35.2455724, "lon": 149.1344968}, {"type": "node", "id": 870322540, "lat": -35.2481285, "lon": 149.1342767}, {"type": "node", "id": 870322751, "lat": -35.2480869, "lon": 149.1339635, "tags": {"button_operated": "yes", "crossing": "traffic_signals", "highway": "crossing", "tactile_paving": "yes", "traffic_signals:sound": "yes"}}, {"type": "node", "id": 878581400, "lat": -35.2525258, "lon": 149.1332438}, {"type": "node", "id": 1114969443, "lat": -35.2481089, "lon": 149.1334011}, {"type": "node", "id": 1114969492, "lat": -35.2484511, "lon": 149.1342815}, {"type": "node", "id": 1114969506, "lat": -35.2478766, "lon": 149.1339925}, {"type": "node", "id": 1114969563, "lat": -35.2482138, "lon": 149.1336284}, {"type": "node", "id": 1831748282, "lat": -35.2535966, "lon": 149.133458, "tags": {"highway": "traffic_signals", "traffic_signals": "traffic_lights", "traffic_signals:direction": "both"}}, {"type": "node", "id": 1831748284, "lat": -35.2538561, "lon": 149.1330287}, {"type": "node", "id": 1831978387, "lat": -35.2479848, "lon": 149.1323411}, {"type": "node", "id": 1831978388, "lat": -35.2480593, "lon": 149.1321539}, {"type": "node", "id": 1831978405, "lat": -35.2486111, "lon": 149.1342647}, {"type": "node", "id": 1831978407, "lat": -35.2486917, "lon": 149.1338738}, {"type": "node", "id": 1937955411, "lat": -35.2448553, "lon": 149.1346581, "tags": {"bus": "yes", "gtfs_id": "4603", "name": "Northbourne Avenue After Swinden Street", "network": "Transport Canberra", "public_transport": "stop_position", "ref": "4603"}}, {"type": "node", "id": 2866047128, "lat": -35.2480152, "lon": 149.1325797}, {"type": "node", "id": 3759176308, "lat": -35.2456746, "lon": 149.1343048}, {"type": "node", "id": 3759176310, "lat": -35.2459262, "lon": 149.1344423}, {"type": "node", "id": 3759176311, "lat": -35.2467378, "lon": 149.1341452}, {"type": "node", "id": 3911454681, "lat": -35.2480916, "lon": 149.1324723}, {"type": "node", "id": 3911454686, "lat": -35.2481656, "lon": 149.1331861}, {"type": "node", "id": 3911454751, "lat": -35.249033, "lon": 149.1338172}, {"type": "node", "id": 4344242617, "lat": -35.2474066, "lon": 149.1340648}, {"type": "node", "id": 4344242618, "lat": -35.2478113, "lon": 149.134272}, {"type": "node", "id": 4344242630, "lat": -35.2481239, "lon": 149.1328034}, {"type": "node", "id": 4344242631, "lat": -35.248154, "lon": 149.1338619, "tags": {"button_operated": "yes", "crossing": "traffic_signals", "highway": "traffic_signals", "tactile_paving": "yes", "traffic_signals:sound": "yes"}}, {"type": "node", "id": 4344242644, "lat": -35.2482402, "lon": 149.1338496, "tags": {"button_operated": "yes", "crossing": "traffic_signals", "highway": "crossing", "tactile_paving": "yes", "traffic_signals:sound": "yes"}}, {"type": "node", "id": 4344242658, "lat": -35.2483387, "lon": 149.1342798, "tags": {"button_operated": "yes", "crossing": "traffic_signals", "highway": "crossing", "tactile_paving": "yes", "traffic_signals:sound": "yes"}}, {"type": "node", "id": 4598661356, "lat": -35.2485888, "lon": 149.1338915}, {"type": "node", "id": 4831957738, "lat": -35.2532205, "lon": 149.1335188, "tags": {"button_operated": "yes", "crossing": "traffic_signals", "highway": "crossing", "tactile_paving": "yes", "traffic_signals:sound": "yes"}}, {"type": "node", "id": 5188280045, "lat": -35.249925, "lon": 149.1340441, "tags": {"bus": "yes", "gtfs_id": "4551", "name": "Northbourne Avenue Motor Registry", "network": "Transport Canberra", "public_transport": "stop_position", "ref": "4551"}}, {"type": "node", "id": 5188280078, "lat": -35.2509303, "lon": 149.1335017, "tags": {"bus": "yes", "gtfs_id": "4552", "name": "Northbourne Avenue opposite Motor Registry", "network": "Transport Canberra", "public_transport": "stop_position", "ref": "4552"}}, {"type": "node", "id": 5188281028, "lat": -35.2528147, "lon": 149.1335843, "tags": {"bus": "yes", "gtfs_id": "4553", "name": "Northbourne Avenue before Morphett Street", "network": "Transport Canberra", "public_transport": "stop_position", "ref": "4553"}}, {"type": "node", "id": 5188281043, "lat": -35.2444743, "lon": 149.1344174, "tags": {"bus": "yes", "gtfs_id": "4604", "name": "Northbourne Avenue Yowani Country Club", "network": "Transport Canberra", "public_transport": "stop_position", "ref": "4604"}}, {"type": "node", "id": 5188281059, "lat": -35.2534142, "lon": 149.1331001, "tags": {"bus": "yes", "gtfs_id": "4554", "name": "Northbourne Avenue Lyneham Flats", "network": "Transport Canberra", "public_transport": "stop_position", "ref": "4554"}}, {"type": "node", "id": 5188297617, "lat": -35.2509882, "lon": 149.1338754}, {"type": "node", "id": 5594419127, "lat": -35.2489838, "lon": 149.1342059}, {"type": "node", "id": 5594419135, "lat": -35.2500259, "lon": 149.1340281}, {"type": "node", "id": 6218026364, "lat": -35.2525333, "lon": 149.1332426}, {"type": "node", "id": 6257780059, "lat": -35.249395, "lon": 149.1337499}, {"type": "node", "id": 6305033635, "lat": -35.2507711, "lon": 149.1339099, "tags": {"crossing": "traffic_signals", "highway": "crossing"}}, {"type": "node", "id": 6305033638, "lat": -35.2507306, "lon": 149.133534, "tags": {"crossing": "traffic_signals", "highway": "crossing"}}, {"type": "node", "id": 6415763152, "lat": -35.2443493, "lon": 149.1344413, "tags": {"button_operated": "yes", "crossing": "traffic_signals", "highway": "crossing", "tactile_paving": "yes", "traffic_signals:sound": "yes"}}, {"type": "node", "id": 6415781407, "lat": -35.2481705, "lon": 149.1341339, "tags": {"crossing:barrier": "no", "railway": "level_crossing"}}, {"type": "node", "id": 6415781408, "lat": -35.2481681, "lon": 149.1340945, "tags": {"crossing:barrier": "no", "railway": "level_crossing"}}, {"type": "node", "id": 6415781409, "lat": -35.2482681, "lon": 149.134127, "tags": {"crossing:barrier": "no", "railway": "level_crossing"}}, {"type": "node", "id": 6415781410, "lat": -35.248264, "lon": 149.1340863, "tags": {"crossing:barrier": "no", "railway": "level_crossing"}}, {"type": "node", "id": 6991257294, "lat": -35.2530577, "lon": 149.1331578}, {"type": "node", "id": 6991257306, "lat": -35.2496077, "lon": 149.1340942}, {"type": "node", "id": 6991257319, "lat": -35.2455529, "lon": 149.1343179}, {"type": "node", "id": 7176341373, "lat": -35.2483127, "lon": 149.1339337, "tags": {"button_operated": "yes", "crossing": "traffic_signals", "highway": "traffic_signals", "tactile_paving": "yes", "traffic_signals:sound": "yes"}}, {"type": "node", "id": 7176341379, "lat": -35.2480457, "lon": 149.1342755, "tags": {"button_operated": "yes", "crossing": "traffic_signals", "highway": "traffic_signals", "tactile_paving": "yes", "traffic_signals:sound": "yes"}}, {"type": "node", "id": 7176366256, "lat": -35.2495952, "lon": 149.1337175, "tags": {"crossing": "unmarked", "highway": "crossing"}}, {"type": "node", "id": 7176366259, "lat": -35.2496286, "lon": 149.1340909, "tags": {"crossing": "unmarked", "highway": "crossing"}}, {"type": "node", "id": 7176400887, "lat": -35.2473091, "lon": 149.1342638}, {"type": "node", "id": 7176445175, "lat": -35.2492129, "lon": 149.1337817}, {"type": "node", "id": 7176479265, "lat": -35.2443285, "lon": 149.1347483, "tags": {"button_operated": "yes", "crossing": "traffic_signals", "highway": "crossing", "tactile_paving": "yes", "traffic_signals:sound": "yes"}}, {"type": "node", "id": 7176479266, "lat": -35.2448747, "lon": 149.1343545}, {"type": "node", "id": 7322707529, "lat": -35.2515279, "lon": 149.1334051}, {"type": "node", "id": 7322707531, "lat": -35.2497001, "lon": 149.1337006}, {"type": "node", "id": 7322707532, "lat": -35.2469548, "lon": 149.1342907}, {"type": "node", "id": 7322707533, "lat": -35.2467386, "lon": 149.1343298}, {"type": "node", "id": 7954328119, "lat": -35.2493076, "lon": 149.1337657}, {"type": "node", "id": 7954328124, "lat": -35.2472258, "lon": 149.1342677}, {"type": "node", "id": 9748315004, "lat": -35.2501178, "lon": 149.1340135}, {"type": "node", "id": 9769552996, "lat": -35.2478813, "lon": 149.134273, "tags": {"enforcement": "red_light_camera", "highway": "speed_camera", "maxspeed": "60"}}, {"type": "node", "id": 10154034208, "lat": -35.2480338, "lon": 149.1319228}, {"type": "node", "id": 10154034209, "lat": -35.2480466, "lon": 149.1320256}, {"type": "node", "id": 10276865583, "lat": -35.2458583, "lon": 149.1342816}, {"type": "node", "id": 10801059626, "lat": -35.2493675, "lon": 149.1341372}, {"type": "node", "id": 11013444794, "lat": -35.248086, "lon": 149.1342761}, {"type": "way", "id": 4290934, "nodes": [1831978387, 2866047128, 1114969443, 4344242631], "tags": {"highway": "primary", "lanes": "3", "maxspeed": "60", "name": "Mouat Street", "oneway": "yes", "surface": "asphalt", "turn:lanes": "none|through;right|right"}}, {"type": "way", "id": 32000224, "nodes": [7988478, 4344242658, 1114969492], "tags": {"cycleway:left": "lane", "highway": "trunk", "lanes": "3", "maxspeed": "60", "name": "Northbourne Avenue", "network": "AU:ACT", "oneway": "yes", "rcn": "yes", "ref": "A23", "surface": "paved", "wikidata": "Q14935661"}}, {"type": "way", "id": 52871194, "nodes": [14172329, 7988478], "tags": {"cycleway:left": "lane", "highway": "trunk", "lanes": "4", "maxspeed": "60", "name": "Northbourne Avenue", "network": "AU:ACT", "oneway": "yes", "ref": "A23", "surface": "paved", "wikidata": "Q14935661"}}, {"type": "way", "id": 72864513, "nodes": [7988478, 6415781409, 6415781410, 7988477], "tags": {"highway": "trunk", "lanes": "2", "maxspeed": "60", "name": "Mouat Street", "oneway": "yes", "surface": "paved"}}, {"type": "way", "id": 172276487, "nodes": [7988477, 4344242644, 1114969563], "tags": {"highway": "primary", "lanes": "2", "maxspeed": "60", "name": "Mouat Street", "oneway": "yes", "surface": "asphalt"}}, {"type": "way", "id": 333935401, "nodes": [26903310, 6218026364, 878581400, 7322707529, 5188280078, 6305033638, 7322707531, 7176366256, 6257780059], "tags": {"cycleway:left": "lane", "foot": "no", "highway": "trunk", "lanes": "3", "maxspeed": "60", "name": "Northbourne Avenue", "network": "AU:ACT", "oneway": "yes", "rcn": "yes", "ref": "A23", "surface": "paved", "wikidata": "Q14935661"}}, {"type": "way", "id": 333935405, "nodes": [3759176308, 6991257319, 14169943, 7176479266], "tags": {"cycleway:left": "lane", "foot": "no", "highway": "trunk", "lanes": "2", "maxspeed": "60", "name": "Northbourne Avenue", "network": "AU:ACT", "oneway": "yes", "rcn": "yes", "ref": "A23", "surface": "paved", "wikidata": "Q14935661"}}, {"type": "way", "id": 436534624, "nodes": [4344242631, 14172328], "tags": {"highway": "primary", "lanes": "2", "maxspeed": "60", "name": "Mouat Street", "oneway": "yes", "surface": "paved"}}, {"type": "way", "id": 436534626, "nodes": [4344242630, 3911454681, 1831978388, 10154034209, 10154034208, 7988461], "tags": {"cycleway:left": "separate", "highway": "primary", "lanes": "1", "maxspeed": "60", "name": "Mouat Street", "oneway": "yes", "surface": "asphalt"}}, {"type": "way", "id": 436534627, "nodes": [14868171, 4344242618], "tags": {"cycleway:left": "lane", "highway": "trunk", "lanes": "4", "maxspeed": "60", "name": "Northbourne Avenue", "network": "AU:ACT", "oneway": "yes", "ref": "A23", "surface": "paved", "turn:lanes": "none|none|none|right", "wikidata": "Q14935661"}}, {"type": "way", "id": 436534628, "nodes": [4344242618, 9769552996, 7176341379, 11013444794, 870322540, 14172329], "tags": {"cycleway:left": "lane", "highway": "trunk", "lanes": "4", "maxspeed": "60", "name": "Northbourne Avenue", "network": "AU:ACT", "oneway": "yes", "ref": "A23", "surface": "paved", "wikidata": "Q14935661"}}, {"type": "way", "id": 436534630, "nodes": [14172328, 870322751, 1114969506], "tags": {"cycleway:left": "lane", "foot": "no", "highway": "trunk", "lanes": "3", "maxspeed": "60", "name": "Northbourne Avenue", "network": "AU:ACT", "oneway": "yes", "rcn": "yes", "ref": "A23", "surface": "paved", "wikidata": "Q14935661"}}, {"type": "way", "id": 436534631, "nodes": [1831978407, 4598661356], "tags": {"cycleway:left": "lane", "foot": "no", "highway": "trunk", "lanes": "4", "maxspeed": "60", "name": "Northbourne Avenue", "network": "AU:ACT", "oneway": "yes", "rcn": "yes", "ref": "A23", "surface": "paved", "turn:lanes": "none|none|none|right", "wikidata": "Q14935661"}}, {"type": "way", "id": 454002573, "nodes": [14868168, 7176479265, 1937955411, 14868169], "tags": {"cycleway:left": "lane", "highway": "trunk", "lanes": "2", "maxspeed": "60", "name": "Northbourne Avenue", "network": "AU:ACT", "oneway": "yes", "ref": "A23", "surface": "paved", "wikidata": "Q14935661"}}, {"type": "way", "id": 454002574, "nodes": [14868169, 833789082], "tags": {"cycleway:left": "lane", "highway": "trunk", "lanes": "2", "maxspeed": "60", "name": "Northbourne Avenue", "network": "AU:ACT", "oneway": "yes", "ref": "A23", "source:lanes": "ACTmapi Imagery 2018", "surface": "paved", "wikidata": "Q14935661"}}, {"type": "way", "id": 454002575, "nodes": [833789082, 3759176310], "tags": {"cycleway:left": "lane", "highway": "trunk", "lanes": "2", "maxspeed": "60", "name": "Northbourne Avenue", "network": "AU:ACT", "oneway": "yes", "ref": "A23", "surface": "paved", "wikidata": "Q14935661"}}, {"type": "way", "id": 454002576, "nodes": [14868170, 7954328124, 7176400887, 14868171], "tags": {"cycleway:left": "lane", "highway": "trunk", "lanes": "3", "maxspeed": "60", "name": "Northbourne Avenue", "network": "AU:ACT", "oneway": "yes", "ref": "A23", "surface": "paved", "wikidata": "Q14935661"}}, {"type": "way", "id": 464792753, "nodes": [14172328, 6415781408, 6415781407, 14172329], "tags": {"highway": "trunk", "lanes": "2", "maxspeed": "60", "name": "Mouat Street", "oneway": "yes", "surface": "paved"}}, {"type": "way", "id": 464792765, "nodes": [7988477, 14172328], "tags": {"cycleway:left": "lane", "foot": "no", "highway": "trunk", "lanes": "4", "maxspeed": "60", "name": "Northbourne Avenue", "network": "AU:ACT", "oneway": "yes", "rcn": "yes", "ref": "A23", "surface": "paved", "turn:lanes": "none|none|none|right", "wikidata": "Q14935661"}}, {"type": "way", "id": 489193375, "nodes": [5594419127, 10801059626, 6991257306, 7176366259, 5188280045, 660915706, 5594419135, 9748315004, 660915708, 6305033635, 5188297617], "tags": {"cycleway:left": "lane", "highway": "trunk", "lanes": "3", "maxspeed": "60", "name": "Northbourne Avenue", "network": "AU:ACT", "oneway": "yes", "rcn": "yes", "ref": "A23", "surface": "paved", "wikidata": "Q14935661"}}, {"type": "way", "id": 489194323, "nodes": [1114969563, 3911454686], "tags": {"cycleway:left": "separate", "highway": "primary", "lanes": "2", "maxspeed": "60", "name": "Mouat Street", "oneway": "yes", "surface": "asphalt"}}, {"type": "way", "id": 489194324, "nodes": [4598661356, 7176341373, 7988477], "tags": {"cycleway:left": "lane", "foot": "no", "highway": "trunk", "lanes": "4", "maxspeed": "60", "name": "Northbourne Avenue", "network": "AU:ACT", "oneway": "yes", "rcn": "yes", "ref": "A23", "surface": "paved", "turn:lanes": "none|none|none|right", "wikidata": "Q14935661"}}, {"type": "way", "id": 546709115, "nodes": [4344242617, 3759176311, 10276865583, 3759176308], "tags": {"cycleway:left": "lane", "foot": "no", "highway": "trunk", "lanes": "2", "maxspeed": "60", "name": "Northbourne Avenue", "network": "AU:ACT", "oneway": "yes", "rcn": "yes", "ref": "A23", "surface": "paved", "wikidata": "Q14935661"}}, {"type": "way", "id": 546709191, "nodes": [3759176310, 7322707533], "tags": {"cycleway:left": "lane", "highway": "trunk", "lanes": "2", "maxspeed": "60", "name": "Northbourne Avenue", "network": "AU:ACT", "oneway": "yes", "ref": "A23", "surface": "paved", "wikidata": "Q14935661"}}, {"type": "way", "id": 546709205, "nodes": [1114969492, 1831978405], "tags": {"cycleway:left": "lane", "highway": "trunk", "lanes": "3", "maxspeed": "60", "name": "Northbourne Avenue", "network": "AU:ACT", "oneway": "yes", "rcn": "yes", "ref": "A23", "surface": "paved", "wikidata": "Q14935661"}}, {"type": "way", "id": 546709206, "nodes": [5188297617, 26932578], "tags": {"cycleway:left": "lane", "highway": "trunk", "lanes": "3", "maxspeed": "60", "name": "Northbourne Avenue", "network": "AU:ACT", "oneway": "yes", "rcn": "yes", "ref": "A23", "surface": "paved", "wikidata": "Q14935661"}}, {"type": "way", "id": 668243022, "nodes": [1831748284, 5188281059, 33172863, 6991257294, 26903310], "tags": {"cycleway:left": "lane", "foot": "no", "highway": "trunk", "lanes": "3", "maxspeed": "60", "name": "Northbourne Avenue", "network": "AU:ACT", "oneway": "yes", "rcn": "yes", "ref": "A23", "source:lanes": "ACTmapi Imagery 2018", "surface": "paved", "wikidata": "Q14935661"}}, {"type": "way", "id": 668243023, "nodes": [6257780059, 7954328119, 7176445175], "tags": {"cycleway:left": "lane", "foot": "no", "highway": "trunk", "lanes": "4", "maxspeed": "60", "name": "Northbourne Avenue", "network": "AU:ACT", "oneway": "yes", "rcn": "yes", "ref": "A23", "surface": "paved", "turn:lanes": "left|||", "wikidata": "Q14935661"}}, {"type": "way", "id": 723503002, "nodes": [26932578, 5188281028, 4831957738, 1831748282], "tags": {"cycleway:left": "lane", "highway": "trunk", "lanes": "3", "maxspeed": "60", "name": "Northbourne Avenue", "network": "AU:ACT", "oneway": "yes", "rcn": "yes", "ref": "A23", "surface": "paved", "wikidata": "Q14935661"}}, {"type": "way", "id": 768688489, "nodes": [7176479266, 5188281043, 6415763152, 14169946], "tags": {"cycleway:left": "lane", "foot": "no", "highway": "trunk", "lanes": "2", "maxspeed": "60", "name": "Northbourne Avenue", "network": "AU:ACT", "oneway": "yes", "rcn": "yes", "ref": "A23", "surface": "paved", "wikidata": "Q14935661"}}, {"type": "way", "id": 783917076, "nodes": [1831978405, 5594419127], "tags": {"cycleway:left": "lane", "highway": "trunk", "lanes": "3", "maxspeed": "60", "name": "Northbourne Avenue", "network": "AU:ACT", "oneway": "yes", "rcn": "yes", "ref": "A23", "surface": "paved", "wikidata": "Q14935661"}}, {"type": "way", "id": 783917077, "nodes": [1114969506, 4344242617], "tags": {"cycleway:left": "lane", "foot": "no", "highway": "trunk", "lanes": "3", "maxspeed": "60", "name": "Northbourne Avenue", "network": "AU:ACT", "oneway": "yes", "rcn": "yes", "ref": "A23", "surface": "paved", "wikidata": "Q14935661"}}, {"type": "way", "id": 783931088, "nodes": [7176445175, 3911454751], "tags": {"cycleway:left": "lane", "foot": "no", "highway": "trunk", "lanes": "4", "maxspeed": "60", "name": "Northbourne Avenue", "network": "AU:ACT", "oneway": "yes", "rcn": "yes", "ref": "A23", "surface": "paved", "turn:lanes": "left|||", "wikidata": "Q14935661"}}, {"type": "way", "id": 783931091, "nodes": [7322707533, 7322707532, 14868170], "tags": {"cycleway:left": "lane", "highway": "trunk", "lanes": "3", "maxspeed": "60", "name": "Northbourne Avenue", "network": "AU:ACT", "oneway": "yes", "ref": "A23", "surface": "paved", "wikidata": "Q14935661"}}, {"type": "way", "id": 783931092, "nodes": [3911454686, 4344242630], "tags": {"cycleway:left": "separate", "highway": "primary", "lanes": "2", "maxspeed": "60", "name": "Mouat Street", "oneway": "yes", "surface": "asphalt"}}, {"type": "way", "id": 783931093, "nodes": [3911454751, 1831978407], "tags": {"cycleway:left": "lane", "foot": "no", "highway": "trunk", "lanes": "4", "maxspeed": "60", "name": "Northbourne Avenue", "network": "AU:ACT", "oneway": "yes", "rcn": "yes", "ref": "A23", "surface": "paved", "turn:lanes": "left|||", "wikidata": "Q14935661"}}]}