{"version": 0.6, "generator": "Overpass API 0.7.61.5 4133829e", "osm3s": {"timestamp_osm_base": "2023-12-06T10:33:00Z", "copyright": "The data included in this document is from www.openstreetmap.org. The data is made available under ODbL."}, "elements": [{"type": "node", "id": 33013296, "lat": -34.0456165, "lon": 151.1329247}, {"type": "node", "id": 59958236, "lat": -34.0470466, "lon": 151.1371445}, {"type": "node", "id": 59958237, "lat": -34.0482352, "lon": 151.1414358, "tags": {"highway": "traffic_signals", "ref": "4966", "start_date": "2019-11-11"}}, {"type": "node", "id": 249371973, "lat": -34.043538, "lon": 151.126469}, {"type": "node", "id": 249663403, "lat": -34.0445881, "lon": 151.1307069}, {"type": "node", "id": 249663454, "lat": -34.0437754, "lon": 151.128319}, {"type": "node", "id": 249764942, "lat": -34.0448909, "lon": 151.1313565}, {"type": "node", "id": 249764963, "lat": -34.0442194, "lon": 151.1298997}, {"type": "node", "id": 1611253780, "lat": -34.043821, "lon": 151.1286774}, {"type": "node", "id": 1611253781, "lat": -34.0438622, "lon": 151.1289265}, {"type": "node", "id": 1611253782, "lat": -34.0440306, "lon": 151.1294819}, {"type": "node", "id": 1611253783, "lat": -34.0462216, "lon": 151.1342465}, {"type": "node", "id": 1611253784, "lat": -34.0463407, "lon": 151.1345569}, {"type": "node", "id": 1638549553, "lat": -34.0483528, "lon": 151.1414091, "tags": {"highway": "traffic_signals", "ref": "4966", "start_date": "2019-11-11"}}, {"type": "node", "id": 1638583347, "lat": -34.0436507, "lon": 151.1264529}, {"type": "node", "id": 1638583348, "lat": -34.0436668, "lon": 151.1265623}, {"type": "node", "id": 1638583349, "lat": -34.0439079, "lon": 151.1284489}, {"type": "node", "id": 1638583350, "lat": -34.0439607, "lon": 151.128778}, {"type": "node", "id": 1638583352, "lat": -34.0441067, "lon": 151.1293431}, {"type": "node", "id": 1638583354, "lat": -34.0457382, "lon": 151.1328985, "tags": {"ref": "0899", "start_date": "1974-06-14"}}, {"type": "node", "id": 1638583356, "lat": -34.0464446, "lon": 151.1345403}, {"type": "node", "id": 1638583358, "lat": -34.0466714, "lon": 151.1352937}, {"type": "node", "id": 1638583360, "lat": -34.047162, "lon": 151.1371155}, {"type": "node", "id": 1638583362, "lat": -34.0475751, "lon": 151.1386193}, {"type": "node", "id": 1638583373, "lat": -34.0479503, "lon": 151.139955}, {"type": "node", "id": 1851408304, "lat": -34.0438898, "lon": 151.1282913}, {"type": "node", "id": 1851408305, "lat": -34.0441579, "lon": 151.1294811}, {"type": "node", "id": 1851408306, "lat": -34.0446943, "lon": 151.1306503}, {"type": "node", "id": 1851408321, "lat": -34.0465823, "lon": 151.1349926}, {"type": "node", "id": 1851408323, "lat": -34.0466892, "lon": 151.1358353}, {"type": "node", "id": 1851408332, "lat": -34.0473824, "lon": 151.1383603}, {"type": "node", "id": 2503421085, "lat": -34.0459941, "lon": 151.1334735}, {"type": "node", "id": 2503421091, "lat": -34.0461811, "lon": 151.1338952}, {"type": "node", "id": 3489942989, "lat": -34.0439339, "lon": 151.1292153}, {"type": "node", "id": 3489944909, "lat": -34.0463983, "lon": 151.1344029}, {"type": "node", "id": 5529099313, "lat": -34.0450388, "lon": 151.1316586}, {"type": "node", "id": 7660773588, "lat": -34.0458911, "lon": 151.133239}, {"type": "node", "id": 8228920361, "lat": -34.0456596, "lon": 151.1330278, "tags": {"crossing": "traffic_signals", "highway": "crossing"}}, {"type": "node", "id": 9875833973, "lat": -34.0462613, "lon": 151.1343477}, {"type": "node", "id": 9875833974, "lat": -34.046308, "lon": 151.1344584}, {"type": "node", "id": 9955883551, "lat": -34.0436803, "lon": 151.1275694}, {"type": "node", "id": 9955883558, "lat": -34.0438403, "lon": 151.1288045}, {"type": "node", "id": 9955883559, "lat": -34.0438928, "lon": 151.1290658}, {"type": "node", "id": 9955883560, "lat": -34.043983, "lon": 151.1289094}, {"type": "node", "id": 9955883561, "lat": -34.0440126, "lon": 151.1290446}, {"type": "node", "id": 9955883562, "lat": -34.0440612, "lon": 151.1292028}, {"type": "node", "id": 9955883563, "lat": -34.0439783, "lon": 151.1293444}, {"type": "node", "id": 9955883565, "lat": -34.0442306, "lon": 151.1296398}, {"type": "node", "id": 9955883566, "lat": -34.0452252, "lon": 151.1318059}, {"type": "node", "id": 9955883567, "lat": -34.0463661, "lon": 151.1343116}, {"type": "node", "id": 9955883568, "lat": -34.0463221, "lon": 151.1342055}, {"type": "node", "id": 11309401304, "lat": -34.045295, "lon": 151.1319561}, {"type": "node", "id": 11391514631, "lat": -34.0482015, "lon": 151.1413143, "tags": {"crossing": "traffic_signals", "highway": "crossing"}}, {"type": "node", "id": 11391514632, "lat": -34.0483152, "lon": 151.1412733, "tags": {"crossing": "traffic_signals", "highway": "crossing"}}, {"type": "node", "id": 11391514633, "lat": -34.0481914, "lon": 151.141278, "tags": {"highway": "traffic_signals", "traffic_signals": "signal", "traffic_signals:direction": "forward"}}, {"type": "node", "id": 11391527773, "lat": -34.045785, "lon": 151.1330026, "tags": {"crossing": "traffic_signals", "highway": "crossing"}}, {"type": "node", "id": 11391527775, "lat": -34.0455545, "lon": 151.1327887, "tags": {"highway": "traffic_signals", "traffic_signals": "signal", "traffic_signals:direction": "forward"}}, {"type": "node", "id": 11391527776, "lat": -34.0458004, "lon": 151.133037, "tags": {"highway": "traffic_signals", "traffic_signals": "signal", "traffic_signals:direction": "forward"}}, {"type": "way", "id": 4978039, "nodes": [33013296, 1638583354], "tags": {"cycleway:both": "no", "highway": "primary", "name": "Gannons Road South", "source": "survey", "surface": "asphalt"}}, {"type": "way", "id": 151005632, "nodes": [1638549553, 11391514632, 1638583373, 1638583362, 1638583360, 1638583358, 1851408321], "tags": {"highway": "primary", "maxspeed": "70", "name": "Kingsway", "oneway": "yes", "source": "nearmap", "surface": "paved"}}, {"type": "way", "id": 151005633, "nodes": [249663454, 1611253780, 9955883558, 1611253781, 9955883559, 3489942989, 9955883563, 1611253782, 249764963, 249663403], "tags": {"cycleway:left": "no", "highway": "primary", "maxspeed": "70", "name": "Kingsway", "oneway": "yes", "source": "nearmap", "surface": "asphalt"}}, {"type": "way", "id": 220191666, "nodes": [1638583354, 11309401304], "tags": {"cycleway:left": "no", "highway": "primary", "maxspeed": "70", "name": "Kingsway", "oneway": "yes", "source": "nearmap", "surface": "asphalt"}}, {"type": "way", "id": 220191667, "nodes": [1851408306, 9955883565, 1851408305, 1638583352, 9955883562, 9955883561, 9955883560, 1638583350, 1638583349, 1851408304], "tags": {"cycleway:left": "no", "highway": "primary", "maxspeed": "70", "name": "Kingsway", "oneway": "yes", "source": "nearmap", "surface": "asphalt"}}, {"type": "way", "id": 220191669, "nodes": [1851408306, 249663403], "tags": {"cycleway:both": "no", "highway": "primary", "name": "Oleander Parade", "surface": "asphalt"}}, {"type": "way", "id": 242795205, "nodes": [1638583360, 59958236], "tags": {"cycleway:both": "no", "highway": "primary", "maxspeed": "50", "name": "Dolans Road", "source": "survey", "source:name": "sign (intersection with Burraneer Bay Road).", "surface": "asphalt"}}, {"type": "way", "id": 242795218, "nodes": [249663454, 1851408304], "tags": {"cycleway:both": "no", "highway": "primary", "name": "Yathong Road South", "surface": "asphalt"}}, {"type": "way", "id": 573322748, "nodes": [33013296, 8228920361, 1611253783, 9875833973, 9875833974, 1611253784, 1851408323, 59958236, 1851408332, 11391514633, 11391514631, 59958237], "tags": {"highway": "primary", "maxspeed": "70", "name": "Kingsway", "oneway": "yes", "source": "nearmap", "surface": "paved"}}, {"type": "way", "id": 576476725, "nodes": [249663403, 249764942, 5529099313], "tags": {"cycleway:left": "no", "highway": "primary", "maxspeed": "70", "name": "Kingsway", "oneway": "yes", "source": "nearmap", "surface": "paved"}}, {"type": "way", "id": 576476726, "nodes": [5529099313, 11391527775, 33013296], "tags": {"cycleway:left": "no", "highway": "primary", "maxspeed": "70", "name": "Kingsway", "oneway": "yes", "source": "nearmap", "surface": "asphalt"}}, {"type": "way", "id": 576476727, "nodes": [11309401304, 9955883566, 1851408306], "tags": {"cycleway:left": "no", "highway": "primary", "maxspeed": "70", "name": "Kingsway", "oneway": "yes", "source": "nearmap", "surface": "asphalt"}}, {"type": "way", "id": 576476808, "nodes": [249371973, 9955883551, 249663454], "tags": {"cycleway:left": "no", "highway": "primary", "maxspeed": "70", "name": "Kingsway", "oneway": "yes", "source": "nearmap", "surface": "asphalt"}}, {"type": "way", "id": 576476811, "nodes": [1851408304, 1638583348, 1638583347], "tags": {"cycleway:left": "no", "highway": "primary", "maxspeed": "70", "name": "Kingsway", "oneway": "yes", "source": "nearmap", "surface": "asphalt"}}, {"type": "way", "id": 785989976, "nodes": [1851408321, 1638583356, 3489944909, 9955883567, 9955883568, 2503421091, 2503421085], "tags": {"highway": "primary", "maxspeed": "70", "name": "Kingsway", "oneway": "yes", "source": "nearmap", "surface": "paved"}}, {"type": "way", "id": 820418170, "nodes": [7660773588, 11391527776, 11391527773, 1638583354], "tags": {"cycleway:left": "no", "highway": "primary", "maxspeed": "70", "name": "Kingsway", "oneway": "yes", "source": "nearmap", "surface": "asphalt"}}, {"type": "way", "id": 820418171, "nodes": [2503421085, 7660773588], "tags": {"cycleway:left": "no", "highway": "primary", "maxspeed": "70", "name": "Kingsway", "oneway": "yes", "source": "nearmap", "surface": "asphalt"}}]}