{"version": 0.6, "generator": "Overpass API 0.7.61.5 4133829e", "osm3s": {"timestamp_osm_base": "2023-12-06T10:15:30Z", "copyright": "The data included in this document is from www.openstreetmap.org. The data is made available under ODbL."}, "elements": [{"type": "node", "id": 29549300, "lat": -32.8241749, "lon": 151.4862302}, {"type": "node", "id": 29549301, "lat": -32.8241135, "lon": 151.4864017}, {"type": "node", "id": 29549302, "lat": -32.8241755, "lon": 151.4865204}, {"type": "node", "id": 29549303, "lat": -32.8243074, "lon": 151.4865434}, {"type": "node", "id": 29549304, "lat": -32.8244093, "lon": 151.486361}, {"type": "node", "id": 29549305, "lat": -32.824302, "lon": 151.4862047}, {"type": "node", "id": 29549310, "lat": -32.8260207, "lon": 151.4871589}, {"type": "node", "id": 29549311, "lat": -32.8266992, "lon": 151.4876002}, {"type": "node", "id": 29549312, "lat": -32.8269268, "lon": 151.4877664}, {"type": "node", "id": 29549313, "lat": -32.8272356, "lon": 151.4880802}, {"type": "node", "id": 53234811, "lat": -32.8275148, "lon": 151.4885979}, {"type": "node", "id": 53234826, "lat": -32.824402, "lon": 151.4864315}, {"type": "node", "id": 53234847, "lat": -32.8284038, "lon": 151.4938145}, {"type": "node", "id": 53246181, "lat": -32.827921, "lon": 151.4906557}, {"type": "node", "id": 338631368, "lat": -32.8273243, "lon": 151.4882087}, {"type": "node", "id": 338632785, "lat": -32.8256596, "lon": 151.4869812}, {"type": "node", "id": 710237514, "lat": -32.8277693, "lon": 151.4896881}, {"type": "node", "id": 819027390, "lat": -32.8263177, "lon": 151.4873359}, {"type": "node", "id": 819027391, "lat": -32.8251354, "lon": 151.4867496}, {"type": "node", "id": 819027395, "lat": -32.8261819, "lon": 151.487248}, {"type": "node", "id": 819027400, "lat": -32.8239467, "lon": 151.4862564}, {"type": "node", "id": 819027401, "lat": -32.8239715, "lon": 151.4861692}, {"type": "node", "id": 819027410, "lat": -32.8236208, "lon": 151.4861079}, {"type": "node", "id": 819027411, "lat": -32.8236568, "lon": 151.4860172}, {"type": "node", "id": 939987927, "lat": -32.8241368, "lon": 151.4862768}, {"type": "node", "id": 939987930, "lat": -32.8241154, "lon": 151.4863366}, {"type": "node", "id": 939987936, "lat": -32.8241342, "lon": 151.4864686}, {"type": "node", "id": 939987941, "lat": -32.8242167, "lon": 151.4865444}, {"type": "node", "id": 939987942, "lat": -32.8242621, "lon": 151.4865523}, {"type": "node", "id": 939987944, "lat": -32.8243483, "lon": 151.4865185}, {"type": "node", "id": 939987959, "lat": -32.8243927, "lon": 151.4862927}, {"type": "node", "id": 939987960, "lat": -32.8243549, "lon": 151.4862377}, {"type": "node", "id": 939987963, "lat": -32.8242581, "lon": 151.4861978}, {"type": "node", "id": 939987967, "lat": -32.8242145, "lon": 151.4862066}, {"type": "node", "id": 1850861504, "lat": -32.8291589, "lon": 151.4986147}, {"type": "node", "id": 2513522336, "lat": -32.8275108, "lon": 151.4888943}, {"type": "node", "id": 2513522337, "lat": -32.8275213, "lon": 151.4888613}, {"type": "node", "id": 2513522338, "lat": -32.8275477, "lon": 151.4890373}, {"type": "node", "id": 2513522340, "lat": -32.8275753, "lon": 151.4890578}, {"type": "node", "id": 2513522342, "lat": -32.8276487, "lon": 151.4887975}, {"type": "node", "id": 2513522343, "lat": -32.827712, "lon": 151.4890191}, {"type": "node", "id": 2513522348, "lat": -32.8277028, "lon": 151.4892786}, {"type": "node", "id": 4054344161, "lat": -32.8249685, "lon": 151.4867129}, {"type": "node", "id": 4054344171, "lat": -32.8251164, "lon": 151.4868142}, {"type": "node", "id": 4054344192, "lat": -32.8255352, "lon": 151.4870363}, {"type": "node", "id": 4054344193, "lat": -32.8255137, "lon": 151.4869301}, {"type": "node", "id": 4054344208, "lat": -32.8257413, "lon": 151.4871384}, {"type": "node", "id": 4054344213, "lat": -32.8258799, "lon": 151.4870892}, {"type": "node", "id": 4054344228, "lat": -32.8260063, "lon": 151.4872722}, {"type": "node", "id": 4054344244, "lat": -32.8262974, "lon": 151.4874057}, {"type": "node", "id": 4054344246, "lat": -32.8265842, "lon": 151.487525}, {"type": "node", "id": 6544648846, "lat": -32.8277106, "lon": 151.4890616}, {"type": "node", "id": 6544648847, "lat": -32.8277052, "lon": 151.4891518}, {"type": "node", "id": 6544648849, "lat": -32.8277058, "lon": 151.4892377}, {"type": "node", "id": 6544648850, "lat": -32.8276365, "lon": 151.4891834}, {"type": "node", "id": 6544648861, "lat": -32.8275968, "lon": 151.4886928}, {"type": "node", "id": 6544648864, "lat": -32.8275154, "lon": 151.4887391}, {"type": "node", "id": 6544648874, "lat": -32.8277283, "lon": 151.4888826}, {"type": "node", "id": 6635239282, "lat": -32.8243809, "lon": 151.48648}, {"type": "node", "id": 6635239283, "lat": -32.8246709, "lon": 151.4865638}, {"type": "node", "id": 6635239284, "lat": -32.8252659, "lon": 151.4868978}, {"type": "node", "id": 6635239288, "lat": -32.8270882, "lon": 151.487909}, {"type": "node", "id": 6635239289, "lat": -32.8274229, "lon": 151.4883783}, {"type": "node", "id": 6635239297, "lat": -32.8275382, "lon": 151.4888336}, {"type": "node", "id": 6635239298, "lat": -32.8276117, "lon": 151.4890691}, {"type": "node", "id": 6635239299, "lat": -32.8276838, "lon": 151.4890487}, {"type": "node", "id": 6635239300, "lat": -32.8275071, "lon": 151.4889265}, {"type": "node", "id": 6635239301, "lat": -32.8275817, "lon": 151.4888004}, {"type": "node", "id": 6635239302, "lat": -32.8277097, "lon": 151.4888408}, {"type": "node", "id": 6635239303, "lat": -32.8276091, "lon": 151.4887948}, {"type": "node", "id": 6635239304, "lat": -32.8276492, "lon": 151.489066}, {"type": "node", "id": 6635239305, "lat": -32.8277295, "lon": 151.4889804}, {"type": "node", "id": 6635239306, "lat": -32.827682, "lon": 151.4888134}, {"type": "node", "id": 6635239307, "lat": -32.827524, "lon": 151.4890074}, {"type": "node", "id": 6635239308, "lat": -32.8240747, "lon": 151.4862125}, {"type": "node", "id": 6635239309, "lat": -32.8240421, "lon": 151.4863251}, {"type": "node", "id": 6899532142, "lat": -32.8252633, "lon": 151.4868094, "tags": {"crossing": "unmarked", "highway": "crossing"}}, {"type": "node", "id": 6899532154, "lat": -32.8252361, "lon": 151.4868818, "tags": {"crossing": "unmarked", "highway": "crossing"}}, {"type": "node", "id": 7178930795, "lat": -32.8303607, "lon": 151.5065629}, {"type": "node", "id": 7387120866, "lat": -32.8261634, "lon": 151.4872377}, {"type": "node", "id": 8487221876, "lat": -32.827558, "lon": 151.4888149}, {"type": "node", "id": 8487221877, "lat": -32.8275116, "lon": 151.4889695}, {"type": "node", "id": 8487221878, "lat": -32.8277354, "lon": 151.4889319}, {"type": "way", "id": 5539449, "nodes": [29549300, 939987927, 939987930, 29549301], "tags": {"highway": "primary", "junction": "roundabout", "lanes": "1", "maxspeed": "60", "network": "AU:NSW", "ref": "B68", "surface": "asphalt"}}, {"type": "way", "id": 6492394, "nodes": [4054344246, 819027390, 819027395, 7387120866, 29549310, 4054344213, 338632785, 4054344193], "tags": {"highway": "primary", "lanes": "1", "maxspeed": "60", "name": "Tarro Street", "network": "AU:NSW", "oneway": "yes", "placement": "middle_of:1", "ref": "B68", "surface": "asphalt"}}, {"type": "way", "id": 6492411, "nodes": [2513522348, 710237514, 53246181, 53234847], "tags": {"highway": "primary", "lanes": "2", "maxspeed": "60", "name": "Mulbring Street", "network": "AU:NSW", "ref": "B68", "surface": "asphalt"}}, {"type": "way", "id": 243996509, "nodes": [2513522343, 6635239305, 8487221878, 6544648874, 6635239302, 6635239306, 2513522342], "tags": {"highway": "primary", "junction": "roundabout", "lanes": "1", "maxspeed": "60", "network": "AU:NSW", "ref": "B68", "surface": "asphalt"}}, {"type": "way", "id": 243996515, "nodes": [53234811, 6544648864, 2513522337], "tags": {"highway": "primary", "lanes": "1", "maxspeed": "60", "name": "Tarro Street", "network": "AU:NSW", "oneway": "yes", "ref": "B68", "surface": "asphalt"}}, {"type": "way", "id": 243996516, "nodes": [2513522342, 6544648861, 53234811], "tags": {"highway": "primary", "lanes": "1", "maxspeed": "60", "name": "Tarro Street", "network": "AU:NSW", "oneway": "yes", "ref": "B68", "surface": "asphalt"}}, {"type": "way", "id": 243996517, "nodes": [2513522340, 6544648850, 2513522348], "tags": {"highway": "primary", "lanes": "1", "maxspeed": "60", "name": "Mulbring Street", "network": "AU:NSW", "oneway": "yes", "ref": "B68", "surface": "asphalt"}}, {"type": "way", "id": 243996518, "nodes": [2513522348, 6544648849, 6544648847, 6544648846, 2513522343], "tags": {"highway": "primary", "lanes": "1", "maxspeed": "60", "name": "Mulbring Street", "network": "AU:NSW", "oneway": "yes", "ref": "B68", "surface": "asphalt"}}, {"type": "way", "id": 403053798, "nodes": [53234826, 6635239283, 4054344161], "tags": {"destination:forward": "Hexham", "highway": "primary", "lanes:backward": "2", "lanes:forward": "1", "maxspeed": "60", "name": "Tarro Street", "network": "AU:NSW", "ref": "B68", "surface": "asphalt", "turn:lanes:backward": "left;through|through;right"}}, {"type": "way", "id": 403053799, "nodes": [29549311, 29549312, 6635239288, 29549313, 338631368, 6635239289, 53234811], "tags": {"highway": "primary", "lanes": "2", "maxspeed": "60", "name": "Tarro Street", "network": "AU:NSW", "ref": "B68", "surface": "asphalt"}}, {"type": "way", "id": 403053800, "nodes": [6635239284, 4054344192, 4054344208, 4054344228], "tags": {"highway": "primary", "lanes": "2", "maxspeed": "60", "name": "Tarro Street", "network": "AU:NSW", "oneway": "yes", "placement": "middle_of:2", "ref": "B68", "surface": "asphalt"}}, {"type": "way", "id": 706162433, "nodes": [819027410, 819027400, 6635239309, 29549301], "tags": {"highway": "primary", "lanes": "2", "maxspeed": "60", "name": "Victoria Street", "network": "AU:NSW", "oneway": "yes", "placement": "right_of:1", "ref": "B68", "surface": "asphalt", "turn:lanes": "left;through|through;right"}}, {"type": "way", "id": 706162435, "nodes": [4054344193, 6899532142, 819027391, 4054344161], "tags": {"highway": "primary", "lanes": "2", "maxspeed": "60", "name": "Tarro Street", "network": "AU:NSW", "oneway": "yes", "placement": "middle_of:1", "ref": "B68", "surface": "asphalt"}}, {"type": "way", "id": 706162436, "nodes": [4054344228, 4054344244, 4054344246], "tags": {"highway": "primary", "lanes": "1", "maxspeed": "60", "name": "Tarro Street", "network": "AU:NSW", "oneway": "yes", "ref": "B68", "surface": "asphalt"}}, {"type": "way", "id": 706162437, "nodes": [4054344161, 4054344171, 6899532154, 6635239284], "tags": {"highway": "primary", "lanes": "1", "maxspeed": "60", "name": "Tarro Street", "network": "AU:NSW", "oneway": "yes", "placement": "middle_of:1", "ref": "B68", "surface": "asphalt"}}, {"type": "way", "id": 706162438, "nodes": [4054344246, 29549311], "tags": {"highway": "primary", "lanes": "2", "maxspeed": "60", "name": "Tarro Street", "network": "AU:NSW", "ref": "B68", "surface": "asphalt"}}, {"type": "way", "id": 712591036, "nodes": [29549300, 6635239308, 819027401, 819027411], "tags": {"destination": "Kurri Kurri;Cessnock;Newcastle", "highway": "primary", "lanes": "2", "maxspeed": "60", "name": "Victoria Street", "network": "AU:NSW", "oneway": "yes", "placement": "right_of:1", "ref": "B68", "surface": "asphalt"}}, {"type": "way", "id": 726426111, "nodes": [29549305, 939987963, 939987967, 29549300], "tags": {"highway": "primary", "junction": "roundabout", "lanes": "2", "maxspeed": "60", "network": "AU:NSW", "ref": "B68", "surface": "asphalt"}}, {"type": "way", "id": 726426112, "nodes": [53234826, 29549304, 939987959, 939987960, 29549305], "tags": {"highway": "primary", "junction": "roundabout", "lanes": "2", "maxspeed": "60", "network": "AU:NSW", "ref": "B68", "surface": "asphalt"}}, {"type": "way", "id": 726426113, "nodes": [29549302, 939987941, 939987942, 29549303, 939987944, 6635239282, 53234826], "tags": {"highway": "primary", "junction": "roundabout", "lanes": "2", "maxspeed": "60", "network": "AU:NSW", "ref": "B68", "surface": "asphalt"}}, {"type": "way", "id": 726507695, "nodes": [2513522342, 6635239303, 6635239301, 8487221876, 6635239297, 2513522337], "tags": {"highway": "primary", "junction": "roundabout", "lanes": "1", "maxspeed": "60", "network": "AU:NSW", "ref": "B68", "surface": "asphalt"}}, {"type": "way", "id": 726507696, "nodes": [2513522340, 6635239298, 6635239304, 6635239299, 2513522343], "tags": {"highway": "primary", "junction": "roundabout", "lanes": "1", "maxspeed": "60", "network": "AU:NSW", "ref": "B68", "surface": "asphalt"}}, {"type": "way", "id": 726507697, "nodes": [2513522338, 2513522340], "tags": {"highway": "primary", "junction": "roundabout", "lanes": "1", "maxspeed": "60", "network": "AU:NSW", "ref": "B68", "surface": "asphalt"}}, {"type": "way", "id": 726507698, "nodes": [2513522336, 6635239300, 8487221877, 6635239307, 2513522338], "tags": {"highway": "primary", "junction": "roundabout", "lanes": "1", "maxspeed": "60", "network": "AU:NSW", "ref": "B68", "surface": "asphalt"}}, {"type": "way", "id": 726507699, "nodes": [2513522337, 2513522336], "tags": {"highway": "primary", "junction": "roundabout", "lanes": "1", "maxspeed": "60", "network": "AU:NSW", "ref": "B68", "surface": "asphalt"}}, {"type": "way", "id": 769046243, "nodes": [29549301, 939987936, 29549302], "tags": {"highway": "primary", "junction": "roundabout", "lanes": "2", "maxspeed": "60", "network": "AU:NSW", "ref": "B68", "surface": "asphalt"}}, {"type": "way", "id": 769046260, "nodes": [7178930795, 1850861504, 53234847], "tags": {"highway": "primary", "lanes": "2", "maxspeed": "90", "name": "John Renshaw Drive", "network": "AU:NSW", "ref": "B68", "source:geometry": "Esri World Imagery (Clarity) Beta", "surface": "asphalt"}}]}