{"version": 0.6, "generator": "Overpass API 0.7.61.5 4133829e", "osm3s": {"timestamp_osm_base": "2023-12-06T11:28:58Z", "copyright": "The data included in this document is from www.openstreetmap.org. The data is made available under ODbL."}, "elements": [{"type": "node", "id": 160235385, "lat": -34.4512886, "lon": 147.5261734}, {"type": "node", "id": 160235421, "lat": -34.4484122, "lon": 147.5360116}, {"type": "node", "id": 160235445, "lat": -34.447395, "lon": 147.5397373}, {"type": "node", "id": 160435878, "lat": -34.4429355, "lon": 147.5320739}, {"type": "node", "id": 160439069, "lat": -34.4501387, "lon": 147.5300841, "tags": {"crossing:barrier": "no", "railway": "level_crossing"}}, {"type": "node", "id": 160439198, "lat": -34.4527647, "lon": 147.5361615}, {"type": "node", "id": 244838016, "lat": -34.4504703, "lon": 147.5289566}, {"type": "node", "id": 244838102, "lat": -34.4496365, "lon": 147.5317923}, {"type": "node", "id": 249785352, "lat": -34.4475314, "lon": 147.5417048}, {"type": "node", "id": 249786675, "lat": -34.4492262, "lon": 147.5331876}, {"type": "node", "id": 249786912, "lat": -34.4507914, "lon": 147.5354415}, {"type": "node", "id": 249787488, "lat": -34.4508765, "lon": 147.527575}, {"type": "node", "id": 251268899, "lat": -34.4480136, "lon": 147.5373931}, {"type": "node", "id": 251268902, "lat": -34.4478663, "lon": 147.5462086}, {"type": "node", "id": 294027016, "lat": -34.4477015, "lon": 147.543987}, {"type": "node", "id": 300128708, "lat": -34.4478346, "lon": 147.5457723}, {"type": "node", "id": 322754285, "lat": -34.4487921, "lon": 147.5347043}, {"type": "node", "id": 322754287, "lat": -34.4488549, "lon": 147.5344844}, {"type": "node", "id": 322754291, "lat": -34.4487344, "lon": 147.5345588}, {"type": "node", "id": 322754293, "lat": -34.4489148, "lon": 147.5346379}, {"type": "node", "id": 322754296, "lat": -34.4487773, "lon": 147.5344946}, {"type": "node", "id": 322754300, "lat": -34.4487373, "lon": 147.5346409}, {"type": "node", "id": 322754302, "lat": -34.4488681, "lon": 147.5346995}, {"type": "node", "id": 322754308, "lat": -34.4489121, "lon": 147.5345451}, {"type": "node", "id": 373570596, "lat": -34.4447828, "lon": 147.5329008}, {"type": "node", "id": 373570607, "lat": -34.4450121, "lon": 147.5329983}, {"type": "node", "id": 373570617, "lat": -34.4448815, "lon": 147.5330716}, {"type": "node", "id": 373570628, "lat": -34.4449484, "lon": 147.5327847}, {"type": "node", "id": 373570639, "lat": -34.4448155, "lon": 147.5328212}, {"type": "node", "id": 373570646, "lat": -34.4448022, "lon": 147.5330081}, {"type": "node", "id": 373570654, "lat": -34.4449671, "lon": 147.5330537}, {"type": "node", "id": 373570661, "lat": -34.4450267, "lon": 147.5329024}, {"type": "node", "id": 500116907, "lat": -34.4480306, "lon": 147.5484027}, {"type": "node", "id": 835053905, "lat": -34.4412362, "lon": 147.5313484}, {"type": "node", "id": 835053916, "lat": -34.4506723, "lon": 147.5282694}, {"type": "node", "id": 960181881, "lat": -34.4526325, "lon": 147.5361803}, {"type": "node", "id": 960181939, "lat": -34.45252, "lon": 147.5361492}, {"type": "node", "id": 1468890182, "lat": -34.4397522, "lon": 147.5307148}, {"type": "node", "id": 1468890254, "lat": -34.4447841, "lon": 147.5329569}, {"type": "node", "id": 1468890258, "lat": -34.4448436, "lon": 147.5330547}, {"type": "node", "id": 1468890261, "lat": -34.4448809, "lon": 147.5327778}, {"type": "node", "id": 1468890262, "lat": -34.4449281, "lon": 147.5330716}, {"type": "node", "id": 1468890264, "lat": -34.4450016, "lon": 147.532832}, {"type": "node", "id": 1468890268, "lat": -34.4450248, "lon": 147.5329589}, {"type": "node", "id": 1468890306, "lat": -34.4476313, "lon": 147.538718}, {"type": "node", "id": 1468890310, "lat": -34.4482092, "lon": 147.5367149}, {"type": "node", "id": 1468890312, "lat": -34.4486145, "lon": 147.5353103}, {"type": "node", "id": 1468890316, "lat": -34.44902, "lon": 147.533889}, {"type": "node", "id": 1468890318, "lat": -34.4494346, "lon": 147.5324788}, {"type": "node", "id": 1838361243, "lat": -34.4488366, "lon": 147.5347108}, {"type": "node", "id": 1838361245, "lat": -34.4488587, "lon": 147.5343046, "tags": {"crossing": "uncontrolled", "highway": "crossing", "tactile_paving": "no"}}, {"type": "node", "id": 1838361248, "lat": -34.4489374, "lon": 147.5343441, "tags": {"crossing": "uncontrolled", "highway": "crossing", "tactile_paving": "no"}}, {"type": "node", "id": 1838361250, "lat": -34.4489792, "lon": 147.5340318}, {"type": "node", "id": 2025892300, "lat": -34.4510829, "lon": 147.526873}, {"type": "node", "id": 3729976494, "lat": -34.4485239, "lon": 147.5344529}, {"type": "node", "id": 3729976511, "lat": -34.4491264, "lon": 147.5347137}, {"type": "node", "id": 3729976512, "lat": -34.4451075, "lon": 147.5330048, "tags": {"crossing": "uncontrolled", "highway": "crossing", "tactile_paving": "no"}}, {"type": "node", "id": 3729976513, "lat": -34.4447914, "lon": 147.5328652}, {"type": "node", "id": 3729976515, "lat": -34.4449963, "lon": 147.5330248}, {"type": "node", "id": 3729976518, "lat": -34.4486729, "lon": 147.5351079}, {"type": "node", "id": 3729976524, "lat": -34.4487555, "lon": 147.5346748}, {"type": "node", "id": 3729976725, "lat": -34.4487296, "lon": 147.5345988}, {"type": "node", "id": 3729976729, "lat": -34.4473909, "lon": 147.5399468}, {"type": "node", "id": 3729976732, "lat": -34.448895, "lon": 147.5346755}, {"type": "node", "id": 3729976734, "lat": -34.4478988, "lon": 147.5342004, "tags": {"highway": "crossing"}}, {"type": "node", "id": 3729976735, "lat": -34.4486928, "lon": 147.5349229}, {"type": "node", "id": 3729976737, "lat": -34.4489215, "lon": 147.5345983}, {"type": "node", "id": 3729976753, "lat": -34.4487238, "lon": 147.5349631}, {"type": "node", "id": 3729976754, "lat": -34.4488219, "lon": 147.5344789}, {"type": "node", "id": 3729976771, "lat": -34.4488928, "lon": 147.5345122}, {"type": "node", "id": 3729976774, "lat": -34.4487518, "lon": 147.5345207}, {"type": "node", "id": 3729976818, "lat": -34.447422, "lon": 147.5394928}, {"type": "node", "id": 3975190593, "lat": -34.4501613, "lon": 147.5300074, "tags": {"crossing:barrier": "no", "railway": "level_crossing"}}, {"type": "node", "id": 3975204593, "lat": -34.4449756, "lon": 147.5328022}, {"type": "node", "id": 3975204596, "lat": -34.4446739, "lon": 147.5328161}, {"type": "node", "id": 3975204597, "lat": -34.4448384, "lon": 147.5327984}, {"type": "node", "id": 3975204600, "lat": -34.4447436, "lon": 147.5328187}, {"type": "node", "id": 3975204602, "lat": -34.444786, "lon": 147.532966}, {"type": "node", "id": 3975204604, "lat": -34.4448226, "lon": 147.5330364}, {"type": "node", "id": 3975204605, "lat": -34.4450155, "lon": 147.5328589}, {"type": "node", "id": 3975204607, "lat": -34.4449907, "lon": 147.5330319}, {"type": "node", "id": 3975204609, "lat": -34.4449504, "lon": 147.5330636}, {"type": "node", "id": 3975204611, "lat": -34.4447926, "lon": 147.5328055}, {"type": "node", "id": 3975204616, "lat": -34.4447484, "lon": 147.5329168}, {"type": "node", "id": 3975204619, "lat": -34.444908, "lon": 147.5327751}, {"type": "node", "id": 3975204621, "lat": -34.4447192, "lon": 147.5328737}, {"type": "node", "id": 4401964759, "lat": -34.4457368, "lon": 147.5332721}, {"type": "node", "id": 4401964769, "lat": -34.4459639, "lon": 147.5333685}, {"type": "node", "id": 4526021830, "lat": -34.4498515, "lon": 147.5310609}, {"type": "node", "id": 5547644601, "lat": -34.4475991, "lon": 147.5388417}, {"type": "node", "id": 7241564004, "lat": -34.4410501, "lon": 147.5312689}, {"type": "node", "id": 10772392697, "lat": -34.4469506, "lon": 147.5337118}, {"type": "node", "id": 10772392698, "lat": -34.4468073, "lon": 147.5336564}, {"type": "node", "id": 10772392699, "lat": -34.4469214, "lon": 147.533811}, {"type": "node", "id": 10772392700, "lat": -34.446832, "lon": 147.5336363}, {"type": "node", "id": 10772392701, "lat": -34.4468904, "lon": 147.5336316}, {"type": "node", "id": 10772392702, "lat": -34.4469206, "lon": 147.5336508}, {"type": "node", "id": 10772392703, "lat": -34.4468663, "lon": 147.5338351}, {"type": "node", "id": 10772392704, "lat": -34.4469511, "lon": 147.5337478}, {"type": "node", "id": 10772403641, "lat": -34.446837, "lon": 147.5338288}, {"type": "node", "id": 10772403642, "lat": -34.4473189, "lon": 147.5339389}, {"type": "node", "id": 10772403643, "lat": -34.4469413, "lon": 147.5337819}, {"type": "node", "id": 10772403645, "lat": -34.4467819, "lon": 147.533716}, {"type": "node", "id": 10772406605, "lat": -34.4467935, "lon": 147.5337856}, {"type": "node", "id": 10772406606, "lat": -34.44694, "lon": 147.5336781}, {"type": "node", "id": 10772406607, "lat": -34.4468608, "lon": 147.5336277}, {"type": "node", "id": 10772406608, "lat": -34.4467826, "lon": 147.533752}, {"type": "node", "id": 10772406609, "lat": -34.4467897, "lon": 147.5336855}, {"type": "node", "id": 10772406610, "lat": -34.4468132, "lon": 147.5338126}, {"type": "node", "id": 10772406611, "lat": -34.4468956, "lon": 147.533829}, {"type": "way", "id": 15944449, "nodes": [160235385, 2025892300, 249787488, 835053916, 244838016, 3975190593, 160439069, 4526021830, 244838102, 1468890318, 249786675, 1468890316], "tags": {"highway": "primary", "lanes": "2", "maxspeed": "50", "name": "Victoria Street", "network": "AU:NSW", "ref": "B94", "source:name": "LPI NSW Base Map", "surface": "asphalt", "surface:grade": "3"}}, {"type": "way", "id": 15964484, "nodes": [160439198, 960181881, 960181939, 249786912, 3729976511], "tags": {"highway": "primary", "maxspeed": "50", "name": "Hoskins Street", "network": "AU:NSW", "ref": "B85", "source:name": "NSW LPI Base Map", "source:name:date": "2016-02", "surface": "asphalt"}}, {"type": "way", "id": 29339116, "nodes": [3729976518, 1468890312, 160235421, 1468890310, 251268899, 1468890306], "tags": {"cycleway:both": "no", "highway": "primary", "lanes": "2", "maxspeed": "50", "name": "Victoria Street", "network": "AU:NSW", "ref": "B94", "source:name": "LPI NSW Base Map", "surface": "asphalt", "surface:grade": "3"}}, {"type": "way", "id": 33104850, "nodes": [1468890261, 3975204597, 373570639, 3729976513, 373570596, 1468890254, 3975204602, 373570646, 3975204604, 1468890258, 373570617, 1468890262, 3975204609, 373570654, 3975204607, 3729976515, 373570607, 1468890268, 373570661, 3975204605, 1468890264, 3975204593, 373570628, 3975204619, 1468890261], "tags": {"cycleway:left": "no", "highway": "primary", "junction": "roundabout", "maxspeed": "50", "network": "AU:NSW", "ref": "B85", "surface": "asphalt"}}, {"type": "way", "id": 69844620, "nodes": [3975204597, 3975204611, 3975204600, 3975204596], "tags": {"cycleway:left": "no", "highway": "primary", "maxspeed": "50", "name": "Hoskins Street", "network": "AU:NSW", "oneway": "yes", "ref": "B85", "surface": "paved"}}, {"type": "way", "id": 173004276, "nodes": [3729976518, 3729976753, 1838361243], "tags": {"cycleway:left": "no", "highway": "primary", "lanes": "1", "maxspeed": "50", "name": "Victoria Street", "network": "AU:NSW", "oneway": "yes", "ref": "B94", "source:name": "LPI NSW Base Map", "surface": "asphalt"}}, {"type": "way", "id": 173004277, "nodes": [1838361250, 1468890316], "tags": {"cycleway:both": "no", "highway": "primary", "lanes": "2", "name": "Victoria Street", "network": "AU:NSW", "ref": "B94", "source:name": "LPI NSW Base Map", "surface": "asphalt", "surface:grade": "3"}}, {"type": "way", "id": 173004278, "nodes": [322754300, 3729976735, 3729976518], "tags": {"cycleway:left": "no", "highway": "primary", "lanes": "1", "maxspeed": "50", "name": "Victoria Street", "network": "AU:NSW", "oneway": "yes", "ref": "B94", "source:name": "LPI NSW Base Map", "surface": "asphalt"}}, {"type": "way", "id": 173004280, "nodes": [322754308, 1838361248, 1838361250], "tags": {"cycleway:left": "no", "highway": "primary", "lanes": "1", "maxspeed": "50", "name": "Victoria Street", "network": "AU:NSW", "oneway": "yes", "ref": "B94", "source:name": "LPI NSW Base Map", "surface": "asphalt"}}, {"type": "way", "id": 173004282, "nodes": [1838361250, 1838361245, 322754296], "tags": {"cycleway:left": "no", "highway": "primary", "lanes": "1", "maxspeed": "50", "name": "Victoria Street", "network": "AU:NSW", "oneway": "yes", "ref": "B94", "source:name": "LPI NSW Base Map", "surface": "asphalt"}}, {"type": "way", "id": 173004283, "nodes": [3975204607, 3729976512], "tags": {"cycleway:left": "no", "highway": "primary", "maxspeed": "50", "name": "Hoskins Street", "network": "AU:NSW", "oneway": "yes", "ref": "B85", "source:name": "NSW LPI Base Map", "source:name:date": "2016-02", "surface": "asphalt"}}, {"type": "way", "id": 173004292, "nodes": [322754308, 3729976771, 322754287, 3729976754, 322754296], "tags": {"cycleway:left": "no", "highway": "primary", "junction": "roundabout", "lanes": "1", "maxspeed": "50", "network": "AU:NSW", "ref": "B85", "surface": "asphalt"}}, {"type": "way", "id": 369186181, "nodes": [3729976774, 3729976494], "tags": {"cycleway:left": "no", "highway": "primary", "lanes": "1", "name": "Hoskins Street", "network": "AU:NSW", "oneway": "yes", "ref": "B85", "source:name": "NSW LPI Base Map", "source:name:date": "2016-02", "surface": "asphalt"}}, {"type": "way", "id": 369186185, "nodes": [3729976732, 3729976511], "tags": {"cycleway:left": "no", "highway": "primary", "lanes": "1", "name": "Hoskins Street", "network": "AU:NSW", "oneway": "yes", "ref": "B85", "source:name": "NSW LPI Base Map", "source:name:date": "2016-02", "surface": "asphalt"}}, {"type": "way", "id": 369186186, "nodes": [3729976511, 3729976737], "tags": {"cycleway:left": "no", "highway": "primary", "lanes": "1", "name": "Hoskins Street", "network": "AU:NSW", "oneway": "yes", "ref": "B85", "source:name": "NSW LPI Base Map", "source:name:date": "2016-02", "surface": "asphalt"}}, {"type": "way", "id": 369186187, "nodes": [3729976494, 3729976725], "tags": {"cycleway:left": "no", "highway": "primary", "lanes": "1", "name": "Hoskins Street", "network": "AU:NSW", "oneway": "yes", "ref": "B85", "source:name": "NSW LPI Base Map", "source:name:date": "2016-02", "surface": "asphalt"}}, {"type": "way", "id": 394521914, "nodes": [3975204596, 3975204621, 3975204616, 3975204602], "tags": {"cycleway:left": "no", "highway": "primary", "maxspeed": "50", "name": "Hoskins Street", "network": "AU:NSW", "oneway": "yes", "ref": "B85", "surface": "paved"}}, {"type": "way", "id": 394521915, "nodes": [3729976512, 4401964759, 4401964769, 10772403645], "tags": {"cycleway:both": "no", "highway": "primary", "maxspeed": "50", "name": "Hoskins Street", "network": "AU:NSW", "ref": "B85", "source:name": "NSW LPI Base Map", "source:name:date": "2016-02", "surface": "asphalt"}}, {"type": "way", "id": 394521917, "nodes": [3975204596, 160435878, 835053905, 7241564004, 1468890182], "tags": {"highway": "primary", "maxspeed": "50", "name": "Hoskins Street", "network": "AU:NSW", "ref": "B85", "surface": "asphalt"}}, {"type": "way", "id": 559086727, "nodes": [3729976512, 373570661], "tags": {"cycleway:left": "no", "highway": "primary", "maxspeed": "50", "name": "Hoskins Street", "network": "AU:NSW", "oneway": "yes", "ref": "B85", "source:name": "NSW LPI Base Map", "source:name:date": "2016-02", "surface": "asphalt"}}, {"type": "way", "id": 564843903, "nodes": [5547644601, 3729976818, 160235445, 3729976729, 249785352, 294027016, 300128708, 251268902, 500116907], "tags": {"highway": "primary", "lanes": "2", "name": "Victoria Street", "network": "AU:NSW", "ref": "B94", "source:name": "LPI NSW Base Map", "surface": "asphalt", "surface:grade": "3"}}, {"type": "way", "id": 579213923, "nodes": [1468890306, 5547644601], "tags": {"cycleway:both": "no", "highway": "primary", "lanes": "2", "name": "Victoria Street", "network": "AU:NSW", "ref": "B94", "source:name": "LPI NSW Base Map", "surface": "asphalt", "surface:grade": "3"}}, {"type": "way", "id": 726176872, "nodes": [1838361243, 322754302, 3729976732], "tags": {"cycleway:left": "no", "highway": "primary", "junction": "roundabout", "lanes": "1", "maxspeed": "50", "network": "AU:NSW;AU:NSW", "ref": "B94;B85", "surface": "asphalt"}}, {"type": "way", "id": 726176873, "nodes": [3729976732, 322754293, 3729976737], "tags": {"cycleway:left": "no", "highway": "primary", "junction": "roundabout", "lanes": "1", "maxspeed": "50", "network": "AU:NSW", "ref": "B94", "surface": "asphalt"}}, {"type": "way", "id": 726176874, "nodes": [322754300, 3729976524, 322754285, 1838361243], "tags": {"cycleway:left": "no", "highway": "primary", "junction": "roundabout", "lanes": "1", "maxspeed": "50", "network": "AU:NSW", "ref": "B85", "surface": "asphalt"}}, {"type": "way", "id": 726176875, "nodes": [3729976725, 322754300], "tags": {"cycleway:left": "no", "highway": "primary", "junction": "roundabout", "lanes": "1", "maxspeed": "50", "network": "AU:NSW;AU:NSW", "ref": "B94;B85", "surface": "asphalt"}}, {"type": "way", "id": 944246252, "nodes": [3729976737, 322754308], "tags": {"cycleway:left": "no", "highway": "primary", "junction": "roundabout", "lanes": "1", "maxspeed": "50", "network": "AU:NSW;AU:NSW", "ref": "B94;B85", "surface": "asphalt"}}, {"type": "way", "id": 944246253, "nodes": [3729976774, 322754291, 3729976725], "tags": {"cycleway:left": "no", "highway": "primary", "junction": "roundabout", "lanes": "1", "maxspeed": "50", "network": "AU:NSW", "ref": "B94", "surface": "asphalt"}}, {"type": "way", "id": 944246254, "nodes": [322754296, 3729976774], "tags": {"cycleway:left": "no", "highway": "primary", "junction": "roundabout", "lanes": "1", "maxspeed": "50", "network": "AU:NSW;AU:NSW", "ref": "B94;B85", "surface": "asphalt"}}, {"type": "way", "id": 1158339211, "nodes": [10772392701, 10772406607, 10772392700, 10772392698, 10772406609, 10772403645, 10772406608, 10772406605, 10772406610, 10772403641, 10772392703, 10772406611, 10772392699, 10772403643, 10772392704, 10772392697, 10772406606, 10772392702, 10772392701], "tags": {"highway": "primary", "junction": "roundabout", "maxspeed": "50", "surface": "asphalt"}}, {"type": "way", "id": 1158339212, "nodes": [10772403643, 10772403642, 3729976734, 3729976494], "tags": {"cycleway:both": "no", "highway": "primary", "maxspeed": "50", "name": "Hoskins Street", "network": "AU:NSW", "ref": "B85", "source:name": "NSW LPI Base Map", "source:name:date": "2016-02", "surface": "asphalt"}}]}