{"version": 0.6, "generator": "Overpass API 0.7.61.5 4133829e", "osm3s": {"timestamp_osm_base": "2023-12-06T13:52:30Z", "copyright": "The data included in this document is from www.openstreetmap.org. The data is made available under ODbL."}, "elements": [{"type": "node", "id": 124748397, "lat": -27.0818314, "lon": 152.9523472}, {"type": "node", "id": 124751360, "lat": -27.0819731, "lon": 152.9523202, "tags": {"highway": "traffic_signals", "traffic_signals:direction": "backward"}}, {"type": "node", "id": 124780709, "lat": -27.0816314, "lon": 152.952329}, {"type": "node", "id": 124780710, "lat": -27.081249, "lon": 152.9523221}, {"type": "node", "id": 124780712, "lat": -27.0810482, "lon": 152.9522705}, {"type": "node", "id": 124780713, "lat": -27.0807869, "lon": 152.9521583}, {"type": "node", "id": 124782976, "lat": -27.079055, "lon": 152.9512598}, {"type": "node", "id": 124782982, "lat": -27.0772626, "lon": 152.9503871}, {"type": "node", "id": 124783909, "lat": -27.0772306, "lon": 152.9505046}, {"type": "node", "id": 124783911, "lat": -27.0776878, "lon": 152.9506948}, {"type": "node", "id": 124783915, "lat": -27.0790444, "lon": 152.9513801}, {"type": "node", "id": 222459375, "lat": -27.0730732, "lon": 152.9490977}, {"type": "node", "id": 222460615, "lat": -27.0748012, "lon": 152.9495019}, {"type": "node", "id": 274260276, "lat": -27.0782463, "lon": 152.950843}, {"type": "node", "id": 358003666, "lat": -27.0762931, "lon": 152.9500537}, {"type": "node", "id": 358003672, "lat": -27.0762667, "lon": 152.9501763}, {"type": "node", "id": 587315863, "lat": -27.0795199, "lon": 152.9514973}, {"type": "node", "id": 587315866, "lat": -27.0794011, "lon": 152.9515685}, {"type": "node", "id": 587315868, "lat": -27.0792569, "lon": 152.9513556}, {"type": "node", "id": 587315876, "lat": -27.0792116, "lon": 152.9514705}, {"type": "node", "id": 587316114, "lat": -27.0815018, "lon": 152.9523378}, {"type": "node", "id": 587316120, "lat": -27.0816163, "lon": 152.9524466, "tags": {"highway": "traffic_signals", "traffic_signals:direction": "forward"}}, {"type": "node", "id": 587316132, "lat": -27.0814414, "lon": 152.9524642}, {"type": "node", "id": 587316135, "lat": -27.0808382, "lon": 152.9523089}, {"type": "node", "id": 587316137, "lat": -27.0807316, "lon": 152.9522453}, {"type": "node", "id": 587316139, "lat": -27.080923, "lon": 152.9522252}, {"type": "node", "id": 587316147, "lat": -27.0803214, "lon": 152.9519161, "tags": {"crossing": "traffic_signals", "highway": "crossing"}}, {"type": "node", "id": 587316149, "lat": -27.0802856, "lon": 152.9520075, "tags": {"crossing": "traffic_signals", "highway": "crossing"}}, {"type": "node", "id": 1843349153, "lat": -27.0721441, "lon": 152.9488189}, {"type": "node", "id": 1843349162, "lat": -27.0735261, "lon": 152.9492414}, {"type": "node", "id": 1843349165, "lat": -27.0740081, "lon": 152.9492497}, {"type": "node", "id": 1843349169, "lat": -27.0742485, "lon": 152.9494523}, {"type": "node", "id": 1843349170, "lat": -27.0743845, "lon": 152.9493661}, {"type": "node", "id": 1843349185, "lat": -27.0759251, "lon": 152.9500273}, {"type": "node", "id": 1843349197, "lat": -27.0810542, "lon": 152.9524056}, {"type": "node", "id": 1843349198, "lat": -27.0811405, "lon": 152.9524291}, {"type": "node", "id": 2029436188, "lat": -27.0813874, "lon": 152.9524643}, {"type": "node", "id": 3313353267, "lat": -27.0795867, "lon": 152.9515343}, {"type": "node", "id": 3374259206, "lat": -27.0751964, "lon": 152.9497643}, {"type": "node", "id": 3374259208, "lat": -27.075206, "lon": 152.949635}, {"type": "node", "id": 3374259210, "lat": -27.0754642, "lon": 152.9498519}, {"type": "node", "id": 3374259211, "lat": -27.0755109, "lon": 152.9497375}, {"type": "node", "id": 3374259214, "lat": -27.0757871, "lon": 152.9498396}, {"type": "node", "id": 3963401530, "lat": -27.0782352, "lon": 152.9509681}, {"type": "node", "id": 3963434015, "lat": -27.0779416, "lon": 152.9508141}, {"type": "node", "id": 4923254732, "lat": -27.0824832, "lon": 152.9522176}, {"type": "node", "id": 6139930196, "lat": -27.0817083, "lon": 152.9523214, "tags": {"crossing": "traffic_signals", "highway": "crossing"}}, {"type": "node", "id": 7732578975, "lat": -27.0783572, "lon": 152.9510267, "tags": {"crossing": "traffic_signals", "highway": "crossing"}}, {"type": "node", "id": 7732578976, "lat": -27.0784, "lon": 152.9509168, "tags": {"crossing": "traffic_signals", "highway": "crossing"}}, {"type": "node", "id": 8058524072, "lat": -27.0811263, "lon": 152.9522971}, {"type": "node", "id": 8058524087, "lat": -27.0799119, "lon": 152.9516964}, {"type": "node", "id": 8789238423, "lat": -27.0784748, "lon": 152.9509539, "tags": {"highway": "traffic_signals", "traffic_signals:direction": "forward"}}, {"type": "node", "id": 8789238425, "lat": -27.0780592, "lon": 152.9508736, "tags": {"highway": "traffic_signals", "traffic_signals:direction": "forward"}}, {"type": "node", "id": 8906235351, "lat": -27.0813816, "lon": 152.952336}, {"type": "node", "id": 8906235352, "lat": -27.0795917, "lon": 152.9516738}, {"type": "node", "id": 9444436760, "lat": -27.0732535, "lon": 152.9489895}, {"type": "node", "id": 9444436761, "lat": -27.0736319, "lon": 152.9491393}, {"type": "node", "id": 9444436771, "lat": -27.0760877, "lon": 152.9499692}, {"type": "node", "id": 9444436772, "lat": -27.0764288, "lon": 152.9501028, "tags": {"highway": "traffic_signals", "traffic_signals:direction": "forward"}}, {"type": "node", "id": 9444436774, "lat": -27.0761026, "lon": 152.9501105, "tags": {"highway": "traffic_signals", "traffic_signals:direction": "forward"}}, {"type": "node", "id": 9444436776, "lat": -27.0767119, "lon": 152.9501953}, {"type": "node", "id": 9444436777, "lat": -27.0768907, "lon": 152.9503836}, {"type": "node", "id": 9444436780, "lat": -27.077959, "lon": 152.9506872}, {"type": "node", "id": 9444436781, "lat": -27.0776844, "lon": 152.9505586}, {"type": "node", "id": 9444436782, "lat": -27.0769253, "lon": 152.9502661}, {"type": "node", "id": 9444436783, "lat": -27.0774349, "lon": 152.9505859}, {"type": "node", "id": 9444436785, "lat": -27.0781251, "lon": 152.9507773}, {"type": "node", "id": 9444436786, "lat": -27.0725161, "lon": 152.9489179}, {"type": "node", "id": 9444436787, "lat": -27.0738805, "lon": 152.9493388}, {"type": "node", "id": 9550876872, "lat": -27.0778534, "lon": 152.9507709}, {"type": "node", "id": 9550887787, "lat": -27.0775965, "lon": 152.9505228}, {"type": "node", "id": 9576704310, "lat": -27.081714, "lon": 152.9524203, "tags": {"crossing": "traffic_signals", "highway": "crossing"}}, {"type": "node", "id": 9576704311, "lat": -27.0815142, "lon": 152.9524596}, {"type": "node", "id": 9576704313, "lat": -27.0812629, "lon": 152.95245}, {"type": "node", "id": 9576709527, "lat": -27.0803886, "lon": 152.9519526, "tags": {"highway": "traffic_signals", "traffic_signals": "pedestrian_crossing", "traffic_signals:direction": "forward"}}, {"type": "node", "id": 9576709528, "lat": -27.0802184, "lon": 152.9519754, "tags": {"highway": "traffic_signals", "traffic_signals": "pedestrian_crossing", "traffic_signals:direction": "forward"}}, {"type": "node", "id": 9702836842, "lat": -27.0739242, "lon": 152.9492261}, {"type": "node", "id": 9702836843, "lat": -27.0745773, "lon": 152.9494264}, {"type": "node", "id": 9702840975, "lat": -27.074486, "lon": 152.9493974}, {"type": "node", "id": 9731700079, "lat": -27.0809705, "lon": 152.9523743}, {"type": "node", "id": 9731700081, "lat": -27.0822695, "lon": 152.9522606}, {"type": "node", "id": 9731700083, "lat": -27.0816658, "lon": 152.9524359}, {"type": "node", "id": 9731700084, "lat": -27.08167, "lon": 152.9523243}, {"type": "node", "id": 9731700096, "lat": -27.0817341, "lon": 152.9523236}, {"type": "node", "id": 9731700097, "lat": -27.081735, "lon": 152.9524093}, {"type": "node", "id": 9731707967, "lat": -27.0802306, "lon": 152.9519812}, {"type": "node", "id": 9732469864, "lat": -27.081646, "lon": 152.9524402}, {"type": "way", "id": 31559831, "nodes": [587315868, 124782976, 8789238423, 7732578976, 274260276], "tags": {"highway": "primary", "lanes": "2", "maxspeed": "60", "name": "Beerburrum Road", "network": "AU:QLD:S", "oneway": "yes", "ref": "60", "surface": "asphalt"}}, {"type": "way", "id": 193628060, "nodes": [124748397, 124751360, 9731700081], "tags": {"highway": "primary", "lanes": "4", "lanes:backward": "2", "lanes:forward": "2", "maxspeed": "60", "name": "Beerburrum Road", "network": "AU:QLD:S", "ref": "60", "sidewalk": "both", "surface": "asphalt"}}, {"type": "way", "id": 330456554, "nodes": [3374259208, 222460615, 9702836843], "tags": {"highway": "primary", "lanes": "2", "maxspeed": "60", "name": "Beerburrum Road", "network": "AU:QLD:S", "oneway": "yes", "placement": "right_of:1", "ref": "60", "surface": "asphalt"}}, {"type": "way", "id": 330456559, "nodes": [8906235352, 9576709528, 9731707967, 587316149, 587316137, 587316135, 9731700079], "tags": {"highway": "primary", "lanes": "2", "maxspeed": "60", "maxspeed:conditional": "40 @ (Mo-Fr 07:00-09:00,14:00-16:00; PH off; SH off)", "name": "Beerburrum Road", "network": "AU:QLD:S", "oneway": "yes", "ref": "60", "surface": "asphalt"}}, {"type": "way", "id": 330456563, "nodes": [3374259206, 3374259210], "tags": {"bridge": "yes", "highway": "primary", "layer": "1", "maxspeed": "60", "name": "Beerburrum Road", "network": "AU:QLD:S", "oneway": "yes", "ref": "60", "surface": "asphalt"}}, {"type": "way", "id": 330456566, "nodes": [3374259211, 3374259208], "tags": {"bridge": "yes", "highway": "primary", "layer": "1", "maxspeed": "60", "name": "Beerburrum Road", "network": "AU:QLD:S", "oneway": "yes", "ref": "60", "surface": "asphalt"}}, {"type": "way", "id": 815588260, "nodes": [2029436188, 587316132, 9576704311, 587316120, 9732469864, 9731700083, 9576704310, 9731700097, 124748397], "tags": {"highway": "primary", "lanes": "3", "maxspeed": "60", "name": "Beerburrum Road", "network": "AU:QLD:S", "oneway": "yes", "ref": "60", "surface": "asphalt", "turn:lanes": "||right"}}, {"type": "way", "id": 815588261, "nodes": [3374259210, 1843349185, 9444436774, 358003672], "tags": {"highway": "primary", "maxspeed": "60", "name": "Beerburrum Road", "network": "AU:QLD:S", "oneway": "yes", "ref": "60", "surface": "asphalt"}}, {"type": "way", "id": 864572656, "nodes": [3313353267, 587315863, 587315868], "tags": {"highway": "primary", "lanes": "3", "maxspeed": "60", "name": "Beerburrum Road", "network": "AU:QLD:S", "oneway": "yes", "ref": "60", "surface": "asphalt", "turn:lanes": "through|through|reverse"}}, {"type": "way", "id": 864572657, "nodes": [8906235351, 124780710, 8058524072, 124780712, 587316139, 124780713, 9576709527, 587316147, 8058524087], "tags": {"highway": "primary", "lanes": "2", "maxspeed": "60", "maxspeed:conditional": "40 @ (Mo-Fr 07:00-09:00,14:00-16:00; PH off; SH off)", "name": "Beerburrum Road", "network": "AU:QLD:S", "oneway": "yes", "ref": "60", "surface": "asphalt"}}, {"type": "way", "id": 919673173, "nodes": [1843349153, 9444436786, 222459375, 1843349162, 9444436787, 1843349169, 3374259206], "tags": {"highway": "primary", "lanes": "2", "maxspeed": "60", "name": "Beerburrum Road", "network": "AU:QLD:S", "oneway": "yes", "placement": "right_of:1", "ref": "60", "surface": "asphalt"}}, {"type": "way", "id": 919688129, "nodes": [274260276, 9444436785, 9444436780, 9444436781, 9550887787, 124782982, 9444436782, 9444436776, 9444436772, 358003666], "tags": {"highway": "primary", "lanes": "2", "maxspeed": "60", "name": "Beerburrum Road", "network": "AU:QLD:S", "oneway": "yes", "ref": "60", "surface": "asphalt"}}, {"type": "way", "id": 919688131, "nodes": [3963434015, 8789238425, 3963401530], "tags": {"highway": "primary", "maxspeed": "60", "name": "Beerburrum Road", "network": "AU:QLD:S", "oneway": "yes", "ref": "60", "surface": "asphalt"}}, {"type": "way", "id": 962811267, "nodes": [124748397, 9731700096, 6139930196, 9731700084, 124780709, 587316114, 8906235351], "tags": {"highway": "primary", "lanes": "2", "maxspeed": "60", "name": "Beerburrum Road", "network": "AU:QLD:S", "oneway": "yes", "ref": "60", "surface": "asphalt"}}, {"type": "way", "id": 962811268, "nodes": [3963401530, 7732578975, 124783915, 587315876, 587315866, 8906235352], "tags": {"highway": "primary", "maxspeed": "60", "name": "Beerburrum Road", "network": "AU:QLD:S", "oneway": "yes", "ref": "60", "surface": "asphalt"}}, {"type": "way", "id": 962811269, "nodes": [8058524087, 3313353267], "tags": {"highway": "primary", "lanes": "3", "maxspeed": "60", "maxspeed:conditional": "40 @ (Mo-Fr 07:00-09:00,14:00-16:00; PH off; SH off)", "name": "Beerburrum Road", "network": "AU:QLD:S", "oneway": "yes", "ref": "60", "surface": "asphalt", "turn:lanes": "through|through|reverse"}}, {"type": "way", "id": 1055960866, "nodes": [9702836842, 9444436761, 9444436760], "tags": {"highway": "primary", "lanes": "3", "maxspeed": "60", "name": "Beerburrum Road", "network": "AU:QLD:S", "oneway": "yes", "placement": "right_of:1", "ref": "60", "surface": "asphalt", "turn:lanes": "||right"}}, {"type": "way", "id": 1055960867, "nodes": [1843349170, 1843349165, 9702836842], "tags": {"highway": "primary", "lanes": "2", "maxspeed": "60", "name": "Beerburrum Road", "network": "AU:QLD:S", "oneway": "yes", "placement": "right_of:1", "ref": "60", "surface": "asphalt"}}, {"type": "way", "id": 1055960868, "nodes": [9702840975, 1843349170], "tags": {"change:lanes": "no|not_left|yes", "highway": "primary", "lanes": "3", "maxspeed": "60", "name": "Beerburrum Road", "network": "AU:QLD:S", "oneway": "yes", "placement": "right_of:2", "ref": "60", "surface": "asphalt", "turn:lanes": "left||"}}, {"type": "way", "id": 1055960935, "nodes": [9702836843, 9702840975], "tags": {"highway": "primary", "lanes": "3", "maxspeed": "60", "name": "Beerburrum Road", "network": "AU:QLD:S", "oneway": "yes", "placement": "right_of:2", "ref": "60", "surface": "asphalt", "turn:lanes": "left||"}}, {"type": "way", "id": 1059157619, "nodes": [9731700079, 1843349197, 1843349198, 9576704313, 2029436188], "tags": {"highway": "primary", "lanes": "3", "maxspeed": "60", "maxspeed:conditional": "40 @ (Mo-Fr 07:00-09:00,14:00-16:00; PH off; SH off)", "name": "Beerburrum Road", "network": "AU:QLD:S", "oneway": "yes", "ref": "60", "surface": "asphalt"}}, {"type": "way", "id": 1059157621, "nodes": [9731700081, 4923254732], "tags": {"highway": "primary", "lanes": "4", "lanes:backward": "2", "lanes:forward": "2", "maxspeed": "50", "name": "Beerburrum Road", "network": "AU:QLD:S", "ref": "60", "sidewalk": "both", "surface": "asphalt"}}, {"type": "way", "id": 1069442158, "nodes": [358003672, 9444436777, 124783909, 9444436783, 124783911, 9550876872, 3963434015], "tags": {"highway": "primary", "maxspeed": "60", "name": "Beerburrum Road", "network": "AU:QLD:S", "oneway": "yes", "ref": "60", "surface": "asphalt"}}, {"type": "way", "id": 1069442160, "nodes": [358003666, 9444436771, 3374259214, 3374259211], "tags": {"highway": "primary", "lanes": "2", "maxspeed": "60", "name": "Beerburrum Road", "network": "AU:QLD:S", "oneway": "yes", "ref": "60", "surface": "asphalt"}}]}