{"version": 0.6, "generator": "Overpass API 0.7.61.5 4133829e", "osm3s": {"timestamp_osm_base": "2023-12-06T09:33:45Z", "copyright": "The data included in this document is from www.openstreetmap.org. The data is made available under ODbL."}, "elements": [{"type": "node", "id": 35122315, "lat": -33.4160677, "lon": 149.5834535}, {"type": "node", "id": 35122407, "lat": -33.4180666, "lon": 149.5858068}, {"type": "node", "id": 65155035, "lat": -33.4128666, "lon": 149.5803052}, {"type": "node", "id": 81250858, "lat": -33.4144594, "lon": 149.5818697, "tags": {"highway": "traffic_signals"}}, {"type": "node", "id": 81251163, "lat": -33.4189377, "lon": 149.5831674}, {"type": "node", "id": 81251440, "lat": -33.4176313, "lon": 149.58501}, {"type": "node", "id": 172987047, "lat": -33.4124885, "lon": 149.5767919}, {"type": "node", "id": 172987066, "lat": -33.4111717, "lon": 149.5787083, "tags": {"highway": "traffic_signals"}}, {"type": "node", "id": 181298868, "lat": -33.4168799, "lon": 149.5842717}, {"type": "node", "id": 331159260, "lat": -33.415444, "lon": 149.5828392}, {"type": "node", "id": 331159482, "lat": -33.4150361, "lon": 149.582434}, {"type": "node", "id": 337456538, "lat": -33.4202848, "lon": 149.5811584}, {"type": "node", "id": 337456578, "lat": -33.4202654, "lon": 149.5812943}, {"type": "node", "id": 337456873, "lat": -33.420443, "lon": 149.5813311}, {"type": "node", "id": 337456874, "lat": -33.4204375, "lon": 149.5811505}, {"type": "node", "id": 337459560, "lat": -33.4216681, "lon": 149.5794518}, {"type": "node", "id": 338603270, "lat": -33.4112348, "lon": 149.5788618}, {"type": "node", "id": 338603272, "lat": -33.4127595, "lon": 149.5803458}, {"type": "node", "id": 338603273, "lat": -33.4143996, "lon": 149.5819551, "tags": {"highway": "traffic_signals"}}, {"type": "node", "id": 338603275, "lat": -33.4160034, "lon": 149.5835392}, {"type": "node", "id": 338603277, "lat": -33.4168177, "lon": 149.5843584}, {"type": "node", "id": 338603938, "lat": -33.4179861, "lon": 149.5855712}, {"type": "node", "id": 338604003, "lat": -33.4179843, "lon": 149.585832}, {"type": "node", "id": 338604132, "lat": -33.4175641, "lon": 149.5851048}, {"type": "node", "id": 338605140, "lat": -33.4178846, "lon": 149.5855757}, {"type": "node", "id": 338606566, "lat": -33.4182233, "lon": 149.5880563}, {"type": "node", "id": 338606568, "lat": -33.4181616, "lon": 149.5864521}, {"type": "node", "id": 338606779, "lat": -33.4180843, "lon": 149.5864548}, {"type": "node", "id": 338606780, "lat": -33.4180997, "lon": 149.5868366}, {"type": "node", "id": 338606797, "lat": -33.4181345, "lon": 149.58806}, {"type": "node", "id": 338607139, "lat": -33.4153902, "lon": 149.582932}, {"type": "node", "id": 340200080, "lat": -33.4183146, "lon": 149.5840462}, {"type": "node", "id": 340206744, "lat": -33.415044, "lon": 149.5825885}, {"type": "node", "id": 340208956, "lat": -33.415619, "lon": 149.5830159}, {"type": "node", "id": 344115990, "lat": -33.4194873, "lon": 149.582576}, {"type": "node", "id": 347517602, "lat": -33.412566, "lon": 149.5768667}, {"type": "node", "id": 364049069, "lat": -33.4200075, "lon": 149.5816582}, {"type": "node", "id": 364049098, "lat": -33.4193147, "lon": 149.5826353}, {"type": "node", "id": 364049137, "lat": -33.4195535, "lon": 149.5822986}, {"type": "node", "id": 364049205, "lat": -33.4197622, "lon": 149.5820042, "tags": {"highway": "traffic_signals", "ref": "4296", "start_date": "2009-03-18"}}, {"type": "node", "id": 449734890, "lat": -33.4213171, "lon": 149.5799228}, {"type": "node", "id": 449734894, "lat": -33.4214312, "lon": 149.5797576}, {"type": "node", "id": 537661265, "lat": -33.4176334, "lon": 149.5851817}, {"type": "node", "id": 537661266, "lat": -33.4177042, "lon": 149.5850822}, {"type": "node", "id": 537661267, "lat": -33.4183904, "lon": 149.5841177}, {"type": "node", "id": 537661268, "lat": -33.4190131, "lon": 149.5832429}, {"type": "node", "id": 537661269, "lat": -33.4198384, "lon": 149.5820825, "tags": {"highway": "traffic_signals", "ref": "4296", "start_date": "2009-03-18"}}, {"type": "node", "id": 537661270, "lat": -33.4200184, "lon": 149.5818296}, {"type": "node", "id": 537661272, "lat": -33.4202499, "lon": 149.5815042}, {"type": "node", "id": 537661273, "lat": -33.4203449, "lon": 149.5813707}, {"type": "node", "id": 541345142, "lat": -33.4180352, "lon": 149.5844402}, {"type": "node", "id": 907769719, "lat": -33.4202678, "lon": 149.5811885}, {"type": "node", "id": 907769722, "lat": -33.4203117, "lon": 149.5813564}, {"type": "node", "id": 907769729, "lat": -33.4204147, "lon": 149.5813575}, {"type": "node", "id": 907769732, "lat": -33.4204609, "lon": 149.5812989}, {"type": "node", "id": 907769735, "lat": -33.42047, "lon": 149.5812619}, {"type": "node", "id": 907769739, "lat": -33.4203795, "lon": 149.5811177}, {"type": "node", "id": 907769745, "lat": -33.420312, "lon": 149.5811325}, {"type": "node", "id": 1192519818, "lat": -33.4181447, "lon": 149.5862038}, {"type": "node", "id": 1192519834, "lat": -33.4177478, "lon": 149.5853398}, {"type": "node", "id": 1192519837, "lat": -33.4178982, "lon": 149.5853856}, {"type": "node", "id": 1192519849, "lat": -33.4180283, "lon": 149.5859857}, {"type": "node", "id": 1201267158, "lat": -33.4112569, "lon": 149.5787516, "tags": {"highway": "traffic_signals"}}, {"type": "node", "id": 1270070182, "lat": -33.4141549, "lon": 149.5817089}, {"type": "node", "id": 1270080546, "lat": -33.4141464, "lon": 149.5815562}, {"type": "node", "id": 1377602720, "lat": -33.4181718, "lon": 149.5893828}, {"type": "node", "id": 1377602729, "lat": -33.4182731, "lon": 149.589379}, {"type": "node", "id": 1662611685, "lat": -33.4172244, "lon": 149.5847654}, {"type": "node", "id": 2300169997, "lat": -33.4149924, "lon": 149.5825357}, {"type": "node", "id": 2323636073, "lat": -33.4157416, "lon": 149.5831336}, {"type": "node", "id": 2323636086, "lat": -33.4158841, "lon": 149.583275}, {"type": "node", "id": 2324424979, "lat": -33.4200746, "lon": 149.5817506}, {"type": "node", "id": 2324439328, "lat": -33.4197793, "lon": 149.5821657}, {"type": "node", "id": 2324439329, "lat": -33.4198402, "lon": 149.5818941, "tags": {"crossing": "traffic_signals", "highway": "crossing"}}, {"type": "node", "id": 2324439333, "lat": -33.4199168, "lon": 149.5819723, "tags": {"crossing": "traffic_signals", "highway": "crossing"}}, {"type": "node", "id": 2364361245, "lat": -33.4174322, "lon": 149.5849645}, {"type": "node", "id": 2365669162, "lat": -33.418067, "lon": 149.5843954}, {"type": "node", "id": 2365928853, "lat": -33.4214745, "lon": 149.5796962, "tags": {"crossing": "uncontrolled", "highway": "crossing"}}, {"type": "node", "id": 2365962147, "lat": -33.420728, "lon": 149.5807421}, {"type": "node", "id": 2365962161, "lat": -33.4209308, "lon": 149.5804558}, {"type": "node", "id": 2365962169, "lat": -33.4211533, "lon": 149.5801487}, {"type": "node", "id": 2365962170, "lat": -33.4212609, "lon": 149.5800008}, {"type": "node", "id": 2391677496, "lat": -33.4181407, "lon": 149.5844687}, {"type": "node", "id": 2810288305, "lat": -33.4204695, "lon": 149.5812232}, {"type": "node", "id": 2810288306, "lat": -33.4202585, "lon": 149.581223}, {"type": "node", "id": 2810288307, "lat": -33.4203447, "lon": 149.5811185}, {"type": "node", "id": 2810288308, "lat": -33.4204126, "lon": 149.5811304}, {"type": "node", "id": 2810288309, "lat": -33.4202842, "lon": 149.58133}, {"type": "node", "id": 2810288310, "lat": -33.4203808, "lon": 149.5813712}, {"type": "node", "id": 4056417890, "lat": -33.4164574, "lon": 149.5839978}, {"type": "node", "id": 4056417896, "lat": -33.4177734, "lon": 149.5851704, "tags": {"highway": "traffic_signals", "traffic_signals:direction": "forward"}}, {"type": "node", "id": 4056417897, "lat": -33.4175064, "lon": 149.5850385, "tags": {"crossing": "traffic_signals", "highway": "traffic_signals", "traffic_signals:direction": "forward"}}, {"type": "node", "id": 4056417904, "lat": -33.4176897, "lon": 149.5849276, "tags": {"crossing": "traffic_signals", "highway": "traffic_signals", "traffic_signals:direction": "forward"}}, {"type": "node", "id": 6489744899, "lat": -33.4181748, "lon": 149.5867025}, {"type": "node", "id": 6489744922, "lat": -33.4181823, "lon": 149.587038}, {"type": "node", "id": 6759498558, "lat": -33.4124607, "lon": 149.5770112}, {"type": "node", "id": 7090564529, "lat": -33.4175657, "lon": 149.5849543, "tags": {"crossing": "traffic_signals", "highway": "crossing"}}, {"type": "node", "id": 7090564530, "lat": -33.417963, "lon": 149.5857723}, {"type": "node", "id": 7604351779, "lat": -33.4181099, "lon": 149.5859982}, {"type": "node", "id": 7604351780, "lat": -33.4180669, "lon": 149.5862101}, {"type": "node", "id": 7807339869, "lat": -33.4177618, "lon": 149.5850012, "tags": {"crossing": "traffic_signals", "highway": "crossing"}}, {"type": "node", "id": 7807369883, "lat": -33.4190486, "lon": 149.5830108, "tags": {"crossing": "traffic_signals", "highway": "traffic_signals", "traffic_signals:direction": "forward"}}, {"type": "node", "id": 7807369884, "lat": -33.4191086, "lon": 149.5831083, "tags": {"crossing": "traffic_signals", "highway": "crossing"}}, {"type": "node", "id": 7807400733, "lat": -33.4159645, "lon": 149.5833506, "tags": {"crossing": "traffic_signals", "highway": "crossing"}}, {"type": "node", "id": 7807400734, "lat": -33.4159034, "lon": 149.5834407, "tags": {"crossing": "traffic_signals", "highway": "traffic_signals", "traffic_signals:direction": "forward"}}, {"type": "node", "id": 7807402702, "lat": -33.4188686, "lon": 149.5832647, "tags": {"crossing": "traffic_signals", "highway": "crossing"}}, {"type": "node", "id": 7807402703, "lat": -33.4189437, "lon": 149.5833401, "tags": {"crossing": "traffic_signals", "highway": "traffic_signals", "traffic_signals:direction": "forward"}}, {"type": "node", "id": 7807406819, "lat": -33.4161666, "lon": 149.5835519, "tags": {"crossing": "traffic_signals", "highway": "traffic_signals", "traffic_signals:direction": "forward"}}, {"type": "node", "id": 7807406820, "lat": -33.4161024, "lon": 149.5836393, "tags": {"crossing": "traffic_signals", "highway": "crossing"}}, {"type": "node", "id": 9006266361, "lat": -33.4128709, "lon": 149.5804544}, {"type": "node", "id": 9006266362, "lat": -33.4127659, "lon": 149.580204}, {"type": "node", "id": 10243641386, "lat": -33.4204594, "lon": 149.5811865}, {"type": "node", "id": 10243641387, "lat": -33.4202577, "lon": 149.5812592}, {"type": "node", "id": 11228622816, "lat": -33.4140045, "lon": 149.581562}, {"type": "node", "id": 11266467157, "lat": -33.4190318, "lon": 149.5830345, "tags": {"crossing": "traffic_signals", "highway": "crossing"}}, {"type": "node", "id": 11266467164, "lat": -33.4198623, "lon": 149.5818629, "tags": {"highway": "traffic_signals", "traffic_signals": "signal", "traffic_signals:direction": "forward"}}, {"type": "node", "id": 11266467166, "lat": -33.4202207, "lon": 149.5813573, "tags": {"crossing": "unmarked", "crossing:markings": "no", "highway": "crossing"}}, {"type": "node", "id": 11266467167, "lat": -33.4203013, "lon": 149.581432, "tags": {"crossing": "unmarked", "crossing:markings": "no", "highway": "crossing"}}, {"type": "node", "id": 11266473571, "lat": -33.4204787, "lon": 149.5810926, "tags": {"crossing": "unmarked", "crossing:markings": "no", "highway": "crossing"}}, {"type": "way", "id": 9928746, "nodes": [337456578, 11266467166, 364049069], "tags": {"highway": "primary", "lanes": "2", "maxspeed": "50", "name": "Bentinck Street", "oneway": "yes", "source": "survey", "surface": "asphalt"}}, {"type": "way", "id": 16731077, "nodes": [35122407, 338603938, 1192519837, 4056417896, 537661266], "tags": {"alt_name": "Great Western Highway", "highway": "trunk", "lanes": "2", "maxspeed": "60", "name": "Durham Street", "network": "AU:NSW", "old_ref": "NR32", "oneway": "yes", "ref": "A32", "source": "survey", "surface": "asphalt"}}, {"type": "way", "id": 30542603, "nodes": [337456874, 11266473571, 2365962147, 2365962161, 2365962169, 2365962170, 449734890, 449734894, 2365928853, 337459560], "tags": {"highway": "primary", "lanes": "2", "maxspeed": "50", "name": "Bentinck Street", "source": "GPS", "surface": "asphalt"}}, {"type": "way", "id": 30542725, "nodes": [907769719, 2810288306, 10243641387, 337456578, 2810288309, 907769722, 537661273, 2810288310, 907769729, 337456873, 907769732, 907769735, 2810288305, 10243641386, 337456874, 2810288308, 907769739, 2810288307, 907769745, 337456538, 907769719], "tags": {"highway": "primary", "junction": "roundabout", "lanes": "1", "maxspeed": "50", "source": "survey", "surface": "asphalt"}}, {"type": "way", "id": 30618562, "nodes": [172987066, 338603270, 338603272], "tags": {"alt_name": "Great Western Highway", "highway": "trunk", "lanes": "2", "maxspeed": "60", "name": "Durham Street", "network": "AU:NSW", "old_ref": "NR32", "oneway": "yes", "ref": "A32", "source": "GPS", "surface": "asphalt"}}, {"type": "way", "id": 30618719, "nodes": [338606779, 338606780, 338606797, 1377602720], "tags": {"alt_name": "Great Western Highway", "cycleway:left": "shoulder", "highway": "trunk", "lanes": "2", "lit": "yes", "maxspeed": "70", "name": "Kendall Avenue", "network": "AU:NSW", "old_ref": "NR32", "oneway": "yes", "ref": "A32", "shoulder": "left", "sidewalk": "left", "source": "GPS", "surface": "asphalt", "width": "7", "width:shoulder": "2.7"}}, {"type": "way", "id": 42928377, "nodes": [537661265, 537661266], "tags": {"highway": "primary", "lanes": "1", "maxspeed": "50", "name": "Bentinck Street", "oneway": "yes", "source": "survey", "surface": "asphalt"}}, {"type": "way", "id": 70406550, "nodes": [338604003, 1192519849, 7604351780, 338606779], "tags": {"alt_name": "Great Western Highway", "highway": "trunk", "lanes": "2", "maxspeed": "60", "name": "Kendall Avenue", "network": "AU:NSW", "old_ref": "NR32", "oneway": "yes", "ref": "A32", "source": "survey", "surface": "asphalt"}}, {"type": "way", "id": 70406553, "nodes": [338606568, 1192519818, 7604351779, 35122407], "tags": {"alt_name": "Great Western Highway", "highway": "trunk", "lanes": "2", "maxspeed": "60", "name": "Kendall Avenue", "network": "AU:NSW", "old_ref": "NR32", "oneway": "yes", "ref": "A32", "source": "survey", "surface": "asphalt"}}, {"type": "way", "id": 160090419, "nodes": [1201267158, 6759498558, 347517602], "tags": {"alt_name": "Great Western Highway", "highway": "trunk", "lanes": "2", "maxspeed": "60", "name": "Stewart Street", "network": "AU:NSW", "old_ref": "NR32", "oneway": "yes", "ref": "A32", "source": "survey", "surface": "asphalt"}}, {"type": "way", "id": 228061588, "nodes": [81251440, 338604132], "tags": {"highway": "primary", "lanes": "2", "maxspeed": "50", "name": "Bentinck Street", "oneway": "yes", "source": "survey", "surface": "asphalt"}}, {"type": "way", "id": 228061589, "nodes": [81251163, 7807402702, 340200080], "tags": {"highway": "primary", "lanes": "3", "maxspeed": "50", "name": "Bentinck Street", "oneway": "yes", "source": "survey", "surface": "asphalt"}}, {"type": "way", "id": 228061590, "nodes": [537661266, 7807339869, 2391677496, 537661267], "tags": {"highway": "primary", "lanes": "1", "maxheight": "4", "maxspeed": "50", "name": "Bentinck Street", "note": "maxheight away from highway due to trees (no maxheight towards highway)", "oneway": "yes", "source": "survey", "surface": "asphalt"}}, {"type": "way", "id": 228061591, "nodes": [537661267, 7807402703, 537661268], "tags": {"highway": "primary", "lanes": "1", "maxheight": "4", "maxspeed": "50", "name": "Bentinck Street", "note": "maxheight away from highway due to trees (no maxheight towards highway)", "oneway": "yes", "source": "survey", "surface": "asphalt"}}, {"type": "way", "id": 228061592, "nodes": [340200080, 2365669162, 541345142, 4056417904, 81251440], "tags": {"highway": "primary", "lanes": "3", "maxspeed": "50", "name": "Bentinck Street", "oneway": "yes", "source": "survey", "surface": "asphalt"}}, {"type": "way", "id": 228061593, "nodes": [537661268, 7807369884, 344115990, 2324439328, 537661269, 2324439333, 537661270], "tags": {"highway": "primary", "lanes": "2", "maxspeed": "50", "name": "Bentinck Street", "oneway": "yes", "source": "survey", "surface": "asphalt"}}, {"type": "way", "id": 228061594, "nodes": [537661270, 2324424979, 537661272, 11266467167, 537661273], "tags": {"highway": "primary", "lanes": "2", "maxspeed": "50", "name": "Bentinck Street", "oneway": "yes", "source": "survey", "surface": "asphalt"}}, {"type": "way", "id": 228061595, "nodes": [364049069, 11266467164, 2324439329, 364049205, 364049137, 364049098, 7807369883, 11266467157, 81251163], "tags": {"highway": "primary", "lanes": "2", "maxspeed": "50", "name": "Bentinck Street", "oneway": "yes", "source": "survey", "surface": "asphalt"}}, {"type": "way", "id": 228061600, "nodes": [338603275, 7807406820, 4056417890, 338603277], "tags": {"alt_name": "Great Western Highway", "highway": "trunk", "lanes": "2", "maxspeed": "60", "name": "Durham Street", "network": "AU:NSW", "old_ref": "NR32", "oneway": "yes", "ref": "A32", "source": "GPS", "surface": "asphalt"}}, {"type": "way", "id": 228061601, "nodes": [338604132, 537661265], "tags": {"alt_name": "Great Western Highway", "highway": "trunk", "lanes": "2", "maxspeed": "60", "name": "Durham Street", "network": "AU:NSW", "old_ref": "NR32", "oneway": "yes", "ref": "A32", "source": "GPS", "surface": "asphalt"}}, {"type": "way", "id": 228061602, "nodes": [537661266, 81251440], "tags": {"alt_name": "Great Western Highway", "highway": "trunk", "lanes": "2", "maxspeed": "60", "name": "Durham Street", "network": "AU:NSW", "old_ref": "NR32", "oneway": "yes", "ref": "A32", "source": "survey", "surface": "asphalt"}}, {"type": "way", "id": 228061603, "nodes": [338607139, 7807400734, 338603275], "tags": {"alt_name": "Great Western Highway", "highway": "trunk", "lanes": "2", "maxspeed": "60", "name": "Durham Street", "network": "AU:NSW", "old_ref": "NR32", "oneway": "yes", "ref": "A32", "source": "GPS", "surface": "asphalt"}}, {"type": "way", "id": 228061604, "nodes": [65155035, 9006266362, 1201267158], "tags": {"alt_name": "Great Western Highway", "highway": "trunk", "lanes": "2", "maxspeed": "60", "name": "Durham Street", "network": "AU:NSW", "old_ref": "NR32", "oneway": "yes", "ref": "A32", "source": "survey", "surface": "asphalt"}}, {"type": "way", "id": 228061605, "nodes": [338603272, 9006266361, 11228622816, 1270070182, 338603273], "tags": {"alt_name": "Great Western Highway", "highway": "trunk", "lanes": "2", "maxspeed": "60", "name": "Durham Street", "network": "AU:NSW", "old_ref": "NR32", "oneway": "yes", "ref": "A32", "source": "GPS", "surface": "asphalt"}}, {"type": "way", "id": 228061606, "nodes": [81251440, 7090564529, 181298868], "tags": {"alt_name": "Great Western Highway", "highway": "trunk", "lanes": "2", "maxspeed": "60", "name": "Durham Street", "network": "AU:NSW", "old_ref": "NR32", "oneway": "yes", "ref": "A32", "source": "survey", "surface": "asphalt"}}, {"type": "way", "id": 228061607, "nodes": [81250858, 1270080546, 65155035], "tags": {"alt_name": "Great Western Highway", "highway": "trunk", "lanes": "2", "maxspeed": "60", "name": "Durham Street", "network": "AU:NSW", "old_ref": "NR32", "oneway": "yes", "ref": "A32", "source": "survey", "surface": "asphalt"}}, {"type": "way", "id": 228061608, "nodes": [181298868, 7807406819, 35122315], "tags": {"alt_name": "Great Western Highway", "highway": "trunk", "lanes": "2", "maxspeed": "60", "name": "Durham Street", "network": "AU:NSW", "old_ref": "NR32", "oneway": "yes", "ref": "A32", "source": "survey", "surface": "asphalt"}}, {"type": "way", "id": 228061609, "nodes": [331159260, 331159482, 81250858], "tags": {"alt_name": "Great Western Highway", "highway": "trunk", "lanes": "2", "maxspeed": "60", "name": "Durham Street", "network": "AU:NSW", "old_ref": "NR32", "oneway": "yes", "ref": "A32", "source": "survey", "surface": "asphalt"}}, {"type": "way", "id": 228061610, "nodes": [338603273, 2300169997, 340206744, 338607139], "tags": {"alt_name": "Great Western Highway", "highway": "trunk", "lanes": "2", "maxspeed": "60", "name": "Durham Street", "network": "AU:NSW", "old_ref": "NR32", "oneway": "yes", "ref": "A32", "source": "GPS", "surface": "asphalt"}}, {"type": "way", "id": 228061611, "nodes": [338603277, 1662611685, 2364361245, 4056417897, 338604132], "tags": {"alt_name": "Great Western Highway", "highway": "trunk", "lanes": "2", "maxspeed": "60", "name": "Durham Street", "network": "AU:NSW", "old_ref": "NR32", "oneway": "yes", "ref": "A32", "source": "GPS", "surface": "asphalt"}}, {"type": "way", "id": 228061612, "nodes": [537661265, 1192519834, 338605140, 7090564530, 338604003], "tags": {"alt_name": "Great Western Highway", "highway": "trunk", "lanes": "2", "maxspeed": "60", "name": "Durham Street", "network": "AU:NSW", "old_ref": "NR32", "oneway": "yes", "ref": "A32", "source": "GPS", "surface": "asphalt"}}, {"type": "way", "id": 228061613, "nodes": [35122315, 7807400733, 2323636086, 2323636073, 340208956, 331159260], "tags": {"alt_name": "Great Western Highway", "highway": "trunk", "lanes": "2", "maxspeed": "60", "name": "Durham Street", "network": "AU:NSW", "old_ref": "NR32", "oneway": "yes", "ref": "A32", "source": "survey", "surface": "asphalt"}}, {"type": "way", "id": 228061626, "nodes": [1377602729, 338606566, 6489744922, 6489744899, 338606568], "tags": {"alt_name": "Great Western Highway", "cycleway:left": "shoulder", "highway": "trunk", "lanes": "2", "lit": "yes", "maxspeed": "70", "name": "Kendall Avenue", "network": "AU:NSW", "old_ref": "NR32", "oneway": "yes", "ref": "A32", "shoulder": "left", "sidewalk": "left", "source": "survey", "surface": "asphalt", "width": "7", "width:shoulder": "2.7"}}, {"type": "way", "id": 228061641, "nodes": [172987047, 172987066], "tags": {"alt_name": "Great Western Highway", "highway": "trunk", "lanes": "2", "maxspeed": "60", "name": "Stewart Street", "network": "AU:NSW", "old_ref": "NR32", "oneway": "yes", "ref": "A32", "source": "survey", "surface": "asphalt"}}]}