{"version": 0.6, "generator": "Overpass API 0.7.61.5 4133829e", "osm3s": {"timestamp_osm_base": "2023-12-06T15:44:15Z", "copyright": "The data included in this document is from www.openstreetmap.org. The data is made available under ODbL."}, "elements": [{"type": "node", "id": 32747646, "lat": -41.0664905, "lon": 145.9419703}, {"type": "node", "id": 32747653, "lat": -41.0667138, "lon": 145.9411863}, {"type": "node", "id": 32747656, "lat": -41.0671713, "lon": 145.9405566}, {"type": "node", "id": 32747662, "lat": -41.0673879, "lon": 145.9394749}, {"type": "node", "id": 32747666, "lat": -41.0676613, "lon": 145.9388764}, {"type": "node", "id": 32747669, "lat": -41.0675736, "lon": 145.9381637}, {"type": "node", "id": 32747672, "lat": -41.0676145, "lon": 145.9321805}, {"type": "node", "id": 32747676, "lat": -41.0674915, "lon": 145.9320794}, {"type": "node", "id": 32748633, "lat": -41.0672971, "lon": 145.929021, "tags": {"created_by": "JOSM"}}, {"type": "node", "id": 32748636, "lat": -41.0671835, "lon": 145.9289924, "tags": {"created_by": "JOSM"}}, {"type": "node", "id": 32748639, "lat": -41.0669508, "lon": 145.9266396}, {"type": "node", "id": 32748642, "lat": -41.0668439, "lon": 145.9268141}, {"type": "node", "id": 38415192, "lat": -41.0668717, "lon": 145.9258188}, {"type": "node", "id": 255500509, "lat": -41.0667058, "lon": 145.9259026}, {"type": "node", "id": 256366697, "lat": -41.0676728, "lon": 145.9364389}, {"type": "node", "id": 256366698, "lat": -41.0675461, "lon": 145.93645}, {"type": "node", "id": 393619524, "lat": -41.0668701, "lon": 145.9413004}, {"type": "node", "id": 1014125885, "lat": -41.0670286, "lon": 145.9404243}, {"type": "node", "id": 1014125890, "lat": -41.067584, "lon": 145.9393228}, {"type": "node", "id": 2493245071, "lat": -41.0675444, "lon": 145.9387174}, {"type": "node", "id": 2493245072, "lat": -41.0677143, "lon": 145.9380361}, {"type": "node", "id": 2493245073, "lat": -41.0675712, "lon": 145.9374507}, {"type": "node", "id": 2493245074, "lat": -41.067705, "lon": 145.9375036}, {"type": "node", "id": 3391981943, "lat": -41.0665704, "lon": 145.9416106}, {"type": "node", "id": 3391982118, "lat": -41.0672454, "lon": 145.9399084}, {"type": "node", "id": 3391982129, "lat": -41.0674071, "lon": 145.93993, "tags": {"maxspeed": "80"}}, {"type": "node", "id": 3391982131, "lat": -41.0674774, "lon": 145.9391059}, {"type": "node", "id": 3391982134, "lat": -41.0675697, "lon": 145.9384317}, {"type": "node", "id": 3391982140, "lat": -41.0677096, "lon": 145.9384874}, {"type": "node", "id": 3842161255, "lat": -41.0675269, "lon": 145.935365}, {"type": "node", "id": 3842161256, "lat": -41.0676734, "lon": 145.9353417}, {"type": "node", "id": 5057360681, "lat": -41.0673536, "lon": 145.9302157}, {"type": "node", "id": 5057360682, "lat": -41.0674796, "lon": 145.9304269}, {"type": "node", "id": 5057360683, "lat": -41.0675631, "lon": 145.9313271}, {"type": "node", "id": 5057360684, "lat": -41.0674371, "lon": 145.9311689}, {"type": "node", "id": 5057360685, "lat": -41.0675207, "lon": 145.9337499}, {"type": "node", "id": 5057366631, "lat": -41.0676553, "lon": 145.9338029}, {"type": "node", "id": 5057366632, "lat": -41.0672905, "lon": 145.9402517}, {"type": "node", "id": 7133013876, "lat": -41.0676618, "lon": 145.9343335, "tags": {"maxspeed": "80", "source:maxspeed:mapillary": "O3hXq76KLV-f6cVRU3B9qQ"}}, {"type": "node", "id": 7456939001, "lat": -41.0675491, "lon": 145.936561}, {"type": "node", "id": 7456939002, "lat": -41.0676773, "lon": 145.9365478}, {"type": "node", "id": 9725630606, "lat": -41.0675224, "lon": 145.934196}, {"type": "node", "id": 11244137688, "lat": -41.0668841, "lon": 145.9260103, "tags": {"highway": "traffic_signals", "traffic_signals": "signal", "traffic_signals:direction": "forward"}}, {"type": "way", "id": 23594011, "nodes": [255500509, 32748642, 32748636, 5057360681, 5057360684, 32747676, 5057360685, 9725630606, 3842161255], "tags": {"highway": "trunk", "lanes": "2", "maxspeed": "80", "name": "Bass Highway", "network": "AU:TAS:NH", "oneway": "yes", "ref": "1", "surface": "asphalt"}}, {"type": "way", "id": 34318455, "nodes": [2493245072, 2493245074], "tags": {"highway": "trunk", "lanes": "2", "maxspeed": "80", "name": "Bass Highway", "network": "AU:TAS:NH", "oneway": "yes", "ref": "1", "surface": "asphalt"}}, {"type": "way", "id": 301627805, "nodes": [7456939001, 2493245073, 32747669], "tags": {"highway": "trunk", "lanes": "2", "maxspeed": "80", "name": "Bass Highway", "network": "AU:TAS:NH", "oneway": "yes", "ref": "1", "surface": "asphalt"}}, {"type": "way", "id": 301627807, "nodes": [3842161256, 7133013876, 5057366631, 32747672, 5057360683, 5057360682, 32748633, 32748639, 11244137688, 38415192], "tags": {"highway": "trunk", "lanes": "2", "maxspeed": "80", "name": "Bass Highway", "network": "AU:TAS:NH", "oneway": "yes", "ref": "1", "surface": "asphalt"}}, {"type": "way", "id": 572167742, "nodes": [3842161255, 256366698], "tags": {"highway": "trunk", "lanes": "2", "maxspeed": "80", "name": "Bass Highway", "network": "AU:TAS:NH", "oneway": "yes", "ref": "1", "surface": "asphalt"}}, {"type": "way", "id": 572167743, "nodes": [256366697, 3842161256], "tags": {"highway": "trunk", "lanes": "2", "maxspeed": "80", "name": "Bass Highway", "network": "AU:TAS:NH", "oneway": "yes", "ref": "1", "surface": "asphalt"}}, {"type": "way", "id": 763360706, "nodes": [393619524, 32747656, 5057366632, 3391982129], "tags": {"highway": "trunk", "lanes": "2", "maxspeed": "80", "name": "Bass Highway", "network": "AU:TAS:NH", "oneway": "yes", "ref": "1", "surface": "asphalt"}}, {"type": "way", "id": 772270190, "nodes": [7456939002, 256366697], "tags": {"highway": "trunk", "lanes": "2", "maxspeed": "80", "name": "Bass Highway", "network": "AU:TAS:NH", "oneway": "yes", "ref": "1", "surface": "asphalt"}}, {"type": "way", "id": 797322728, "nodes": [2493245074, 7456939002], "tags": {"highway": "trunk", "lanes": "2", "maxspeed": "80", "name": "Bass Highway", "network": "AU:TAS:NH", "oneway": "yes", "ref": "1", "surface": "asphalt"}}, {"type": "way", "id": 797322729, "nodes": [256366698, 7456939001], "tags": {"highway": "trunk", "lanes": "2", "maxspeed": "80", "name": "Bass Highway", "network": "AU:TAS:NH", "oneway": "yes", "ref": "1", "surface": "asphalt"}}, {"type": "way", "id": 797322730, "nodes": [3391982129, 1014125890, 32747666, 3391982140, 2493245072], "tags": {"highway": "trunk", "lanes": "2", "maxspeed": "80", "name": "Bass Highway", "network": "AU:TAS:NH", "oneway": "yes", "ref": "1", "surface": "asphalt"}}, {"type": "way", "id": 797322733, "nodes": [32747669, 3391982134, 2493245071, 3391982131, 32747662, 3391982118, 1014125885, 32747653, 3391981943, 32747646], "tags": {"highway": "trunk", "lanes": "2", "maxspeed": "80", "name": "Bass Highway", "network": "AU:TAS:NH", "oneway": "yes", "ref": "1", "surface": "asphalt"}}]}