{"version": 0.6, "generator": "Overpass API 0.7.61.5 4133829e", "osm3s": {"timestamp_osm_base": "2023-12-06T11:55:52Z", "copyright": "The data included in this document is from www.openstreetmap.org. The data is made available under ODbL."}, "elements": [{"type": "node", "id": 18322528, "lat": -33.9108472, "lon": 151.2436464}, {"type": "node", "id": 18556444, "lat": -33.9129867, "lon": 151.2407651}, {"type": "node", "id": 18811068, "lat": -33.9092675, "lon": 151.2439927, "tags": {"hazard:bicycle": "Intersection", "highway": "traffic_signals"}}, {"type": "node", "id": 409769939, "lat": -33.9123956, "lon": 151.2376635}, {"type": "node", "id": 409769942, "lat": -33.9118193, "lon": 151.2363673}, {"type": "node", "id": 409769943, "lat": -33.9112921, "lon": 151.2361126}, {"type": "node", "id": 409769944, "lat": -33.9111213, "lon": 151.2359883}, {"type": "node", "id": 409769946, "lat": -33.9104202, "lon": 151.2352893}, {"type": "node", "id": 409769947, "lat": -33.90935, "lon": 151.2346227}, {"type": "node", "id": 409769948, "lat": -33.9091337, "lon": 151.2345052}, {"type": "node", "id": 409769949, "lat": -33.9085435, "lon": 151.2341917, "tags": {"note": "Left turn from Cowper St to Alison Rd permitted on red after stopping.", "ref": "0792", "start_date": "1974-06-30"}}, {"type": "node", "id": 409769964, "lat": -33.9125949, "lon": 151.2383206}, {"type": "node", "id": 409769965, "lat": -33.91249, "lon": 151.2376367}, {"type": "node", "id": 409769972, "lat": -33.9111853, "lon": 151.2358908}, {"type": "node", "id": 600936116, "lat": -33.9162746, "lon": 151.2413669}, {"type": "node", "id": 600936120, "lat": -33.9152222, "lon": 151.2415889}, {"type": "node", "id": 600936124, "lat": -33.913129, "lon": 151.2417285}, {"type": "node", "id": 600936126, "lat": -33.9112656, "lon": 151.2433829}, {"type": "node", "id": 1835527889, "lat": -33.9190283, "lon": 151.2407823}, {"type": "node", "id": 1835528456, "lat": -33.9171641, "lon": 151.2411904, "tags": {"ref": "0114", "start_date": "1953-09-10"}}, {"type": "node", "id": 1835528457, "lat": -33.9178974, "lon": 151.2410419}, {"type": "node", "id": 1835530932, "lat": -33.9123717, "lon": 151.2425887}, {"type": "node", "id": 1835530933, "lat": -33.913175, "lon": 151.2420351, "tags": {"ref": "0115", "start_date": "1953-08-05"}}, {"type": "node", "id": 1835530943, "lat": -33.9110005, "lon": 151.2435651}, {"type": "node", "id": 1836201065, "lat": -33.9116052, "lon": 151.2361178}, {"type": "node", "id": 1836201067, "lat": -33.9119285, "lon": 151.2363005}, {"type": "node", "id": 1836201069, "lat": -33.9121291, "lon": 151.2365395}, {"type": "node", "id": 1836201071, "lat": -33.9121878, "lon": 151.2366533}, {"type": "node", "id": 1836201073, "lat": -33.9127833, "lon": 151.2394042, "tags": {"highway": "traffic_signals", "ref": "0116", "start_date": "1967-12-01", "traffic_signals": "signal"}}, {"type": "node", "id": 1836233158, "lat": -33.9127029, "lon": 151.2389303}, {"type": "node", "id": 1836233162, "lat": -33.9139982, "lon": 151.2418546}, {"type": "node", "id": 1837898341, "lat": -33.9122344, "lon": 151.2426873}, {"type": "node", "id": 1837898350, "lat": -33.9128461, "lon": 151.2398258}, {"type": "node", "id": 1837898362, "lat": -33.9181614, "lon": 151.2409737, "tags": {"ref": "0518", "start_date": "1969-09-08"}}, {"type": "node", "id": 1837968639, "lat": -33.9168026, "lon": 151.2412564}, {"type": "node", "id": 1839065764, "lat": -33.9120575, "lon": 151.236422}, {"type": "node", "id": 1839625074, "lat": -33.9198121, "lon": 151.2406118}, {"type": "node", "id": 1839625076, "lat": -33.9185202, "lon": 151.2408913}, {"type": "node", "id": 1839799548, "lat": -33.9143748, "lon": 151.2417761}, {"type": "node", "id": 1844413710, "lat": -33.9129957, "lon": 151.2408276, "tags": {"highway": "traffic_signals"}}, {"type": "node", "id": 1844451847, "lat": -33.9130795, "lon": 151.2413958}, {"type": "node", "id": 1849955272, "lat": -33.9120283, "lon": 151.2365694}, {"type": "node", "id": 1854111745, "lat": -33.912466, "lon": 151.2379194}, {"type": "node", "id": 1869430130, "lat": -33.9109309, "lon": 151.2436073}, {"type": "node", "id": 1869430138, "lat": -33.9112273, "lon": 151.2434092}, {"type": "node", "id": 1869430149, "lat": -33.9158881, "lon": 151.2414505}, {"type": "node", "id": 2123208314, "lat": -33.910369, "lon": 151.2437565, "tags": {"button_operated": "yes", "crossing": "traffic_signals", "crossing:island": "no", "highway": "crossing", "tactile_paving": "no", "traffic_signals:sound": "yes", "traffic_signals:vibration": "yes"}}, {"type": "node", "id": 2221098300, "lat": -33.9098402, "lon": 151.2348896}, {"type": "node", "id": 2690710006, "lat": -33.9093837, "lon": 151.2439674, "tags": {"button_operated": "yes", "crossing": "traffic_signals", "crossing:island": "no", "highway": "crossing", "tactile_paving": "no", "traffic_signals:sound": "yes", "traffic_signals:vibration": "yes"}}, {"type": "node", "id": 2690710010, "lat": -33.9095099, "lon": 151.2439426}, {"type": "node", "id": 2744090713, "lat": -33.9166893, "lon": 151.2412787}, {"type": "node", "id": 2763427080, "lat": -33.9130952, "lon": 151.2415018}, {"type": "node", "id": 2982122440, "lat": -33.9197363, "lon": 151.24063, "tags": {"crossing": "traffic_signals", "highway": "traffic_signals", "traffic_signals:direction": "forward"}}, {"type": "node", "id": 2982226046, "lat": -33.9115479, "lon": 151.2362353}, {"type": "node", "id": 2982226047, "lat": -33.9116853, "lon": 151.2363001}, {"type": "node", "id": 2982226048, "lat": -33.9117996, "lon": 151.2362167}, {"type": "node", "id": 2982226049, "lat": -33.9119483, "lon": 151.2364724}, {"type": "node", "id": 2982226050, "lat": -33.9121259, "lon": 151.2367535}, {"type": "node", "id": 2982226051, "lat": -33.9125214, "lon": 151.2381543}, {"type": "node", "id": 2982226052, "lat": -33.9125982, "lon": 151.2381531}, {"type": "node", "id": 3047511629, "lat": -33.9130743, "lon": 151.2420745, "tags": {"highway": "traffic_signals", "traffic_signals": "signal", "traffic_signals:direction": "backward"}}, {"type": "node", "id": 5560023448, "lat": -33.9123157, "lon": 151.237018}, {"type": "node", "id": 5560023449, "lat": -33.9122156, "lon": 151.237002}, {"type": "node", "id": 5560031970, "lat": -33.9107047, "lon": 151.235537}, {"type": "node", "id": 5584362876, "lat": -33.9170707, "lon": 151.2412092, "tags": {"crossing": "traffic_signals", "highway": "crossing"}}, {"type": "node", "id": 5584362880, "lat": -33.9172885, "lon": 151.2411766, "tags": {"crossing": "traffic_signals", "highway": "crossing"}}, {"type": "node", "id": 5584362889, "lat": -33.9160206, "lon": 151.2414219, "tags": {"crossing": "traffic_signals", "highway": "traffic_signals", "source": "survey"}}, {"type": "node", "id": 6336882368, "lat": -33.9156863, "lon": 151.241493}, {"type": "node", "id": 6698369401, "lat": -33.9128985, "lon": 151.2401748}, {"type": "node", "id": 6911131270, "lat": -33.9109992, "lon": 151.2358909, "tags": {"crossing": "traffic_signals", "crossing:island": "yes", "crossing:markings": "dashes", "highway": "crossing"}}, {"type": "node", "id": 8911116928, "lat": -33.9174899, "lon": 151.2411337}, {"type": "node", "id": 8946631892, "lat": -33.913156, "lon": 151.241911, "tags": {"highway": "traffic_signals", "traffic_signals": "signal", "traffic_signals:direction": "backward"}}, {"type": "node", "id": 8946631893, "lat": -33.9132723, "lon": 151.242012, "tags": {"highway": "traffic_signals", "traffic_signals": "signal", "traffic_signals:direction": "forward"}}, {"type": "node", "id": 8946631894, "lat": -33.9130925, "lon": 151.2420666, "tags": {"crossing": "traffic_signals", "highway": "crossing"}}, {"type": "node", "id": 8946631900, "lat": -33.9132522, "lon": 151.2420166, "tags": {"crossing": "traffic_signals", "highway": "crossing"}}, {"type": "node", "id": 8946631901, "lat": -33.9131602, "lon": 151.2419381, "tags": {"crossing": "traffic_signals", "highway": "crossing"}}, {"type": "node", "id": 8946631902, "lat": -33.9128072, "lon": 151.2395586, "tags": {"highway": "traffic_signals", "traffic_signals": "signal", "traffic_signals:direction": "forward"}}, {"type": "node", "id": 8946631903, "lat": -33.912761, "lon": 151.239261, "tags": {"highway": "traffic_signals", "traffic_signals": "signal", "traffic_signals:direction": "backward"}}, {"type": "node", "id": 8946631916, "lat": -33.9123746, "lon": 151.2375813, "tags": {"highway": "traffic_signals", "traffic_signals": "signal", "traffic_signals:direction": "forward"}}, {"type": "node", "id": 8946641717, "lat": -33.9125182, "lon": 151.2377499, "tags": {"highway": "traffic_signals", "traffic_signals": "signal", "traffic_signals:direction": "forward"}}, {"type": "node", "id": 8946641718, "lat": -33.9124691, "lon": 151.2375527}, {"type": "node", "id": 8946641727, "lat": -33.9122529, "lon": 151.2368157}, {"type": "node", "id": 8946641849, "lat": -33.9110586, "lon": 151.2357908, "tags": {"crossing": "traffic_signals", "crossing:island": "yes", "crossing:markings": "dashes", "highway": "crossing"}}, {"type": "node", "id": 8954183635, "lat": -33.9112967, "lon": 151.2359722, "tags": {"crossing": "no", "highway": "traffic_signals", "traffic_signals": "signal", "traffic_signals:direction": "forward"}}, {"type": "node", "id": 9385099936, "lat": -33.9100732, "lon": 151.2350263}, {"type": "node", "id": 11135273013, "lat": -33.910607, "lon": 151.2437063}, {"type": "node", "id": 11135273014, "lat": -33.9107293, "lon": 151.2436774}, {"type": "node", "id": 11135273015, "lat": -33.9107904, "lon": 151.2436624}, {"type": "node", "id": 11135273016, "lat": -33.9104829, "lon": 151.243732}, {"type": "node", "id": 11135273017, "lat": -33.9108895, "lon": 151.243629}, {"type": "node", "id": 11230160998, "lat": -33.9173135, "lon": 151.24117, "tags": {"highway": "traffic_signals", "traffic_signals": "signal", "traffic_signals:direction": "forward"}}, {"type": "node", "id": 11230161007, "lat": -33.9169557, "lon": 151.2412294, "tags": {"highway": "traffic_signals", "traffic_signals": "signal", "traffic_signals:direction": "forward"}}, {"type": "node", "id": 11230295611, "lat": -33.9128032, "lon": 151.2395329, "tags": {"crossing": "traffic_signals", "highway": "crossing"}}, {"type": "node", "id": 11230295615, "lat": -33.9127654, "lon": 151.239289, "tags": {"crossing": "traffic_signals", "highway": "crossing"}}, {"type": "node", "id": 11230372943, "lat": -33.9182396, "lon": 151.2409557, "tags": {"crossing": "traffic_signals", "highway": "crossing"}}, {"type": "node", "id": 11230372956, "lat": -33.9094784, "lon": 151.2439479}, {"type": "node", "id": 11283235933, "lat": -33.9197671, "lon": 151.2406226, "tags": {"crossing": "traffic_signals", "highway": "crossing"}}, {"type": "node", "id": 11301716748, "lat": -33.9179907, "lon": 151.2410172, "tags": {"highway": "traffic_signals", "traffic_signals": "signal", "traffic_signals:direction": "backward"}}, {"type": "node", "id": 11301716749, "lat": -33.9182616, "lon": 151.2409506, "tags": {"highway": "traffic_signals", "traffic_signals": "signal", "traffic_signals:direction": "backward"}}, {"type": "node", "id": 11347587226, "lat": -33.9112072, "lon": 151.2360568, "tags": {"crossing": "traffic_signals", "crossing:island": "yes", "crossing:markings": "dashes", "highway": "crossing"}}, {"type": "node", "id": 11347587227, "lat": -33.9112717, "lon": 151.2359561, "tags": {"crossing": "traffic_signals", "crossing:island": "yes", "crossing:markings": "dashes", "highway": "crossing"}}, {"type": "node", "id": 11347587229, "lat": -33.9114216, "lon": 151.2361808}, {"type": "node", "id": 11347587230, "lat": -33.9109724, "lon": 151.2358696, "tags": {"crossing": "no", "highway": "traffic_signals", "traffic_signals": "signal", "traffic_signals:direction": "forward"}}, {"type": "node", "id": 11347587231, "lat": -33.9108599, "lon": 151.2356274}, {"type": "node", "id": 11347587232, "lat": -33.9108089, "lon": 151.2357}, {"type": "node", "id": 11347587244, "lat": -33.9102501, "lon": 151.2351574}, {"type": "node", "id": 11361287303, "lat": -33.9102869, "lon": 151.2437743, "tags": {"highway": "traffic_signals", "traffic_signals": "signal", "traffic_signals:direction": "backward"}}, {"type": "node", "id": 11361287304, "lat": -33.9104387, "lon": 151.2437415, "tags": {"highway": "traffic_signals", "traffic_signals": "signal", "traffic_signals:direction": "forward"}}, {"type": "node", "id": 11374474950, "lat": -33.9086582, "lon": 151.2342545, "tags": {"highway": "traffic_signals", "traffic_signals": "signal", "traffic_signals:direction": "backward"}}, {"type": "node", "id": 11374474953, "lat": -33.9086332, "lon": 151.2342408, "tags": {"crossing": "traffic_signals", "highway": "crossing"}}, {"type": "way", "id": 47134524, "nodes": [600936116, 5584362889, 1869430149], "tags": {"highway": "primary", "lanes": "4", "maxspeed": "50", "maxspeed:conditional": "40 @ (Mo-Fr 08:00-09:30,14:30-16:00; PH off; SH off)", "name": "Avoca Street", "surface": "asphalt"}}, {"type": "way", "id": 47134545, "nodes": [1835530933, 8946631901, 8946631892, 600936124, 2763427080, 1844451847, 1844413710, 18556444], "tags": {"cycleway:both": "no", "highway": "primary", "lanes": "4", "maxspeed": "50", "maxspeed:conditional": "40 @ (Mo-Fr 08:00-09:30,14:30-16:00; PH off; SH off)", "maxspeed:type": "sign", "name": "Alison Road", "sidewalk": "both", "surface": "asphalt"}}, {"type": "way", "id": 172671206, "nodes": [1839799548, 1836233162, 8946631893, 8946631900, 1835530933], "tags": {"cycleway:both": "no", "highway": "primary", "lanes": "4", "maxspeed": "50", "name": "Avoca Street", "source": "Bing", "surface": "asphalt"}}, {"type": "way", "id": 172755379, "nodes": [18556444, 6698369401, 1837898350, 8946631902, 11230295611, 1836201073], "tags": {"cycleway:both": "no", "highway": "primary", "lanes": "4", "maxspeed": "50", "maxspeed:type": "sign", "name": "Alison Road", "source": "bing", "surface": "asphalt"}}, {"type": "way", "id": 172755381, "nodes": [409769964, 2982226052, 8946641717, 409769965], "tags": {"highway": "primary", "lanes": "2", "maxspeed": "50", "maxspeed:type": "sign", "name": "Alison Road", "oneway": "yes", "source": "bing", "surface": "asphalt"}}, {"type": "way", "id": 197730195, "nodes": [1835530933, 8946631894, 3047511629, 1835530932, 1837898341, 600936126], "tags": {"cycleway:both": "no", "highway": "primary", "lanes": "4", "maxspeed": "60", "name": "Avoca Street", "source": "Bing", "surface": "asphalt"}}, {"type": "way", "id": 251111270, "nodes": [1837898362, 11301716748, 1835528457, 8911116928, 11230160998, 5584362880, 1835528456], "tags": {"highway": "primary", "maxspeed": "50", "name": "Avoca Street", "source": "Bing", "surface": "asphalt"}}, {"type": "way", "id": 252114519, "nodes": [1836201073, 11230295615, 8946631903, 1836233158], "tags": {"cycleway:both": "no", "highway": "primary", "lanes": "4", "maxspeed": "50", "maxspeed:type": "sign", "name": "Alison Road", "source": "bing", "surface": "asphalt"}}, {"type": "way", "id": 252126870, "nodes": [409769939, 1854111745, 2982226051, 409769964], "tags": {"highway": "primary", "lanes": "2", "maxspeed": "50", "maxspeed:type": "sign", "name": "Alison Road", "oneway": "yes", "source": "yahoo_imagery;extrapolation", "surface": "asphalt"}}, {"type": "way", "id": 252133048, "nodes": [409769944, 11347587226, 409769943, 11347587229, 2982226046, 2982226047, 409769942, 2982226049, 1849955272, 2982226050, 5560023449], "tags": {"highway": "primary", "lanes": "2", "maxspeed": "50", "maxspeed:type": "sign", "name": "Alison Road", "oneway": "yes", "source": "yahoo_imagery;extrapolation", "surface": "asphalt"}}, {"type": "way", "id": 269121439, "nodes": [1869430149, 6336882368, 600936120, 1839799548], "tags": {"cycleway:both": "no", "highway": "primary", "lanes": "4", "maxspeed": "50", "maxspeed:conditional": "40 @ (Mo-Fr 08:00-09:30,14:30-16:00; PH off; SH off)", "name": "Avoca Street", "surface": "asphalt"}}, {"type": "way", "id": 269121807, "nodes": [600936116, 2744090713], "tags": {"cycleway:both": "no", "highway": "primary", "maxspeed": "50", "name": "Avoca Street", "source": "Bing", "surface": "asphalt"}}, {"type": "way", "id": 353447997, "nodes": [1837898362, 11230372943, 11301716749, 1839625076, 1835527889, 2982122440, 11283235933, 1839625074], "tags": {"highway": "primary", "maxspeed": "50", "name": "Avoca Street", "source": "Bing", "surface": "asphalt"}}, {"type": "way", "id": 567897502, "nodes": [2690710010, 11230372956, 2690710006], "tags": {"highway": "primary", "lanes": "3", "lanes:backward": "1", "lanes:forward": "2", "maxspeed": "60", "name": "Avoca Street", "source": "Bing", "surface": "asphalt"}}, {"type": "way", "id": 567897503, "nodes": [2690710006, 18811068], "tags": {"highway": "primary", "lanes": "3", "lanes:backward": "1", "lanes:forward": "2", "maxspeed": "60", "name": "Avoca Street", "source": "Bing", "surface": "asphalt"}}, {"type": "way", "id": 580966103, "nodes": [409769965, 8946641718, 5560023448, 8946641727, 1836201071, 1836201069, 1839065764], "tags": {"highway": "primary", "lanes": "2", "maxspeed": "50", "maxspeed:type": "sign", "name": "Alison Road", "oneway": "yes", "source": "bing", "surface": "asphalt"}}, {"type": "way", "id": 580966104, "nodes": [5560023449, 8946631916, 409769939], "tags": {"highway": "primary", "maxspeed": "50", "maxspeed:type": "sign", "name": "Alison Road", "oneway": "yes", "source": "yahoo_imagery;extrapolation", "surface": "asphalt"}}, {"type": "way", "id": 580966297, "nodes": [409769972, 8946641849, 11347587231, 5560031970], "tags": {"highway": "primary", "lanes": "2", "maxspeed": "60", "maxspeed:type": "sign", "name": "Alison Road", "oneway": "yes", "source": "yahoo_imagery;extrapolation", "surface": "asphalt"}}, {"type": "way", "id": 580966298, "nodes": [11347587232, 11347587230, 6911131270, 409769944], "tags": {"highway": "primary", "lanes": "3", "maxspeed": "50", "maxspeed:type": "sign", "name": "Alison Road", "oneway": "yes", "source": "yahoo_imagery;extrapolation", "surface": "asphalt", "turn:lanes:forward": "||right"}}, {"type": "way", "id": 580966299, "nodes": [409769949, 11374474953, 11374474950, 409769948, 409769947, 2221098300, 9385099936, 11347587244, 409769946, 5560031970], "tags": {"cycleway:both": "no", "highway": "primary", "lanes": "4", "lit": "yes", "maxspeed:backward": "60", "maxspeed:forward": "50", "maxspeed:type": "sign", "name": "Alison Road", "sidewalk:left": "yes", "sidewalk:left:surface": "asphalt", "sidewalk:right": "separate", "source": "yahoo_imagery;extrapolation", "surface": "asphalt"}}, {"type": "way", "id": 589594836, "nodes": [600936126, 1869430138, 1835530943, 1869430130, 11135273017, 18322528, 11135273015, 11135273014, 11135273013, 11135273016, 11361287304, 2123208314, 11361287303, 2690710010], "tags": {"cycleway:both": "no", "highway": "primary", "lanes": "4", "lit": "yes", "maxspeed": "60", "name": "Avoca Street", "shoulder": "no", "sidewalk": "both", "source": "Bing", "surface": "asphalt"}}, {"type": "way", "id": 694202526, "nodes": [1837968639, 11230161007, 5584362876, 1835528456], "tags": {"highway": "primary", "maxspeed": "50", "name": "Avoca Street", "source": "Bing", "surface": "asphalt"}}, {"type": "way", "id": 694202527, "nodes": [2744090713, 1837968639], "tags": {"cycleway:both": "no", "highway": "primary", "maxspeed": "50", "name": "Avoca Street", "source": "Bing", "surface": "asphalt"}}, {"type": "way", "id": 776585180, "nodes": [1836233158, 409769964], "tags": {"cycleway:both": "no", "highway": "primary", "lanes": "4", "maxspeed": "50", "maxspeed:type": "sign", "name": "Alison Road", "source": "bing", "surface": "asphalt"}}, {"type": "way", "id": 1098797110, "nodes": [1839065764, 1836201067, 2982226048, 1836201065], "tags": {"highway": "primary", "lanes": "2", "maxspeed": "60", "maxspeed:type": "sign", "name": "Alison Road", "oneway": "yes", "source": "bing", "surface": "asphalt"}}, {"type": "way", "id": 1223364737, "nodes": [1836201065, 8954183635, 11347587227, 409769972], "tags": {"highway": "primary", "lanes": "3", "maxspeed": "60", "maxspeed:type": "sign", "name": "Alison Road", "oneway": "yes", "source": "bing", "surface": "asphalt", "turn:lanes:forward": "||right"}}, {"type": "way", "id": 1223364738, "nodes": [5560031970, 11347587232], "tags": {"highway": "primary", "lanes": "2", "maxspeed": "50", "maxspeed:type": "sign", "name": "Alison Road", "oneway": "yes", "source": "yahoo_imagery;extrapolation", "surface": "asphalt"}}]}