{"version": 0.6, "generator": "Overpass API 0.7.61.5 4133829e", "osm3s": {"timestamp_osm_base": "2023-12-06T12:56:34Z", "copyright": "The data included in this document is from www.openstreetmap.org. The data is made available under ODbL."}, "elements": [{"type": "node", "id": 106536600, "lat": -27.3977782, "lon": 152.9609599}, {"type": "node", "id": 106536604, "lat": -27.3981644, "lon": 152.9611124}, {"type": "node", "id": 106536606, "lat": -27.3986088, "lon": 152.9611577}, {"type": "node", "id": 106536609, "lat": -27.4011244, "lon": 152.9613865}, {"type": "node", "id": 106536610, "lat": -27.4022211, "lon": 152.9615215}, {"type": "node", "id": 120469641, "lat": -27.3953695, "lon": 152.9614554}, {"type": "node", "id": 120469651, "lat": -27.3950227, "lon": 152.9618328}, {"type": "node", "id": 120469659, "lat": -27.3947246, "lon": 152.9639728}, {"type": "node", "id": 120469664, "lat": -27.3947242, "lon": 152.9641408}, {"type": "node", "id": 120469668, "lat": -27.3947419, "lon": 152.9643018}, {"type": "node", "id": 120469673, "lat": -27.3948778, "lon": 152.9651691}, {"type": "node", "id": 120469676, "lat": -27.3948866, "lon": 152.9653626}, {"type": "node", "id": 120469685, "lat": -27.3948285, "lon": 152.9661222}, {"type": "node", "id": 120469691, "lat": -27.3947985, "lon": 152.9662841}, {"type": "node", "id": 120469694, "lat": -27.3947497, "lon": 152.966419}, {"type": "node", "id": 120469700, "lat": -27.394544, "lon": 152.9667544}, {"type": "node", "id": 120469704, "lat": -27.394095, "lon": 152.9672894}, {"type": "node", "id": 120469712, "lat": -27.3935114, "lon": 152.9676178}, {"type": "node", "id": 120469717, "lat": -27.3929528, "lon": 152.9679475, "tags": {"highway": "traffic_signals"}}, {"type": "node", "id": 268564300, "lat": -27.3948623, "lon": 152.9656802}, {"type": "node", "id": 268564451, "lat": -27.394318, "lon": 152.9670987}, {"type": "node", "id": 268716493, "lat": -27.3958999, "lon": 152.9612953}, {"type": "node", "id": 268716548, "lat": -27.3965956, "lon": 152.9611625}, {"type": "node", "id": 268716842, "lat": -27.3947655, "lon": 152.9636023}, {"type": "node", "id": 325699862, "lat": -27.3932905, "lon": 152.9677579}, {"type": "node", "id": 325699864, "lat": -27.3931062, "lon": 152.9678698}, {"type": "node", "id": 325704594, "lat": -27.393558, "lon": 152.967726}, {"type": "node", "id": 325704596, "lat": -27.3941804, "lon": 152.9673668}, {"type": "node", "id": 325715871, "lat": -27.3944173, "lon": 152.9671198}, {"type": "node", "id": 325716291, "lat": -27.3948968, "lon": 152.9633142}, {"type": "node", "id": 325716724, "lat": -27.394952, "lon": 152.9656893}, {"type": "node", "id": 325718483, "lat": -27.3947977, "lon": 152.9665379}, {"type": "node", "id": 325718486, "lat": -27.3948922, "lon": 152.9662845}, {"type": "node", "id": 325718489, "lat": -27.3949196, "lon": 152.9661349}, {"type": "node", "id": 325718493, "lat": -27.394978, "lon": 152.9653322}, {"type": "node", "id": 325718496, "lat": -27.3949765, "lon": 152.9652382}, {"type": "node", "id": 325718499, "lat": -27.3949675, "lon": 152.9651454}, {"type": "node", "id": 325718502, "lat": -27.3948211, "lon": 152.9642358}, {"type": "node", "id": 325718504, "lat": -27.3948141, "lon": 152.9641036}, {"type": "node", "id": 325718507, "lat": -27.3948157, "lon": 152.9639793}, {"type": "node", "id": 325718512, "lat": -27.3949908, "lon": 152.9623117}, {"type": "node", "id": 325718516, "lat": -27.3950526, "lon": 152.9620389}, {"type": "node", "id": 325718520, "lat": -27.395135, "lon": 152.9618724, "tags": {"highway": "traffic_signals", "traffic_signals:direction": "forward"}}, {"type": "node", "id": 325718523, "lat": -27.395236, "lon": 152.9617505}, {"type": "node", "id": 325718526, "lat": -27.3955743, "lon": 152.961515}, {"type": "node", "id": 325718528, "lat": -27.3957084, "lon": 152.9614576}, {"type": "node", "id": 325718532, "lat": -27.3957682, "lon": 152.9614365, "tags": {"highway": "traffic_signals", "traffic_signals:direction": "forward"}}, {"type": "node", "id": 325718539, "lat": -27.3973456, "lon": 152.9611213}, {"type": "node", "id": 325722593, "lat": -27.3977756, "lon": 152.9610745}, {"type": "node", "id": 325723419, "lat": -27.3959561, "lon": 152.9613903}, {"type": "node", "id": 325725804, "lat": -27.3951474, "lon": 152.9616469}, {"type": "node", "id": 339964865, "lat": -27.3948582, "lon": 152.9636206}, {"type": "node", "id": 339964870, "lat": -27.3948039, "lon": 152.9632961}, {"type": "node", "id": 454719602, "lat": -27.4014166, "lon": 152.9614228, "tags": {"crossing": "traffic_signals", "highway": "traffic_signals", "traffic_signals": "pedestrian_crossing"}}, {"type": "node", "id": 454719605, "lat": -27.3998618, "lon": 152.9612299}, {"type": "node", "id": 482341195, "lat": -27.3969325, "lon": 152.961198}, {"type": "node", "id": 482341235, "lat": -27.3981701, "lon": 152.9610213}, {"type": "node", "id": 482341286, "lat": -27.3980661, "lon": 152.9609909}, {"type": "node", "id": 482341359, "lat": -27.3946094, "lon": 152.966826}, {"type": "node", "id": 482341516, "lat": -27.3982238, "lon": 152.9610305}, {"type": "node", "id": 482341518, "lat": -27.399348, "lon": 152.9611661}, {"type": "node", "id": 482341522, "lat": -27.3986653, "lon": 152.9610732}, {"type": "node", "id": 482341534, "lat": -27.3976634, "lon": 152.9609659}, {"type": "node", "id": 482341537, "lat": -27.3976771, "lon": 152.9610781}, {"type": "node", "id": 482341587, "lat": -27.3965095, "lon": 152.9612793}, {"type": "node", "id": 1389426761, "lat": -27.3990011, "lon": 152.9611004}, {"type": "node", "id": 1399508768, "lat": -27.3932627, "lon": 152.9679177}, {"type": "node", "id": 1399508769, "lat": -27.3942454, "lon": 152.9671829}, {"type": "node", "id": 1399508770, "lat": -27.3942829, "lon": 152.9672966}, {"type": "node", "id": 1399508771, "lat": -27.3943455, "lon": 152.9672296}, {"type": "node", "id": 1399508773, "lat": -27.3947008, "lon": 152.9665157}, {"type": "node", "id": 1399508775, "lat": -27.3948573, "lon": 152.9664065}, {"type": "node", "id": 1399508779, "lat": -27.3949926, "lon": 152.9618948}, {"type": "node", "id": 1399508784, "lat": -27.3950726, "lon": 152.9619918}, {"type": "node", "id": 1399508785, "lat": -27.3952242, "lon": 152.9615665}, {"type": "node", "id": 1399508787, "lat": -27.3954667, "lon": 152.961576}, {"type": "node", "id": 1399508790, "lat": -27.3973721, "lon": 152.9609984}, {"type": "node", "id": 1399508793, "lat": -27.397851, "lon": 152.9609643, "tags": {"highway": "traffic_signals", "traffic_signals:direction": "forward"}}, {"type": "node", "id": 1853727366, "lat": -27.3948673, "lon": 152.9626156}, {"type": "node", "id": 1853727368, "lat": -27.3949325, "lon": 152.962102}, {"type": "node", "id": 1853727371, "lat": -27.3951014, "lon": 152.9616979}, {"type": "node", "id": 1853727372, "lat": -27.3951927, "lon": 152.9617975}, {"type": "node", "id": 1853727373, "lat": -27.3957293, "lon": 152.9613284}, {"type": "node", "id": 1928449896, "lat": -27.3966115, "lon": 152.9612596}, {"type": "node", "id": 4924293008, "lat": -27.3988912, "lon": 152.9611815, "tags": {"crossing": "unmarked", "highway": "crossing", "kerb": "lowered"}}, {"type": "node", "id": 4924293009, "lat": -27.3988976, "lon": 152.9610901, "tags": {"crossing": "unmarked", "highway": "crossing", "kerb": "lowered"}}, {"type": "node", "id": 6270792576, "lat": -27.3995041, "lon": 152.9611855}, {"type": "node", "id": 6270793096, "lat": -27.4000481, "lon": 152.961253}, {"type": "node", "id": 6275569120, "lat": -27.3967939, "lon": 152.9611072}, {"type": "node", "id": 6275569122, "lat": -27.3970949, "lon": 152.961052}, {"type": "node", "id": 7745676471, "lat": -27.3960494, "lon": 152.9612639, "tags": {"highway": "traffic_signals", "traffic_signals:direction": "forward"}}, {"type": "node", "id": 7745676473, "lat": -27.3951944, "lon": 152.9615976, "tags": {"highway": "traffic_signals", "traffic_signals:direction": "forward"}}, {"type": "node", "id": 7745721970, "lat": -27.3975283, "lon": 152.961093, "tags": {"highway": "traffic_signals", "traffic_signals:direction": "forward"}}, {"type": "node", "id": 8285563764, "lat": -27.3950549, "lon": 152.9617689, "tags": {"crossing": "traffic_signals", "highway": "crossing"}}, {"type": "node", "id": 8285563765, "lat": -27.3951535, "lon": 152.9618483, "tags": {"crossing": "traffic_signals", "highway": "crossing"}}, {"type": "node", "id": 8285563801, "lat": -27.3975707, "lon": 152.9609699, "tags": {"crossing": "traffic_signals", "highway": "crossing"}}, {"type": "node", "id": 8285563802, "lat": -27.3975855, "lon": 152.9610844, "tags": {"crossing": "traffic_signals", "highway": "crossing"}}, {"type": "node", "id": 8285563805, "lat": -27.3957982, "lon": 152.9613162, "tags": {"crossing": "traffic_signals", "highway": "crossing"}}, {"type": "node", "id": 8285563806, "lat": -27.3958105, "lon": 152.9614262, "tags": {"crossing": "traffic_signals", "highway": "crossing"}}, {"type": "node", "id": 9349822642, "lat": -27.3980957, "lon": 152.9611044}, {"type": "node", "id": 9396102618, "lat": -27.4027929, "lon": 152.9615928}, {"type": "node", "id": 10694052304, "lat": -27.3949622, "lon": 152.9619893}, {"type": "node", "id": 10694058105, "lat": -27.3949157, "lon": 152.9622026}, {"type": "node", "id": 10694058109, "lat": -27.3950196, "lon": 152.9621494}, {"type": "node", "id": 10694058110, "lat": -27.3950059, "lon": 152.9622197}, {"type": "node", "id": 10694058112, "lat": -27.3952704, "lon": 152.9615254}, {"type": "node", "id": 10694058113, "lat": -27.3954236, "lon": 152.9614292}, {"type": "node", "id": 10694058114, "lat": -27.3955103, "lon": 152.9613926}, {"type": "node", "id": 10694058115, "lat": -27.3956187, "lon": 152.9613552}, {"type": "node", "id": 10694058121, "lat": -27.3964715, "lon": 152.9611864}, {"type": "node", "id": 10694058122, "lat": -27.3967934, "lon": 152.9612261}, {"type": "node", "id": 10694058124, "lat": -27.39751, "lon": 152.9609772}, {"type": "node", "id": 10694058127, "lat": -27.3979494, "lon": 152.9609807}, {"type": "node", "id": 10694058129, "lat": -27.3979023, "lon": 152.9609713}, {"type": "node", "id": 10694058130, "lat": -27.3979438, "lon": 152.9610809}, {"type": "node", "id": 10694058131, "lat": -27.3978553, "lon": 152.9610734}, {"type": "node", "id": 10694058163, "lat": -27.3981194, "lon": 152.9610086}, {"type": "node", "id": 10694058172, "lat": -27.3953443, "lon": 152.9616597}, {"type": "node", "id": 10694058177, "lat": -27.395037, "lon": 152.9620879}, {"type": "node", "id": 10694058178, "lat": -27.3963993, "lon": 152.9613014}, {"type": "node", "id": 10694058179, "lat": -27.3970326, "lon": 152.9611811}, {"type": "node", "id": 10694058180, "lat": -27.3974374, "lon": 152.9611035}, {"type": "way", "id": 13282159, "nodes": [1853727371, 8285563764, 120469651, 1399508779], "tags": {"highway": "primary", "lanes": "2", "maxspeed": "60", "name": "Pimelea Street", "network": "AU:QLD:S", "oneway": "yes", "ref": "40", "source:maxspeed": "sign", "surface": "asphalt"}}, {"type": "way", "id": 21548485, "nodes": [106536606, 4924293008, 482341518], "tags": {"highway": "primary", "lanes": "1", "maxspeed": "60", "name": "Dawson Parade", "network": "AU:QLD:S", "oneway": "yes", "ref": "40", "source:maxspeed": "sign", "surface": "asphalt"}}, {"type": "way", "id": 21551865, "nodes": [106536604, 106536606], "tags": {"bridge": "yes", "highway": "primary", "layer": "1", "maxspeed": "60", "name": "Dawson Parade", "network": "AU:QLD:S", "oneway": "yes", "ref": "40", "source:maxspeed": "sign", "surface": "asphalt"}}, {"type": "way", "id": 21555930, "nodes": [482341286, 10694058127, 10694058129, 1399508793, 106536600], "tags": {"highway": "primary", "lanes": "1", "maxspeed": "60", "name": "Dawson Parade", "network": "AU:QLD:S", "oneway": "yes", "ref": "40", "source:maxspeed": "sign", "surface": "asphalt"}}, {"type": "way", "id": 29556202, "nodes": [10694058179, 325718539, 10694058180, 7745721970, 8285563802, 482341537], "tags": {"highway": "primary", "lanes": "4", "maxspeed": "60", "name": "Dawson Parade", "network": "AU:QLD:S", "oneway": "yes", "ref": "40", "source:maxspeed": "sign", "surface": "asphalt"}}, {"type": "way", "id": 40086645, "nodes": [482341518, 1389426761, 4924293009, 482341522], "tags": {"highway": "primary", "lanes": "1", "maxspeed": "60", "name": "Dawson Parade", "network": "AU:QLD:S", "oneway": "yes", "ref": "40", "source:maxspeed": "sign", "surface": "asphalt"}}, {"type": "way", "id": 40086647, "nodes": [482341518, 6270792576, 454719605, 6270793096, 106536609, 454719602, 106536610, 9396102618], "tags": {"highway": "primary", "maxspeed": "60", "maxspeed:conditional": "40 @ (Mo-Fr 07:00-09:00, 14:00-16:00; PH off; SH off)", "name": "Dawson Parade", "network": "AU:QLD:S", "ref": "40", "source:maxspeed": "sign", "surface": "paved"}}, {"type": "way", "id": 40086648, "nodes": [482341522, 482341516], "tags": {"bridge": "yes", "highway": "primary", "layer": "1", "maxspeed": "60", "name": "Dawson Parade", "network": "AU:QLD:S", "oneway": "yes", "ref": "40", "source:maxspeed": "sign", "surface": "asphalt"}}, {"type": "way", "id": 576431291, "nodes": [120469641, 10694058112, 1399508785, 7745676473, 325725804], "tags": {"highway": "primary", "lanes": "2", "maxspeed": "60", "name": "Dawson Parade", "network": "AU:QLD:S", "oneway": "yes", "ref": "40", "source:maxspeed": "sign", "surface": "asphalt"}}, {"type": "way", "id": 576478605, "nodes": [482341534, 8285563801, 10694058124, 1399508790, 6275569122, 6275569120, 268716548], "tags": {"highway": "primary", "lanes": "1", "maxspeed": "60", "name": "Dawson Parade", "network": "AU:QLD:S", "oneway": "yes", "ref": "40", "source:maxspeed": "sign", "surface": "asphalt"}}, {"type": "way", "id": 576478606, "nodes": [106536600, 482341534], "tags": {"cycleway:left": "no", "highway": "primary", "lanes": "1", "maxspeed": "60", "name": "Dawson Parade", "network": "AU:QLD:S", "oneway": "yes", "ref": "40", "source:maxspeed": "sign", "surface": "asphalt"}}, {"type": "way", "id": 576478607, "nodes": [325722593, 10694058131, 10694058130, 9349822642, 106536604], "tags": {"highway": "primary", "lanes": "2", "maxspeed": "60", "name": "Dawson Parade", "network": "AU:QLD:S", "oneway": "yes", "ref": "40", "source:maxspeed": "sign", "surface": "asphalt"}}, {"type": "way", "id": 576478608, "nodes": [482341537, 325722593], "tags": {"cycleway:left": "no", "highway": "primary", "lanes": "4", "maxspeed": "60", "name": "Dawson Parade", "network": "AU:QLD:S", "oneway": "yes", "ref": "40", "source:maxspeed": "sign", "surface": "asphalt"}}, {"type": "way", "id": 576478609, "nodes": [1399508787, 325718526, 325718528, 325718532, 8285563806, 325723419], "tags": {"highway": "primary", "lanes": "3", "maxspeed": "60", "name": "Dawson Parade", "network": "AU:QLD:S", "oneway": "yes", "ref": "40", "source:maxspeed": "sign", "surface": "asphalt"}}, {"type": "way", "id": 576478610, "nodes": [268716493, 8285563805, 1853727373, 10694058115, 10694058114, 10694058113, 120469641], "tags": {"highway": "primary", "lanes": "2", "maxspeed": "60", "name": "Dawson Parade", "network": "AU:QLD:S", "oneway": "yes", "ref": "40", "source:maxspeed": "sign", "surface": "asphalt"}}, {"type": "way", "id": 767800173, "nodes": [1399508768, 325704594, 325704596, 1399508770, 1399508771, 325715871, 482341359, 325718483, 1399508775, 325718486, 325718489, 325716724, 325718493, 325718496, 325718499, 325718502, 325718504, 325718507, 339964865, 325716291, 325718512, 10694058110, 10694058109, 10694058177, 325718516], "tags": {"highway": "primary", "lanes": "2", "maxspeed": "60", "name": "Pimelea Street", "network": "AU:QLD:S", "oneway": "yes", "ref": "40", "sidewalk": "separate", "source:maxspeed": "sign", "surface": "asphalt"}}, {"type": "way", "id": 767800174, "nodes": [325718516, 1399508784, 325718520, 8285563765, 1853727372], "tags": {"highway": "primary", "lanes": "3", "maxspeed": "60", "name": "Pimelea Street", "network": "AU:QLD:S", "oneway": "yes", "ref": "40", "source:maxspeed": "sign", "surface": "asphalt"}}, {"type": "way", "id": 767800175, "nodes": [325718523, 10694058172, 1399508787], "tags": {"highway": "primary", "lanes": "2", "maxspeed": "60", "name": "Dawson Parade", "network": "AU:QLD:S", "oneway": "yes", "ref": "40", "source:maxspeed": "sign", "surface": "asphalt"}}, {"type": "way", "id": 1149545788, "nodes": [482341516, 482341235, 10694058163, 482341286], "tags": {"highway": "primary", "lanes": "1", "maxspeed": "60", "name": "Dawson Parade", "network": "AU:QLD:S", "oneway": "yes", "ref": "40", "source:maxspeed": "sign", "surface": "asphalt"}}, {"type": "way", "id": 1149545792, "nodes": [1853727372, 325718523], "tags": {"highway": "primary", "lanes": "3", "maxspeed": "60", "name": "Dawson Parade", "network": "AU:QLD:S", "oneway": "yes", "ref": "40", "source:maxspeed": "sign", "surface": "asphalt"}}, {"type": "way", "id": 1149545794, "nodes": [325725804, 1853727371], "tags": {"highway": "primary", "lanes": "2", "maxspeed": "60", "name": "Dawson Parade", "network": "AU:QLD:S", "oneway": "yes", "ref": "40", "source:maxspeed": "sign", "surface": "asphalt"}}, {"type": "way", "id": 1149545796, "nodes": [1399508779, 10694052304, 1853727368, 10694058105, 1853727366, 339964870, 268716842, 120469659, 120469664, 120469668, 120469673, 120469676, 268564300, 120469685, 120469691, 120469694, 1399508773, 120469700, 268564451, 1399508769, 120469704, 120469712, 325699862, 325699864, 120469717], "tags": {"highway": "primary", "lanes": "2", "maxspeed": "60", "name": "Pimelea Street", "network": "AU:QLD:S", "oneway": "yes", "ref": "40", "source:maxspeed": "sign", "surface": "asphalt"}}, {"type": "way", "id": 1149545799, "nodes": [325723419, 10694058178], "tags": {"highway": "primary", "lanes": "2", "maxspeed": "60", "name": "Dawson Parade", "network": "AU:QLD:S", "oneway": "yes", "ref": "40", "source:maxspeed": "sign", "surface": "asphalt"}}, {"type": "way", "id": 1149545800, "nodes": [10694058178, 482341587, 1928449896], "tags": {"highway": "primary", "lanes": "3", "maxspeed": "60", "name": "Dawson Parade", "network": "AU:QLD:S", "oneway": "yes", "ref": "40", "source:maxspeed": "sign", "surface": "asphalt"}}, {"type": "way", "id": 1149545801, "nodes": [268716548, 10694058121, 7745676471, 268716493], "tags": {"highway": "primary", "lanes": "2", "maxspeed": "60", "name": "Dawson Parade", "network": "AU:QLD:S", "oneway": "yes", "ref": "40", "source:maxspeed": "sign", "surface": "asphalt"}}, {"type": "way", "id": 1149545802, "nodes": [1928449896, 10694058122, 482341195, 10694058179], "tags": {"highway": "primary", "lanes": "2", "maxspeed": "60", "name": "Dawson Parade", "network": "AU:QLD:S", "oneway": "yes", "ref": "40", "source:maxspeed": "sign", "surface": "asphalt"}}]}