{"version": 0.6, "generator": "Overpass API 0.7.61.5 4133829e", "osm3s": {"timestamp_osm_base": "2023-12-06T13:17:00Z", "copyright": "The data included in this document is from www.openstreetmap.org. The data is made available under ODbL."}, "elements": [{"type": "node", "id": 26349898, "lat": -27.7275307, "lon": 153.2223632}, {"type": "node", "id": 26349899, "lat": -27.727663, "lon": 153.2221223}, {"type": "node", "id": 26349971, "lat": -27.7351777, "lon": 153.2281732}, {"type": "node", "id": 26349972, "lat": -27.7356457, "lon": 153.2285236}, {"type": "node", "id": 26349977, "lat": -27.7286698, "lon": 153.2229095}, {"type": "node", "id": 26349979, "lat": -27.7380142, "lon": 153.2301836}, {"type": "node", "id": 26349980, "lat": -27.7394567, "lon": 153.2309933}, {"type": "node", "id": 1423940310, "lat": -27.7391448, "lon": 153.230507}, {"type": "node", "id": 1577984207, "lat": -27.7284523, "lon": 153.2231043}, {"type": "node", "id": 1577984210, "lat": -27.7319486, "lon": 153.225732, "tags": {"highway": "motorway_junction", "ref": "38"}}, {"type": "node", "id": 1577984211, "lat": -27.7323249, "lon": 153.225671}, {"type": "node", "id": 1577984218, "lat": -27.7352604, "lon": 153.227915}, {"type": "node", "id": 1577984226, "lat": -27.7357402, "lon": 153.2282686}, {"type": "node", "id": 1577984237, "lat": -27.7368176, "lon": 153.2293624}, {"type": "node", "id": 1577984238, "lat": -27.7369006, "lon": 153.2290608}, {"type": "node", "id": 1577984254, "lat": -27.7388612, "lon": 153.2303288, "tags": {"highway": "motorway_junction", "ref": "38"}}, {"type": "node", "id": 5525123510, "lat": -27.7298863, "lon": 153.224182}, {"type": "way", "id": 144215112, "nodes": [26349971, 26349972], "tags": {"bridge": "yes", "highway": "motorway", "lanes": "4", "layer": "1", "maxspeed": "110", "name": "Pacific Motorway", "network": "AU:QLD", "oneway": "yes", "ref": "M1", "surface": "asphalt"}}, {"type": "way", "id": 144215113, "nodes": [1577984226, 1577984218], "tags": {"bridge": "yes", "highway": "motorway", "lanes": "4", "layer": "1", "maxspeed": "110", "name": "Pacific Motorway", "network": "AU:QLD", "oneway": "yes", "ref": "M1", "surface": "asphalt"}}, {"type": "way", "id": 144215114, "nodes": [1423940310, 1577984254, 1577984238, 1577984226], "tags": {"highway": "motorway", "lanes": "4", "maxspeed": "110", "name": "Pacific Motorway", "network": "AU:QLD", "oneway": "yes", "ref": "M1", "surface": "concrete"}}, {"type": "way", "id": 144215115, "nodes": [1577984218, 1577984211, 26349977], "tags": {"highway": "motorway", "lanes": "4", "maxspeed": "110", "name": "Pacific Motorway", "network": "AU:QLD", "oneway": "yes", "ref": "M1", "surface": "concrete"}}, {"type": "way", "id": 144215116, "nodes": [26349898, 1577984207, 5525123510], "tags": {"highway": "motorway", "lanes": "4", "maxspeed": "110", "name": "Pacific Motorway", "network": "AU:QLD", "oneway": "yes", "ref": "M1", "surface": "asphalt"}}, {"type": "way", "id": 144215117, "nodes": [26349972, 1577984237, 26349979, 26349980], "tags": {"highway": "motorway", "lanes": "4", "maxspeed": "110", "name": "Pacific Motorway", "network": "AU:QLD", "oneway": "yes", "ref": "M1", "surface": "concrete"}}, {"type": "way", "id": 575920496, "nodes": [26349977, 26349899], "tags": {"highway": "motorway", "lanes": "4", "maxspeed": "110", "name": "Pacific Motorway", "network": "AU:QLD", "oneway": "yes", "ref": "M1", "surface": "asphalt"}}, {"type": "way", "id": 575920528, "nodes": [5525123510, 1577984210, 26349971], "tags": {"highway": "motorway", "lanes": "4", "maxspeed": "110", "name": "Pacific Motorway", "network": "AU:QLD", "oneway": "yes", "ref": "M1", "surface": "concrete"}}]}