{"version": 0.6, "generator": "Overpass API 0.7.61.5 4133829e", "osm3s": {"timestamp_osm_base": "2023-12-06T09:23:30Z", "copyright": "The data included in this document is from www.openstreetmap.org. The data is made available under ODbL."}, "elements": [{"type": "node", "id": 28836933, "lat": -34.0289923, "lon": 151.0598932}, {"type": "node", "id": 28836934, "lat": -34.0287857, "lon": 151.0586027}, {"type": "node", "id": 29004194, "lat": -34.0305547, "lon": 151.0643042}, {"type": "node", "id": 29023609, "lat": -34.0309873, "lon": 151.0652064}, {"type": "node", "id": 29029571, "lat": -34.0290561, "lon": 151.0598759}, {"type": "node", "id": 29029572, "lat": -34.0288458, "lon": 151.0585891}, {"type": "node", "id": 29029573, "lat": -34.0299963, "lon": 151.0625423}, {"type": "node", "id": 29892467, "lat": -34.0252116, "lon": 151.0558613}, {"type": "node", "id": 34651072, "lat": -34.0291979, "lon": 151.0606252}, {"type": "node", "id": 34651073, "lat": -34.0293268, "lon": 151.0607979}, {"type": "node", "id": 36048487, "lat": -34.0280495, "lon": 151.0554099}, {"type": "node", "id": 36048505, "lat": -34.0290849, "lon": 151.0602631}, {"type": "node", "id": 36048508, "lat": -34.0258896, "lon": 151.0558401}, {"type": "node", "id": 36048510, "lat": -34.0248134, "lon": 151.0558404}, {"type": "node", "id": 36048533, "lat": -34.0253578, "lon": 151.0559555}, {"type": "node", "id": 36048536, "lat": -34.0252026, "lon": 151.0559817}, {"type": "node", "id": 36048539, "lat": -34.024937, "lon": 151.0559874}, {"type": "node", "id": 36048542, "lat": -34.024817, "lon": 151.0559699}, {"type": "node", "id": 36048565, "lat": -34.0249587, "lon": 151.0558582}, {"type": "node", "id": 287745332, "lat": -34.0259765, "lon": 151.0557008}, {"type": "node", "id": 631930485, "lat": -34.0283855, "lon": 151.0558678}, {"type": "node", "id": 638338637, "lat": -34.0285053, "lon": 151.0566912}, {"type": "node", "id": 638338638, "lat": -34.0285844, "lon": 151.0566771}, {"type": "node", "id": 639561466, "lat": -34.0294999, "lon": 151.0612574}, {"type": "node", "id": 639561467, "lat": -34.0291401, "lon": 151.0602228}, {"type": "node", "id": 1253245189, "lat": -34.0258179, "lon": 151.0557319}, {"type": "node", "id": 1253245217, "lat": -34.0258084, "lon": 151.0558619, "tags": {"highway": "traffic_signals", "traffic_signals:direction": "forward"}}, {"type": "node", "id": 1832703092, "lat": -34.0255074, "lon": 151.0557971}, {"type": "node", "id": 1832703093, "lat": -34.0292316, "lon": 151.0605273}, {"type": "node", "id": 1832703094, "lat": -34.0294848, "lon": 151.061426}, {"type": "node", "id": 1832703095, "lat": -34.0297294, "lon": 151.0620869}, {"type": "node", "id": 1832703096, "lat": -34.0299585, "lon": 151.0627363}, {"type": "node", "id": 1832707887, "lat": -34.0303809, "lon": 151.0635245}, {"type": "node", "id": 1832707888, "lat": -34.030476, "lon": 151.063762}, {"type": "node", "id": 1832713227, "lat": -34.0264796, "lon": 151.0555904}, {"type": "node", "id": 1832713231, "lat": -34.0272376, "lon": 151.0554192}, {"type": "node", "id": 1832713233, "lat": -34.027901, "lon": 151.0552845}, {"type": "node", "id": 1832713234, "lat": -34.027983, "lon": 151.0552668}, {"type": "node", "id": 1832731039, "lat": -34.0296766, "lon": 151.0617456}, {"type": "node", "id": 1832775491, "lat": -34.0295833, "lon": 151.0614811}, {"type": "node", "id": 1832776006, "lat": -34.0288655, "lon": 151.0591624}, {"type": "node", "id": 1833711306, "lat": -34.0282688, "lon": 151.0552656}, {"type": "node", "id": 1833711307, "lat": -34.0283028, "lon": 151.055404}, {"type": "node", "id": 1833711310, "lat": -34.0283778, "lon": 151.0552857}, {"type": "node", "id": 1833711311, "lat": -34.0283985, "lon": 151.0553981}, {"type": "node", "id": 1842080879, "lat": -34.0300733, "lon": 151.0630383}, {"type": "node", "id": 1842187372, "lat": -34.0250498, "lon": 151.0559922}, {"type": "node", "id": 2195481923, "lat": -34.0259934, "lon": 151.055818}, {"type": "node", "id": 2279006952, "lat": -34.0272213, "lon": 151.0555683}, {"type": "node", "id": 2279006955, "lat": -34.0277153, "lon": 151.0554695}, {"type": "node", "id": 2279006956, "lat": -34.0277879, "lon": 151.0554535}, {"type": "node", "id": 2279006957, "lat": -34.0278706, "lon": 151.0554383}, {"type": "node", "id": 2279006958, "lat": -34.0279559, "lon": 151.0554256}, {"type": "node", "id": 2279006959, "lat": -34.0281507, "lon": 151.0552506}, {"type": "node", "id": 3996255660, "lat": -34.0284165, "lon": 151.0555157, "tags": {"crossing": "traffic_signals", "highway": "traffic_signals", "traffic_signals:direction": "forward"}}, {"type": "node", "id": 3996255662, "lat": -34.0258929, "lon": 151.0557175}, {"type": "node", "id": 3996255664, "lat": -34.0281132, "lon": 151.0554043, "tags": {"highway": "traffic_signals", "traffic_signals:direction": "forward"}}, {"type": "node", "id": 3996255666, "lat": -34.0260638, "lon": 151.0556809, "tags": {"highway": "traffic_signals", "traffic_signals:direction": "forward"}}, {"type": "node", "id": 5629920366, "lat": -34.0300994, "lon": 151.0631059}, {"type": "node", "id": 7322097936, "lat": -34.0303684, "lon": 151.0638174}, {"type": "node", "id": 8954183644, "lat": -34.0283272, "lon": 151.0555336, "tags": {"crossing": "traffic_signals", "highway": "crossing"}}, {"type": "node", "id": 8991707999, "lat": -34.0289228, "lon": 151.0595308}, {"type": "node", "id": 8991708000, "lat": -34.028925, "lon": 151.0591388}, {"type": "node", "id": 8991708001, "lat": -34.0289858, "lon": 151.05953}, {"type": "node", "id": 8991708002, "lat": -34.0293448, "lon": 151.0610439}, {"type": "node", "id": 9276665416, "lat": -34.0280599, "lon": 151.0552539}, {"type": "node", "id": 9276690718, "lat": -34.0250898, "lon": 151.0558675}, {"type": "node", "id": 9276690719, "lat": -34.0253595, "lon": 151.0558292}, {"type": "node", "id": 9954106793, "lat": -34.0309106, "lon": 151.0653201}, {"type": "node", "id": 9954106801, "lat": -34.0308358, "lon": 151.0651067}, {"type": "node", "id": 9954114628, "lat": -34.0304485, "lon": 151.0636885}, {"type": "node", "id": 9954114650, "lat": -34.030272, "lon": 151.0635655}, {"type": "node", "id": 9954114653, "lat": -34.0301935, "lon": 151.0633565}, {"type": "node", "id": 9954114662, "lat": -34.0303286, "lon": 151.063713}, {"type": "node", "id": 10228055953, "lat": -34.0253108, "lon": 151.0559634}, {"type": "node", "id": 10228055955, "lat": -34.0250638, "lon": 151.0559912}, {"type": "way", "id": 4570741, "nodes": [28836934, 1832776006, 8991707999, 28836933], "tags": {"bridge": "yes", "foot": "no", "highway": "primary", "lanes": "2", "layer": "1", "maxspeed": "70", "name": "The Grand Parade", "oneway": "yes", "surface": "asphalt"}}, {"type": "way", "id": 4590770, "nodes": [29029571, 8991708001, 8991708000, 29029572], "tags": {"bridge": "yes", "foot": "no", "highway": "primary", "lanes": "2", "layer": "1", "maxspeed": "70", "name": "The Grand Parade", "oneway": "yes", "surface": "asphalt"}}, {"type": "way", "id": 4590771, "nodes": [29029572, 638338638], "tags": {"highway": "primary", "lanes": "2", "maxspeed": "70", "name": "The Grand Parade", "oneway": "yes", "source": "survey", "surface": "concrete"}}, {"type": "way", "id": 5086559, "nodes": [29029573, 1832731039, 1832775491, 639561466, 34651073, 1832703093, 639561467, 29029571], "tags": {"highway": "primary", "lanes": "2", "maxspeed": "70", "name": "The Grand Parade", "oneway": "yes", "source": "nearmap", "source_ref:name": "http://img507.imageshack.us/img507/1716/gopr4374.jpg", "surface": "asphalt"}}, {"type": "way", "id": 49719960, "nodes": [36048542, 36048539, 1842187372, 10228055955, 36048536, 10228055953, 36048533, 1253245217, 36048508], "tags": {"highway": "primary", "lanes": "2", "maxspeed": "60", "name": "Linden Street", "oneway": "yes", "sidewalk": "left", "surface": "asphalt"}}, {"type": "way", "id": 50218036, "nodes": [638338638, 3996255660, 1833711311], "tags": {"highway": "primary", "lanes": "3", "maxspeed": "60", "name": "The Grand Parade", "oneway": "yes", "source": "survey", "surface": "asphalt"}}, {"type": "way", "id": 50218037, "nodes": [638338637, 28836934], "tags": {"highway": "primary", "lanes": "2", "maxspeed": "70", "name": "The Grand Parade", "oneway": "yes", "source": "survey", "surface": "asphalt"}}, {"type": "way", "id": 172361087, "nodes": [28836933, 36048505, 34651072, 8991708002, 1832703094, 1832703095, 1832703096, 1842080879], "tags": {"highway": "primary", "lanes": "2", "maxspeed": "70", "name": "The Grand Parade", "oneway": "yes", "source": "nearmap", "surface": "asphalt"}}, {"type": "way", "id": 172464926, "nodes": [1833711306, 2279006959, 9276665416, 1832713234, 1832713233, 1832713231], "tags": {"cycleway:left": "no", "highway": "primary", "lanes": "2", "maxspeed": "60", "name": "Linden Street", "oneway": "yes", "sidewalk": "left", "surface": "asphalt"}}, {"type": "way", "id": 172464927, "nodes": [1833711306, 1833711307], "tags": {"cycleway:left": "no", "highway": "primary", "lanes": "1", "maxspeed": "60", "name": "The Grand Parade", "oneway": "yes", "source": "survey", "surface": "asphalt"}}, {"type": "way", "id": 173394342, "nodes": [1842080879, 5629920366, 9954114653, 9954114650, 9954114662, 7322097936], "tags": {"highway": "primary", "lanes": "3", "maxspeed": "70", "name": "Old Princes Highway", "oneway": "yes", "sidewalk": "left", "source": "nearmap", "surface": "asphalt"}}, {"type": "way", "id": 218671050, "nodes": [1832713231, 1832713227, 3996255666], "tags": {"highway": "primary", "lanes": "3", "maxspeed": "60", "name": "Linden Street", "oneway": "yes", "sidewalk": "left", "surface": "asphalt", "turn:lanes": "none|none|right"}}, {"type": "way", "id": 218671051, "nodes": [3996255662, 1253245189, 1832703092, 9276690719, 29892467, 9276690718, 36048565, 36048510], "tags": {"highway": "primary", "lanes": "2", "maxspeed": "60", "name": "Linden Street", "oneway": "yes", "sidewalk": "left", "surface": "asphalt"}}, {"type": "way", "id": 218671052, "nodes": [2279006952, 2279006955, 2279006956, 2279006957, 2279006958, 36048487, 3996255664, 1833711307], "tags": {"cycleway:left": "no", "highway": "primary", "lanes": "4", "maxspeed": "60", "name": "Linden Street", "oneway": "yes", "sidewalk": "left", "surface": "asphalt", "turn:lanes": "left|left|through|right"}}, {"type": "way", "id": 255872667, "nodes": [36048508, 2195481923], "tags": {"highway": "primary", "lanes": "2", "maxspeed": "60", "name": "Linden Street", "oneway": "yes", "sidewalk": "left", "surface": "paved"}}, {"type": "way", "id": 569080640, "nodes": [287745332, 3996255662], "tags": {"highway": "primary", "lanes": "2", "maxspeed": "60", "name": "Linden Street", "oneway": "yes", "sidewalk": "left", "surface": "paved"}}, {"type": "way", "id": 575042545, "nodes": [1833711307, 1833711311], "tags": {"highway": "primary", "lanes": "4", "maxspeed": "60", "name": "Linden Street", "oneway": "yes", "sidewalk": "left", "surface": "asphalt", "turn:lanes": "left|left|through|right"}}, {"type": "way", "id": 575042546, "nodes": [1833711307, 8954183644, 631930485], "tags": {"cycleway:left": "no", "highway": "primary", "lanes": "2", "maxspeed": "60", "name": "The Grand Parade", "oneway": "yes", "source": "survey", "surface": "asphalt"}}, {"type": "way", "id": 575042547, "nodes": [1833711310, 1833711306], "tags": {"highway": "primary", "lanes": "3", "maxspeed": "60", "name": "Linden Street", "oneway": "yes", "sidewalk": "left", "surface": "asphalt"}}, {"type": "way", "id": 575042548, "nodes": [1833711311, 1833711310], "tags": {"highway": "primary", "lanes": "2", "maxspeed": "60", "name": "The Grand Parade", "oneway": "yes", "source": "survey", "surface": "asphalt"}}, {"type": "way", "id": 575042791, "nodes": [2195481923, 2279006952], "tags": {"highway": "primary", "lanes": "2", "maxspeed": "60", "name": "Linden Street", "oneway": "yes", "sidewalk": "left", "surface": "asphalt"}}, {"type": "way", "id": 575042792, "nodes": [3996255666, 287745332], "tags": {"highway": "primary", "lanes": "3", "maxspeed": "60", "name": "Linden Street", "oneway": "yes", "sidewalk": "left", "surface": "asphalt", "turn:lanes": "none|none|right"}}, {"type": "way", "id": 664136536, "nodes": [29023609, 1832707888, 9954114628, 1832707887], "tags": {"highway": "primary", "lanes": "3", "maxspeed": "70", "name": "Old Princes Highway", "oneway": "yes", "sidewalk": "left", "source": "NSW LPI Imagery", "surface": "asphalt"}}, {"type": "way", "id": 738615806, "nodes": [631930485, 638338637], "tags": {"cycleway:left": "no", "highway": "primary", "lanes": "2", "maxspeed": "60", "name": "The Grand Parade", "oneway": "yes", "source": "survey", "surface": "asphalt"}}, {"type": "way", "id": 783900339, "nodes": [1832707887, 29029573], "tags": {"highway": "primary", "lanes": "3", "maxspeed": "70", "name": "Old Princes Highway", "oneway": "yes", "sidewalk": "left", "source": "NSW LPI Imagery", "surface": "asphalt"}}, {"type": "way", "id": 783900341, "nodes": [7322097936, 29004194, 9954106801, 9954106793], "tags": {"highway": "primary", "lanes": "3", "maxspeed": "70", "name": "Old Princes Highway", "oneway": "yes", "sidewalk": "left", "source": "nearmap", "surface": "asphalt"}}]}