{"version": 0.6, "generator": "Overpass API 0.7.61.5 4133829e", "osm3s": {"timestamp_osm_base": "2023-12-06T10:52:30Z", "copyright": "The data included in this document is from www.openstreetmap.org. The data is made available under ODbL."}, "elements": [{"type": "node", "id": 33082050, "lat": -34.4472218, "lon": 150.8515912}, {"type": "node", "id": 33085050, "lat": -34.4498425, "lon": 150.8492924, "tags": {"highway": "traffic_signals"}}, {"type": "node", "id": 34230443, "lat": -34.4497568, "lon": 150.8493762, "tags": {"highway": "traffic_signals"}}, {"type": "node", "id": 250639848, "lat": -34.4485607, "lon": 150.8505182}, {"type": "node", "id": 250639851, "lat": -34.4503476, "lon": 150.8488239}, {"type": "node", "id": 250639860, "lat": -34.4510605, "lon": 150.8481454}, {"type": "node", "id": 250639862, "lat": -34.4518064, "lon": 150.8474844}, {"type": "node", "id": 250639864, "lat": -34.4537646, "lon": 150.8458284}, {"type": "node", "id": 251729393, "lat": -34.4545941, "lon": 150.8451244, "tags": {"ref": "2690", "start_date": "1993-10-15"}}, {"type": "node", "id": 257687782, "lat": -34.4529095, "lon": 150.8465553}, {"type": "node", "id": 270404783, "lat": -34.4491081, "lon": 150.8499918}, {"type": "node", "id": 270404829, "lat": -34.4518882, "lon": 150.847412}, {"type": "node", "id": 270404831, "lat": -34.4526336, "lon": 150.8467847}, {"type": "node", "id": 288707230, "lat": -34.4552083, "lon": 150.8445981, "tags": {"crossing": "traffic_signals", "ref": "0498", "start_date": "1968-12-05"}}, {"type": "node", "id": 290322119, "lat": -34.4507182, "lon": 150.8508935}, {"type": "node", "id": 290322120, "lat": -34.4507978, "lon": 150.8508184}, {"type": "node", "id": 290322123, "lat": -34.4510389, "lon": 150.8514085}, {"type": "node", "id": 290322125, "lat": -34.4511141, "lon": 150.8513307}, {"type": "node", "id": 298609627, "lat": -34.457551, "lon": 150.8423274}, {"type": "node", "id": 298610044, "lat": -34.4561661, "lon": 150.8436254, "tags": {"ref": "4960", "start_date": "2020-01-24"}}, {"type": "node", "id": 349865331, "lat": -34.4522314, "lon": 150.8534856}, {"type": "node", "id": 641960352, "lat": -34.4526207, "lon": 150.8540703}, {"type": "node", "id": 641960360, "lat": -34.4520589, "lon": 150.8529062}, {"type": "node", "id": 641960366, "lat": -34.4519129, "lon": 150.8526541}, {"type": "node", "id": 641960390, "lat": -34.4515811, "lon": 150.8522839}, {"type": "node", "id": 641960395, "lat": -34.4519527, "lon": 150.8529116}, {"type": "node", "id": 641960403, "lat": -34.4524747, "lon": 150.8540274}, {"type": "node", "id": 641960407, "lat": -34.4526959, "lon": 150.8546283}, {"type": "node", "id": 661057445, "lat": -34.4500104, "lon": 150.849547}, {"type": "node", "id": 661057447, "lat": -34.4499706, "lon": 150.8494075}, {"type": "node", "id": 661057450, "lat": -34.4499684, "lon": 150.849319, "tags": {"highway": "crossing"}}, {"type": "node", "id": 661057451, "lat": -34.4499883, "lon": 150.8492439}, {"type": "node", "id": 661057452, "lat": -34.4500601, "lon": 150.8491044}, {"type": "node", "id": 661057457, "lat": -34.4495848, "lon": 150.8495452}, {"type": "node", "id": 661057459, "lat": -34.4496659, "lon": 150.8495229}, {"type": "node", "id": 661057463, "lat": -34.4497645, "lon": 150.8495235, "tags": {"highway": "crossing"}}, {"type": "node", "id": 661057465, "lat": -34.4498269, "lon": 150.8495604}, {"type": "node", "id": 661057467, "lat": -34.4499252, "lon": 150.8496232}, {"type": "node", "id": 661057875, "lat": -34.456585, "lon": 150.8432197}, {"type": "node", "id": 1153875508, "lat": -34.4514451, "lon": 150.8518791}, {"type": "node", "id": 1153875509, "lat": -34.4513707, "lon": 150.8519442}, {"type": "node", "id": 1153875515, "lat": -34.4528053, "lon": 150.8545859}, {"type": "node", "id": 1841722471, "lat": -34.4474358, "lon": 150.8516395}, {"type": "node", "id": 1841722476, "lat": -34.4473053, "lon": 150.8517656}, {"type": "node", "id": 1841722478, "lat": -34.4473598, "lon": 150.8515077}, {"type": "node", "id": 1841722481, "lat": -34.4474106, "lon": 150.8515494}, {"type": "node", "id": 1841722488, "lat": -34.4472329, "lon": 150.8515631}, {"type": "node", "id": 1841722492, "lat": -34.4472163, "lon": 150.8516216}, {"type": "node", "id": 1841722513, "lat": -34.4472374, "lon": 150.8517139}, {"type": "node", "id": 1841722516, "lat": -34.4472796, "lon": 150.8517556}, {"type": "node", "id": 1841722519, "lat": -34.4474208, "lon": 150.8517019}, {"type": "node", "id": 1841722541, "lat": -34.4473322, "lon": 150.8517678}, {"type": "node", "id": 1841722545, "lat": -34.4474315, "lon": 150.8516718}, {"type": "node", "id": 1841722548, "lat": -34.4474045, "lon": 150.8517279}, {"type": "node", "id": 1841722549, "lat": -34.4473588, "lon": 150.8517619}, {"type": "node", "id": 1841722592, "lat": -34.4474335, "lon": 150.8516069}, {"type": "node", "id": 1841722613, "lat": -34.4473833, "lon": 150.8517483}, {"type": "node", "id": 1841722620, "lat": -34.4472491, "lon": 150.851539}, {"type": "node", "id": 1944098526, "lat": -34.4540232, "lon": 150.8456072}, {"type": "node", "id": 5589080127, "lat": -34.4475453, "lon": 150.8514487, "tags": {"fixme": "unkown type of water crossing"}}, {"type": "node", "id": 5589080128, "lat": -34.4475275, "lon": 150.8514635}, {"type": "node", "id": 6163640710, "lat": -34.4472239, "lon": 150.8516849}, {"type": "node", "id": 6163640711, "lat": -34.4472563, "lon": 150.851738}, {"type": "node", "id": 6163640712, "lat": -34.4473801, "lon": 150.8515185}, {"type": "node", "id": 6163640713, "lat": -34.4473382, "lon": 150.851502}, {"type": "node", "id": 6163640714, "lat": -34.4472688, "lon": 150.8515204}, {"type": "node", "id": 6163640715, "lat": -34.4472915, "lon": 150.8515078}, {"type": "node", "id": 6163640720, "lat": -34.4472168, "lon": 150.8516527}, {"type": "node", "id": 6163640722, "lat": -34.447316, "lon": 150.8515017}, {"type": "node", "id": 6163805652, "lat": -34.4474284, "lon": 150.8515863}, {"type": "node", "id": 6163805653, "lat": -34.4474207, "lon": 150.851567}, {"type": "node", "id": 6163805654, "lat": -34.4473982, "lon": 150.851534}, {"type": "node", "id": 6163805655, "lat": -34.4474266, "lon": 150.851521}, {"type": "node", "id": 6163805656, "lat": -34.4474874, "lon": 150.8514895}, {"type": "node", "id": 6163829753, "lat": -34.4485147, "lon": 150.850435}, {"type": "node", "id": 6163829754, "lat": -34.4497111, "lon": 150.8492946}, {"type": "node", "id": 6163829755, "lat": -34.449793, "lon": 150.8492144}, {"type": "node", "id": 6163829756, "lat": -34.4502838, "lon": 150.8487326}, {"type": "node", "id": 6163829757, "lat": -34.4509727, "lon": 150.8482068}, {"type": "node", "id": 6163829758, "lat": -34.4507244, "lon": 150.8483697}, {"type": "node", "id": 6163829759, "lat": -34.4505254, "lon": 150.848524}, {"type": "node", "id": 6163829760, "lat": -34.4499467, "lon": 150.8490529}, {"type": "node", "id": 6163829761, "lat": -34.4493265, "lon": 150.8496478}, {"type": "node", "id": 6163829762, "lat": -34.4490533, "lon": 150.8499016}, {"type": "node", "id": 6163829763, "lat": -34.4485701, "lon": 150.8503814}, {"type": "node", "id": 6163829764, "lat": -34.4483412, "lon": 150.8506067}, {"type": "node", "id": 6163829765, "lat": -34.4481885, "lon": 150.8507824}, {"type": "node", "id": 6163829766, "lat": -34.4481764, "lon": 150.8508199}, {"type": "node", "id": 6163829767, "lat": -34.448188, "lon": 150.8508441}, {"type": "node", "id": 6163829768, "lat": -34.4481753, "lon": 150.8508481}, {"type": "node", "id": 6163829769, "lat": -34.447989, "lon": 150.8510231}, {"type": "node", "id": 6163829770, "lat": -34.4482079, "lon": 150.850838}, {"type": "node", "id": 6163829771, "lat": -34.4487697, "lon": 150.8503177}, {"type": "node", "id": 6163829772, "lat": -34.4501837, "lon": 150.8489845}, {"type": "node", "id": 6163829773, "lat": -34.4505417, "lon": 150.8486493}, {"type": "node", "id": 6163829774, "lat": -34.4507958, "lon": 150.8484239}, {"type": "node", "id": 6163829775, "lat": -34.4509829, "lon": 150.8482296}, {"type": "node", "id": 6163829776, "lat": -34.4510269, "lon": 150.8481734}, {"type": "node", "id": 7345589799, "lat": -34.452616, "lon": 150.8544113}, {"type": "node", "id": 7814125050, "lat": -34.4542021, "lon": 150.8454545}, {"type": "node", "id": 7814125053, "lat": -34.4544169, "lon": 150.845273}, {"type": "node", "id": 7814125070, "lat": -34.4550793, "lon": 150.8447054}, {"type": "node", "id": 7814125073, "lat": -34.4549646, "lon": 150.8448071}, {"type": "node", "id": 8165997781, "lat": -34.449832, "lon": 150.8491786}, {"type": "node", "id": 8165997782, "lat": -34.4498805, "lon": 150.849257}, {"type": "node", "id": 8165997785, "lat": -34.4498892, "lon": 150.8493631}, {"type": "node", "id": 8165997786, "lat": -34.4498033, "lon": 150.8494443}, {"type": "node", "id": 9342549968, "lat": -34.4546581, "lon": 150.8450652, "tags": {"crossing": "traffic_signals", "highway": "crossing"}}, {"type": "node", "id": 9342549969, "lat": -34.454472, "lon": 150.8452272, "tags": {"crossing": "traffic_signals", "highway": "crossing"}}, {"type": "node", "id": 9342567723, "lat": -34.4576519, "lon": 150.842238}, {"type": "node", "id": 11297217511, "lat": -34.4504055, "lon": 150.8486224}, {"type": "node", "id": 11297276386, "lat": -34.4552853, "lon": 150.8445247, "tags": {"highway": "traffic_signals", "traffic_signals": "signal", "traffic_signals:direction": "forward"}}, {"type": "node", "id": 11297276388, "lat": -34.455107, "lon": 150.8446823, "tags": {"highway": "traffic_signals", "traffic_signals": "signal", "traffic_signals:direction": "forward"}}, {"type": "node", "id": 11297276391, "lat": -34.4551314, "lon": 150.8446621, "tags": {"crossing": "traffic_signals", "highway": "crossing"}}, {"type": "node", "id": 11297276394, "lat": -34.4552636, "lon": 150.8445453, "tags": {"crossing": "traffic_signals", "highway": "crossing"}}, {"type": "node", "id": 11297294174, "lat": -34.4546828, "lon": 150.8450444, "tags": {"highway": "traffic_signals", "traffic_signals": "signal", "traffic_signals:direction": "backward"}}, {"type": "node", "id": 11297294175, "lat": -34.454451, "lon": 150.8452447, "tags": {"highway": "traffic_signals", "traffic_signals": "signal", "traffic_signals:direction": "forward"}}, {"type": "node", "id": 11297315885, "lat": -34.4561137, "lon": 150.8436789, "tags": {"crossing": "traffic_signals", "highway": "crossing"}}, {"type": "node", "id": 11297315888, "lat": -34.4562528, "lon": 150.8435415, "tags": {"crossing": "traffic_signals", "highway": "crossing"}}, {"type": "node", "id": 11297315889, "lat": -34.4562744, "lon": 150.843516, "tags": {"highway": "traffic_signals", "traffic_signals": "signal", "traffic_signals:direction": "forward"}}, {"type": "node", "id": 11297315891, "lat": -34.456092, "lon": 150.8437011, "tags": {"highway": "traffic_signals", "traffic_signals": "signal", "traffic_signals:direction": "backward"}}, {"type": "way", "id": 5070548, "nodes": [34230443, 8165997786, 661057467], "tags": {"highway": "primary", "maxspeed": "60", "name": "Five Islands Road", "oneway": "yes", "source": "survey", "surface": "paved"}}, {"type": "way", "id": 26350862, "nodes": [251729393, 9342549968, 11297294174, 7814125073, 7814125070, 11297276388, 11297276391, 288707230], "tags": {"highway": "primary", "maxspeed": "60", "name": "Princes Highway", "surface": "paved"}}, {"type": "way", "id": 51817378, "nodes": [661057445, 661057447, 661057450, 661057451, 661057452], "tags": {"highway": "primary", "maxspeed": "60", "name": "Five Islands Road", "oneway": "yes", "source": "survey", "surface": "paved"}}, {"type": "way", "id": 51817381, "nodes": [661057457, 661057459, 661057463, 661057465, 661057467], "tags": {"highway": "primary", "maxspeed": "60", "name": "Five Islands Road", "oneway": "yes", "source": "survey", "surface": "paved"}}, {"type": "way", "id": 78164355, "nodes": [250639860, 250639862, 270404829, 270404831, 257687782, 250639864], "tags": {"highway": "primary", "maxspeed": "60", "name": "Princes Highway", "surface": "asphalt"}}, {"type": "way", "id": 173336108, "nodes": [1841722592, 6163805652, 6163805653, 1841722481, 6163805654, 6163640712, 1841722478, 6163640713, 6163640722, 6163640715, 6163640714, 1841722620, 1841722488, 33082050, 1841722492, 6163640720, 6163640710, 1841722513, 6163640711, 1841722516, 1841722476, 1841722541, 1841722549, 1841722613, 1841722548, 1841722519, 1841722545, 1841722471, 1841722592], "tags": {"highway": "primary", "junction": "roundabout", "source:geometry": "LPI NSW Imagery", "surface": "paved"}}, {"type": "way", "id": 173337113, "nodes": [290322119, 290322123], "tags": {"bridge": "yes", "highway": "primary", "layer": "1", "maxspeed": "60", "name": "Five Islands Road", "oneway": "yes", "source": "survey", "surface": "paved"}}, {"type": "way", "id": 173337115, "nodes": [290322120, 661057445], "tags": {"highway": "primary", "maxspeed": "60", "name": "Five Islands Road", "oneway": "yes", "source": "survey", "surface": "paved"}}, {"type": "way", "id": 173337117, "nodes": [290322125, 290322120], "tags": {"bridge": "yes", "highway": "primary", "layer": "1", "maxspeed": "60", "name": "Five Islands Road", "oneway": "yes", "source": "survey", "surface": "paved"}}, {"type": "way", "id": 173337119, "nodes": [661057445, 8165997785, 33085050], "tags": {"highway": "primary", "maxspeed": "60", "name": "Five Islands Road", "oneway": "yes", "source": "survey", "surface": "paved"}}, {"type": "way", "id": 173337121, "nodes": [661057467, 290322119], "tags": {"highway": "primary", "maxspeed": "60", "name": "Five Islands Road", "oneway": "yes", "source": "survey", "surface": "paved"}}, {"type": "way", "id": 190901341, "nodes": [298610044, 11297315885, 11297315891, 11297276386, 11297276394, 288707230], "tags": {"highway": "primary", "maxspeed": "60", "name": "Princes Highway", "surface": "paved"}}, {"type": "way", "id": 571411784, "nodes": [5589080127, 6163829769, 6163829768], "tags": {"highway": "primary", "maxspeed": "60", "name": "Princes Highway", "surface": "asphalt"}}, {"type": "way", "id": 572483298, "nodes": [250639864, 1944098526, 7814125050, 7814125053, 11297294175, 9342549969, 251729393], "tags": {"highway": "primary", "maxspeed": "60", "name": "Princes Highway", "surface": "asphalt"}}, {"type": "way", "id": 584756149, "nodes": [5589080128, 5589080127], "tags": {"highway": "primary", "maxspeed": "60", "name": "Princes Highway", "surface": "asphalt"}}, {"type": "way", "id": 584756150, "nodes": [1841722592, 5589080128], "tags": {"highway": "primary", "name": "Princes Highway", "oneway": "yes", "source:geometry": "LPI NSW Imagery", "source:name": "LPI NSW Base Map", "surface": "asphalt"}}, {"type": "way", "id": 658179219, "nodes": [5589080128, 6163805656, 6163805655, 6163805654], "tags": {"highway": "primary", "name": "Princes Highway", "oneway": "yes", "source:geometry": "LPI NSW Imagery", "source:name": "LPI NSW Base Map", "surface": "asphalt"}}, {"type": "way", "id": 658182117, "nodes": [6163829776, 250639860], "tags": {"highway": "primary", "maxspeed": "60", "name": "Princes Highway", "surface": "asphalt"}}, {"type": "way", "id": 658182118, "nodes": [6163829754, 6163829761, 6163829762, 6163829763, 6163829753, 6163829764, 6163829765, 6163829766, 6163829768], "tags": {"highway": "primary", "maxspeed": "60", "name": "Princes Highway", "oneway": "yes", "source:geometry": "LPI NSW Imagery", "source:name": "LPI NSW Base Map", "surface": "asphalt"}}, {"type": "way", "id": 658182119, "nodes": [6163829768, 6163829767, 6163829770, 250639848, 6163829771, 270404783, 661057457], "tags": {"highway": "primary", "maxspeed": "60", "name": "Princes Highway", "oneway": "yes", "source:geometry": "LPI NSW Imagery", "surface": "asphalt"}}, {"type": "way", "id": 658182120, "nodes": [661057452, 6163829772, 250639851, 6163829773, 6163829774, 6163829775, 6163829776], "tags": {"highway": "primary", "maxspeed": "60", "name": "Princes Highway", "oneway": "yes", "source:geometry": "LPI NSW Imagery", "source:name": "LPI NSW Base Map", "surface": "asphalt"}}, {"type": "way", "id": 733020299, "nodes": [6163829776, 6163829757, 6163829758, 6163829759, 11297217511, 6163829756, 6163829760, 8165997781, 6163829755], "tags": {"highway": "primary", "maxspeed": "60", "name": "Princes Highway", "oneway": "yes", "source:geometry": "LPI NSW Imagery", "source:name": "LPI NSW Base Map", "surface": "asphalt"}}, {"type": "way", "id": 733022614, "nodes": [6163829755, 6163829754], "tags": {"highway": "primary", "maxspeed": "60", "name": "Princes Highway", "oneway": "yes", "source:geometry": "LPI NSW Imagery", "source:name": "LPI NSW Base Map", "surface": "asphalt"}}, {"type": "way", "id": 768385747, "nodes": [1153875508, 290322125], "tags": {"highway": "primary", "maxspeed": "60", "name": "Five Islands Road", "oneway": "yes", "source": "survey", "surface": "paved"}}, {"type": "way", "id": 768385748, "nodes": [290322123, 1153875509], "tags": {"highway": "primary", "maxspeed": "60", "name": "Five Islands Road", "oneway": "yes", "source": "survey", "surface": "paved"}}, {"type": "way", "id": 785795066, "nodes": [1153875509, 641960390, 641960395, 349865331, 641960403, 7345589799, 641960407], "tags": {"highway": "primary", "maxspeed": "80", "name": "Five Islands Road", "oneway": "yes", "source": "survey", "surface": "paved"}}, {"type": "way", "id": 785795067, "nodes": [1153875515, 641960352, 641960360, 641960366, 1153875508], "tags": {"highway": "primary", "maxspeed": "80", "name": "Five Islands Road", "oneway": "yes", "source": "survey", "surface": "paved"}}, {"type": "way", "id": 787253823, "nodes": [33085050, 8165997782, 661057452], "tags": {"highway": "primary", "maxspeed": "60", "name": "Princes Highway", "oneway": "yes", "source:geometry": "LPI NSW Imagery", "source:name": "LPI NSW Base Map", "surface": "asphalt"}}, {"type": "way", "id": 787253824, "nodes": [661057457, 34230443, 33085050], "tags": {"highway": "primary", "maxspeed": "60", "name": "Princes Highway", "oneway": "yes", "source:geometry": "LPI NSW Imagery", "source:name": "LPI NSW Base Map", "surface": "asphalt"}}, {"type": "way", "id": 1012657074, "nodes": [9342567723, 298609627, 661057875, 11297315889, 11297315888, 298610044], "tags": {"highway": "primary", "maxspeed": "60", "name": "Princes Highway", "surface": "paved"}}]}