{"version": 0.6, "generator": "Overpass API 0.7.61.5 4133829e", "osm3s": {"timestamp_osm_base": "2023-12-06T09:22:29Z", "copyright": "The data included in this document is from www.openstreetmap.org. The data is made available under ODbL."}, "elements": [{"type": "node", "id": 33037394, "lat": -33.9045069, "lon": 150.8976733}, {"type": "node", "id": 1838192442, "lat": -33.8982075, "lon": 150.89453}, {"type": "node", "id": 1838192467, "lat": -33.8988648, "lon": 150.8949427}, {"type": "node", "id": 1838192469, "lat": -33.9005899, "lon": 150.8957793}, {"type": "node", "id": 1838192471, "lat": -33.9012596, "lon": 150.8960574}, {"type": "node", "id": 1838192473, "lat": -33.902713, "lon": 150.8967385, "tags": {"highway": "traffic_signals"}}, {"type": "node", "id": 1838192475, "lat": -33.9030863, "lon": 150.8969467}, {"type": "node", "id": 1838192477, "lat": -33.9037714, "lon": 150.8972888}, {"type": "node", "id": 1838192480, "lat": -33.9052433, "lon": 150.8979059}, {"type": "node", "id": 1838192482, "lat": -33.9070361, "lon": 150.8984413}, {"type": "node", "id": 1844261047, "lat": -33.9065309, "lon": 150.8982769}, {"type": "node", "id": 1844261116, "lat": -33.9077161, "lon": 150.898655, "tags": {"highway": "traffic_signals"}}, {"type": "node", "id": 1844480922, "lat": -33.899063, "lon": 150.8950388}, {"type": "node", "id": 3761074998, "lat": -33.8979464, "lon": 150.8943274}, {"type": "node", "id": 4391058542, "lat": -33.9041863, "lon": 150.8975302}, {"type": "node", "id": 6819261431, "lat": -33.9017469, "lon": 150.8962857}, {"type": "way", "id": 372542935, "nodes": [6819261431, 1838192471, 1838192469, 1844480922], "tags": {"cycleway:left": "track", "cycleway:left:segregated": "no", "cycleway:right": "no", "highway": "primary", "lanes": "4", "lit": "yes", "maxspeed": "60", "name": "Elizabeth Drive", "shoulder": "no", "sidewalk:left": "separate", "sidewalk:right": "yes", "surface": "asphalt"}}, {"type": "way", "id": 574217292, "nodes": [1838192467, 1838192442, 3761074998], "tags": {"cycleway:left": "separate", "cycleway:right": "no", "highway": "primary", "lanes": "4", "lit": "yes", "maxspeed": "60", "maxspeed:type": "sign", "name": "Elizabeth Drive", "shoulder": "no", "surface": "asphalt"}}, {"type": "way", "id": 574217293, "nodes": [1844480922, 1838192467], "tags": {"cycleway:left": "separate", "cycleway:right": "no", "highway": "primary", "lanes": "4", "lit": "yes", "maxspeed": "60", "maxspeed:type": "sign", "name": "Elizabeth Drive", "shoulder": "no", "surface": "asphalt"}}, {"type": "way", "id": 727666401, "nodes": [1838192473, 6819261431], "tags": {"cycleway:left": "separate", "cycleway:right": "no", "highway": "primary", "lanes:backward": "3", "lanes:forward": "2", "maxspeed": "60", "name": "Elizabeth Drive", "surface": "asphalt", "turn:lanes:backward": "none|none|right"}}, {"type": "way", "id": 727666402, "nodes": [1838192477, 1838192475, 1838192473], "tags": {"highway": "primary", "lanes:backward": "2", "lanes:forward": "3", "maxspeed": "60", "name": "Elizabeth Drive", "surface": "paved", "turn:lanes:forward": "none|none|right"}}, {"type": "way", "id": 727666403, "nodes": [1844261047, 1838192480, 33037394, 4391058542, 1838192477], "tags": {"highway": "primary", "lanes": "4", "lit": "yes", "maxspeed": "60", "name": "Elizabeth Drive", "surface": "asphalt"}}, {"type": "way", "id": 727666404, "nodes": [1844261116, 1838192482, 1844261047], "tags": {"highway": "primary", "lanes": "4", "lit": "yes", "maxspeed": "60", "name": "Elizabeth Drive", "shoulder": "no", "surface": "asphalt"}}]}