{"version": 0.6, "generator": "Overpass API 0.7.61.5 4133829e", "osm3s": {"timestamp_osm_base": "2023-12-08T07:33:56Z", "copyright": "The data included in this document is from www.openstreetmap.org. The data is made available under ODbL."}, "elements": [{"type": "node", "id": 31128466, "lat": -32.0716519, "lon": 115.8874003}, {"type": "node", "id": 31128467, "lat": -32.0701084, "lon": 115.8889765}, {"type": "node", "id": 31128469, "lat": -32.0673154, "lon": 115.8918352}, {"type": "node", "id": 31128470, "lat": -32.06654, "lon": 115.892701}, {"type": "node", "id": 31128471, "lat": -32.0660877, "lon": 115.8932336}, {"type": "node", "id": 32829980, "lat": -32.0671022, "lon": 115.8923558}, {"type": "node", "id": 32829981, "lat": -32.0680834, "lon": 115.8912004}, {"type": "node", "id": 32829982, "lat": -32.0716365, "lon": 115.8876627}, {"type": "node", "id": 32829983, "lat": -32.07383, "lon": 115.8855623}, {"type": "node", "id": 178636353, "lat": -32.0725361, "lon": 115.8934284}, {"type": "node", "id": 178636361, "lat": -32.0757987, "lon": 115.8977873}, {"type": "node", "id": 178636362, "lat": -32.0767572, "lon": 115.8991768}, {"type": "node", "id": 178637595, "lat": -32.0676862, "lon": 115.8877509}, {"type": "node", "id": 178639181, "lat": -32.0676907, "lon": 115.8880449}, {"type": "node", "id": 179995337, "lat": -32.0640809, "lon": 115.9024805}, {"type": "node", "id": 180013257, "lat": -32.0695204, "lon": 115.8960431}, {"type": "node", "id": 180015759, "lat": -32.0669518, "lon": 115.8990775}, {"type": "node", "id": 269351441, "lat": -32.0696871, "lon": 115.8900521}, {"type": "node", "id": 562614338, "lat": -32.0769923, "lon": 115.8995959}, {"type": "node", "id": 562614339, "lat": -32.0762511, "lon": 115.8983842}, {"type": "node", "id": 562614340, "lat": -32.0751182, "lon": 115.8969786}, {"type": "node", "id": 562615071, "lat": -32.0724164, "lon": 115.8935139}, {"type": "node", "id": 562615072, "lat": -32.072687, "lon": 115.8937644}, {"type": "node", "id": 562615073, "lat": -32.0729325, "lon": 115.8940095}, {"type": "node", "id": 589240162, "lat": -32.0687813, "lon": 115.890334}, {"type": "node", "id": 589247310, "lat": -32.0648828, "lon": 115.8947347}, {"type": "node", "id": 589247319, "lat": -32.0686422, "lon": 115.8891492, "tags": {"highway": "motorway_junction", "noref": "yes"}}, {"type": "node", "id": 589247329, "lat": -32.0688799, "lon": 115.8891161}, {"type": "node", "id": 589247341, "lat": -32.0698625, "lon": 115.8905763}, {"type": "node", "id": 589247415, "lat": -32.0652243, "lon": 115.8947551, "tags": {"highway": "motorway_junction", "noref": "yes"}}, {"type": "node", "id": 603554883, "lat": -32.0679245, "lon": 115.8880742}, {"type": "node", "id": 626579659, "lat": -32.0691651, "lon": 115.8894338, "tags": {"highway": "traffic_signals", "traffic_signals:direction": "forward"}}, {"type": "node", "id": 626579661, "lat": -32.069596, "lon": 115.8899374}, {"type": "node", "id": 626579665, "lat": -32.0695676, "lon": 115.8902135, "tags": {"highway": "traffic_signals", "traffic_signals:direction": "forward"}}, {"type": "node", "id": 914357724, "lat": -32.0683665, "lon": 115.8973796}, {"type": "node", "id": 914357815, "lat": -32.0699045, "lon": 115.8954031}, {"type": "node", "id": 914357817, "lat": -32.0655205, "lon": 115.9005924}, {"type": "node", "id": 951793533, "lat": -32.0719319, "lon": 115.8931123, "tags": {"crossing": "traffic_signals", "highway": "crossing"}}, {"type": "node", "id": 960926372, "lat": -32.0668704, "lon": 115.8989768}, {"type": "node", "id": 960926375, "lat": -32.069435, "lon": 115.8959505}, {"type": "node", "id": 960926378, "lat": -32.0656069, "lon": 115.9006743}, {"type": "node", "id": 960926380, "lat": -32.0639906, "lon": 115.9023873}, {"type": "node", "id": 1843461823, "lat": -32.0696624, "lon": 115.8903301}, {"type": "node", "id": 1843461825, "lat": -32.0697329, "lon": 115.8904221, "tags": {"bicycle": "no", "crossing": "traffic_signals", "highway": "crossing"}}, {"type": "node", "id": 1843461826, "lat": -32.0698699, "lon": 115.8902824, "tags": {"bicycle": "no", "crossing": "traffic_signals", "highway": "crossing"}}, {"type": "node", "id": 1843461835, "lat": -32.0728675, "lon": 115.893868}, {"type": "node", "id": 1843461837, "lat": -32.0731541, "lon": 115.8943706}, {"type": "node", "id": 1843461838, "lat": -32.0732526, "lon": 115.8858608, "tags": {"highway": "motorway_junction", "noref": "yes"}}, {"type": "node", "id": 1843461839, "lat": -32.0734566, "lon": 115.8948757}, {"type": "node", "id": 1843461840, "lat": -32.0738788, "lon": 115.8955197}, {"type": "node", "id": 1843461841, "lat": -32.0742278, "lon": 115.8959628}, {"type": "node", "id": 1843461842, "lat": -32.0742078, "lon": 115.885219}, {"type": "node", "id": 1878600533, "lat": -32.069527, "lon": 115.895845}, {"type": "node", "id": 1878600543, "lat": -32.0696127, "lon": 115.8959353}, {"type": "node", "id": 1964605342, "lat": -32.0675065, "lon": 115.887774}, {"type": "node", "id": 1964605351, "lat": -32.0717369, "lon": 115.8931451}, {"type": "node", "id": 1964605353, "lat": -32.0717446, "lon": 115.8933418}, {"type": "node", "id": 1964605377, "lat": -32.0716822, "lon": 115.8926538}, {"type": "node", "id": 1964605411, "lat": -32.0721792, "lon": 115.8932435}, {"type": "node", "id": 2032021839, "lat": -32.0709117, "lon": 115.8942054}, {"type": "node", "id": 2032021843, "lat": -32.071051, "lon": 115.8942253}, {"type": "node", "id": 2032021848, "lat": -32.0718773, "lon": 115.8926445}, {"type": "node", "id": 2032021854, "lat": -32.0719172, "lon": 115.8929336}, {"type": "node", "id": 2032021867, "lat": -32.0720011, "lon": 115.8930329}, {"type": "node", "id": 2032021869, "lat": -32.0720281, "lon": 115.8928106}, {"type": "node", "id": 2032021876, "lat": -32.0721148, "lon": 115.892906}, {"type": "node", "id": 2032021908, "lat": -32.0723558, "lon": 115.8931981}, {"type": "node", "id": 2034845769, "lat": -32.0718462, "lon": 115.8930057, "tags": {"crossing": "traffic_signals", "highway": "crossing"}}, {"type": "node", "id": 2046258517, "lat": -32.0711019, "lon": 115.8941639}, {"type": "node", "id": 2061577789, "lat": -32.0708006, "lon": 115.8916449}, {"type": "node", "id": 2061577812, "lat": -32.0709831, "lon": 115.8918532}, {"type": "node", "id": 2061577825, "lat": -32.0713753, "lon": 115.8936199}, {"type": "node", "id": 2069815786, "lat": -32.0702625, "lon": 115.894971}, {"type": "node", "id": 2069815792, "lat": -32.0703448, "lon": 115.8950724}, {"type": "node", "id": 2134732698, "lat": -32.0682497, "lon": 115.8887175}, {"type": "node", "id": 2134732731, "lat": -32.0722459, "lon": 115.8933253}, {"type": "node", "id": 2341562692, "lat": -32.0675253, "lon": 115.8874988, "tags": {"bicycle": "yes", "crossing": "traffic_signals", "highway": "crossing"}}, {"type": "node", "id": 2341562693, "lat": -32.0675378, "lon": 115.8875211, "tags": {"highway": "traffic_signals", "traffic_signals:direction": "forward"}}, {"type": "node", "id": 2341562718, "lat": -32.0688086, "lon": 115.8893323, "tags": {"highway": "traffic_signals", "traffic_signals:direction": "forward"}}, {"type": "node", "id": 2341562722, "lat": -32.0690398, "lon": 115.8895951}, {"type": "node", "id": 2341562727, "lat": -32.0690406, "lon": 115.8892952}, {"type": "node", "id": 2341562737, "lat": -32.0698875, "lon": 115.8903044, "tags": {"highway": "traffic_signals", "traffic_signals:direction": "forward"}}, {"type": "node", "id": 2391401352, "lat": -32.0718302, "lon": 115.8928307, "tags": {"highway": "traffic_signals", "traffic_signals:direction": "forward"}}, {"type": "node", "id": 2391401353, "lat": -32.0719052, "lon": 115.8931399, "tags": {"highway": "traffic_signals", "traffic_signals:direction": "forward"}}, {"type": "node", "id": 2391401354, "lat": -32.0722047, "lon": 115.8930051, "tags": {"highway": "traffic_signals", "traffic_signals:direction": "forward"}}, {"type": "node", "id": 2391653960, "lat": -32.0691971, "lon": 115.896425}, {"type": "node", "id": 2391653962, "lat": -32.0692828, "lon": 115.8961336}, {"type": "node", "id": 2391653970, "lat": -32.0694365, "lon": 115.8961462, "tags": {"highway": "traffic_signals", "traffic_signals:direction": "forward"}}, {"type": "node", "id": 2391653976, "lat": -32.0696027, "lon": 115.8957586, "tags": {"highway": "traffic_signals", "traffic_signals:direction": "forward"}}, {"type": "node", "id": 2391653983, "lat": -32.0698012, "lon": 115.895712}, {"type": "node", "id": 2391653984, "lat": -32.0698224, "lon": 115.8954929}, {"type": "node", "id": 2489430801, "lat": -32.071849, "lon": 115.8928529, "tags": {"bicycle": "no", "crossing": "traffic_signals", "highway": "crossing"}}, {"type": "node", "id": 2489430814, "lat": -32.0719705, "lon": 115.8927472, "tags": {"bicycle": "no", "crossing": "traffic_signals", "highway": "crossing"}}, {"type": "node", "id": 2489430835, "lat": -32.0720649, "lon": 115.8931083, "tags": {"bicycle": "no", "crossing": "traffic_signals", "highway": "crossing"}}, {"type": "node", "id": 2489430861, "lat": -32.0721846, "lon": 115.8929829, "tags": {"bicycle": "no", "crossing": "traffic_signals", "highway": "crossing"}}, {"type": "node", "id": 2499039611, "lat": -32.0674972, "lon": 115.8874484}, {"type": "node", "id": 2501520677, "lat": -32.0771201, "lon": 115.8998286}, {"type": "node", "id": 2502978364, "lat": -32.0700503, "lon": 115.8905095, "tags": {"highway": "motorway_junction", "noref": "yes"}}, {"type": "node", "id": 3261311284, "lat": -32.0674165, "lon": 115.8876318}, {"type": "node", "id": 4086514927, "lat": -32.0683621, "lon": 115.8885565}, {"type": "node", "id": 4086514928, "lat": -32.0693692, "lon": 115.8960277}, {"type": "node", "id": 4086514931, "lat": -32.0696668, "lon": 115.8958773}, {"type": "node", "id": 4086514933, "lat": -32.071245, "lon": 115.8939848}, {"type": "node", "id": 4086514934, "lat": -32.0713926, "lon": 115.8937999}, {"type": "node", "id": 4086514943, "lat": -32.0718381, "lon": 115.8930214}, {"type": "node", "id": 4086514950, "lat": -32.0719917, "lon": 115.8927705}, {"type": "node", "id": 4145406789, "lat": -32.0677994, "lon": 115.8879131}, {"type": "node", "id": 4145406790, "lat": -32.0678617, "lon": 115.8882612, "tags": {"traffic_sign": "AU:MR-GE-7 (L)"}}, {"type": "node", "id": 4640288389, "lat": -32.0692158, "lon": 115.8900358}, {"type": "node", "id": 4640288390, "lat": -32.0691525, "lon": 115.8899627}, {"type": "node", "id": 4640288392, "lat": -32.0696509, "lon": 115.8895899}, {"type": "node", "id": 4640288393, "lat": -32.0695853, "lon": 115.8895197}, {"type": "node", "id": 4752816079, "lat": -32.0708805, "lon": 115.891494}, {"type": "node", "id": 6285504220, "lat": -32.0691944, "lon": 115.8897709}, {"type": "node", "id": 6405521964, "lat": -32.0641215, "lon": 115.9022346, "tags": {"highway": "traffic_signals", "traffic_signals:direction": "forward"}}, {"type": "node", "id": 6814909900, "lat": -32.074579, "lon": 115.8963848}, {"type": "node", "id": 7346838859, "lat": -32.0704918, "lon": 115.8913012}, {"type": "node", "id": 7346838860, "lat": -32.0706894, "lon": 115.891275}, {"type": "node", "id": 9024429040, "lat": -32.0718243, "lon": 115.8925833}, {"type": "node", "id": 9024429048, "lat": -32.0693301, "lon": 115.8896176}, {"type": "node", "id": 9024429055, "lat": -32.0688995, "lon": 115.8894357}, {"type": "node", "id": 9024429076, "lat": -32.0712049, "lon": 115.892103}, {"type": "node", "id": 9024429096, "lat": -32.0698107, "lon": 115.8902077}, {"type": "node", "id": 9028472497, "lat": -32.0727474, "lon": 115.8936582}, {"type": "node", "id": 9028472498, "lat": -32.0736641, "lon": 115.8952062}, {"type": "node", "id": 9309473203, "lat": -32.0708931, "lon": 115.8944137, "tags": {"crossing": "uncontrolled", "highway": "crossing"}}, {"type": "node", "id": 9309473211, "lat": -32.0708109, "lon": 115.8943211, "tags": {"crossing": "uncontrolled", "highway": "crossing"}}, {"type": "node", "id": 9933202314, "lat": -32.076019, "lon": 115.8980584}, {"type": "node", "id": 9933202315, "lat": -32.0763702, "lon": 115.8985465}, {"type": "node", "id": 9933264018, "lat": -32.0725746, "lon": 115.8936435}, {"type": "node", "id": 9933264019, "lat": -32.0764929, "lon": 115.8987289}, {"type": "node", "id": 10065307971, "lat": -32.0682455, "lon": 115.8973324}, {"type": "node", "id": 10293269316, "lat": -32.0726233, "lon": 115.8936959}, {"type": "node", "id": 10983590920, "lat": -32.0642115, "lon": 115.902326}, {"type": "node", "id": 11328478270, "lat": -32.076956, "lon": 115.8995298}, {"type": "node", "id": 11328478301, "lat": -32.0768844, "lon": 115.8993912}, {"type": "way", "id": 17221206, "nodes": [2032021848, 9024429040], "tags": {"cycleway:left": "shared_lane", "highway": "primary", "lanes": "3", "maxspeed": "70", "name": "South Street", "network": "AU:WA:S", "oneway": "yes", "ref": "13", "surface": "asphalt"}}, {"type": "way", "id": 44273185, "nodes": [2032021867, 2489430835, 1964605411], "tags": {"cycleway:left": "no", "highway": "primary", "lanes": "3", "maxspeed": "70", "name": "Ranford Road", "network": "AU:WA:S", "oneway": "yes", "ref": "13", "surface": "paved"}}, {"type": "way", "id": 173552160, "nodes": [9028472498, 1843461839, 1843461837, 562615073], "tags": {"bus:lanes": "designated|yes|yes|yes", "cycleway:left": "lane", "highway": "primary", "lanes": "4", "maxspeed": "70", "name": "Ranford Road", "network": "AU:WA:S", "ref": "13", "surface": "paved", "turn:lanes": "|||right"}}, {"type": "way", "id": 192660589, "nodes": [2032021839, 9309473211, 2069815786, 914357815, 2391653984], "tags": {"highway": "primary", "lanes": "2", "maxspeed": "70", "name": "Bannister Road", "oneway": "yes", "surface": "asphalt"}}, {"type": "way", "id": 203456652, "nodes": [2134732731, 562615071, 9933264018, 10293269316, 562615072], "tags": {"cycleway:left": "no", "highway": "primary", "lanes": "3", "maxspeed": "70", "name": "Ranford Road", "network": "AU:WA:S", "oneway": "yes", "ref": "13", "surface": "paved"}}, {"type": "way", "id": 203456653, "nodes": [589247319, 2341562718, 9024429055], "tags": {"cycleway:left": "lane", "highway": "trunk", "lanes": "4", "maxspeed": "70", "name": "South Street", "network": "AU:WA:S", "oneway": "yes", "placement": "middle_of:2", "ref": "13", "surface": "paved", "turn:lanes": "|||through"}}, {"type": "way", "id": 242696087, "nodes": [2501520677, 562614338, 11328478270, 11328478301, 178636362, 9933264019, 9933202315, 562614339, 9933202314, 178636361], "tags": {"cycleway:left": "lane", "highway": "primary", "lanes": "4", "maxspeed": "70", "name": "Ranford Road", "network": "AU:WA:S", "ref": "13", "surface": "paved"}}, {"type": "way", "id": 242696090, "nodes": [178637595, 2341562693], "tags": {"highway": "trunk", "lanes": "4", "maxspeed": "70", "name": "South Street", "network": "AU:WA:S", "oneway": "yes", "placement": "middle_of:2", "ref": "13", "surface": "paved", "turn:lanes": "|||right"}}, {"type": "way", "id": 242848675, "nodes": [626579661, 9024429048, 626579659], "tags": {"cycleway:left": "lane", "highway": "trunk", "lanes": "4", "maxspeed": "70", "name": "South Street", "network": "AU:WA:S", "oneway": "yes", "placement": "middle_of:2", "ref": "13", "surface": "paved", "turn:lanes": "through|||right"}}, {"type": "way", "id": 242848678, "nodes": [2502978364, 2341562737, 1843461826, 9024429096], "tags": {"cycleway:left": "lane", "highway": "primary", "lanes": "4", "maxspeed": "70", "name": "South Street", "network": "AU:WA:S", "oneway": "yes", "placement": "middle_of:2", "ref": "13", "surface": "asphalt", "turn:lanes": "none|none|none|through"}}, {"type": "way", "id": 242848679, "nodes": [2341562727, 589247329], "tags": {"cycleway:left": "lane", "highway": "trunk", "lanes": "3", "maxspeed": "70", "name": "South Street", "network": "AU:WA:S", "oneway": "yes", "ref": "13", "surface": "paved"}}, {"type": "way", "id": 319675267, "nodes": [2341562693, 2341562692, 2499039611], "tags": {"highway": "trunk", "lanes": "4", "maxspeed": "70", "name": "South Street", "network": "AU:WA:S", "oneway": "yes", "placement": "middle_of:2", "ref": "13", "surface": "paved"}}, {"type": "way", "id": 319675275, "nodes": [3261311284, 1964605342, 178639181, 4145406790, 2134732698], "tags": {"highway": "trunk", "lanes": "3", "maxspeed": "70", "name": "South Street", "network": "AU:WA:S", "oneway": "yes", "ref": "13", "surface": "paved"}}, {"type": "way", "id": 345417551, "nodes": [7346838859, 2061577789], "tags": {"bicycle:lanes": "yes|designated|no|no|no", "cycleway:lanes": "none|shared_lane|none|none|none", "cycleway:left": "none", "highway": "primary", "lanes": "5", "maxspeed": "70", "name": "South Street", "network": "AU:WA:S", "oneway": "yes", "placement": "middle_of:4", "ref": "13", "surface": "asphalt", "turn:lanes": "left||||", "vehicle:lanes": "yes|no|yes|yes|yes"}}, {"type": "way", "id": 406597460, "nodes": [4086514928, 2391653962, 10065307971, 960926372, 914357817, 6405521964, 960926380], "tags": {"highway": "primary", "lanes": "2", "maxspeed": "70", "name": "Bannister Road", "oneway": "yes", "surface": "asphalt"}}, {"type": "way", "id": 406597461, "nodes": [2391653970, 180013257], "tags": {"highway": "primary", "lanes": "2", "maxspeed": "70", "name": "Bannister Road", "oneway": "yes", "surface": "asphalt"}}, {"type": "way", "id": 406597462, "nodes": [1878600543, 4086514931], "tags": {"highway": "primary", "lanes": "2", "maxspeed": "70", "name": "Bannister Road", "oneway": "yes", "surface": "asphalt"}}, {"type": "way", "id": 406597463, "nodes": [2391653976, 1878600533], "tags": {"highway": "primary", "lanes": "2", "maxspeed": "70", "name": "Bannister Road", "oneway": "yes", "surface": "asphalt"}}, {"type": "way", "id": 406597464, "nodes": [4086514933, 4086514934], "tags": {"highway": "primary", "lanes": "3", "maxspeed": "70", "name": "Bannister Road", "oneway": "yes", "placement": "left_of:2", "surface": "asphalt", "turn:lanes": "none|right|right"}}, {"type": "way", "id": 406597465, "nodes": [2046258517, 4086514933], "tags": {"highway": "primary", "lanes": "2", "maxspeed": "70", "name": "Bannister Road", "oneway": "yes", "surface": "asphalt", "turn:lanes": "none|right"}}, {"type": "way", "id": 406597466, "nodes": [180013257, 1878600543], "tags": {"highway": "primary", "lanes": "2", "maxspeed": "70", "name": "Bannister Road", "oneway": "yes", "surface": "asphalt"}}, {"type": "way", "id": 406597467, "nodes": [2032021869, 2032021854], "tags": {"highway": "primary", "lanes": "2", "maxspeed": "70", "name": "Bannister Road", "oneway": "yes", "surface": "asphalt"}}, {"type": "way", "id": 406597469, "nodes": [1878600533, 960926375], "tags": {"highway": "primary", "lanes": "2", "maxspeed": "70", "name": "Bannister Road", "oneway": "yes", "surface": "asphalt"}}, {"type": "way", "id": 406597473, "nodes": [4086514934, 1964605353], "tags": {"highway": "primary", "lanes": "3", "maxspeed": "70", "name": "Bannister Road", "oneway": "yes", "placement": "left_of:2", "surface": "asphalt", "turn:lanes": "through|right|right"}}, {"type": "way", "id": 406597476, "nodes": [1964605353, 2391401353], "tags": {"highway": "primary", "lanes": "3", "maxspeed": "70", "name": "Bannister Road", "oneway": "yes", "placement": "left_of:2", "surface": "asphalt", "turn:lanes": "through|right|right"}}, {"type": "way", "id": 406597478, "nodes": [2032021867, 2032021876], "tags": {"highway": "primary", "lanes": "3", "maxspeed": "70", "name": "Bannister Road", "oneway": "yes", "placement": "left_of:2", "surface": "asphalt"}}, {"type": "way", "id": 406597479, "nodes": [960926375, 4086514928], "tags": {"highway": "primary", "lanes": "2", "maxspeed": "70", "name": "Bannister Road", "oneway": "yes", "surface": "asphalt"}}, {"type": "way", "id": 406597481, "nodes": [2032021854, 2034845769, 4086514943], "tags": {"highway": "primary", "lanes": "2", "maxspeed": "70", "name": "Bannister Road", "oneway": "yes", "surface": "asphalt"}}, {"type": "way", "id": 406597482, "nodes": [2391401353, 951793533, 2032021867], "tags": {"highway": "primary", "lanes": "3", "maxspeed": "70", "name": "Bannister Road", "oneway": "yes", "placement": "left_of:2", "surface": "asphalt"}}, {"type": "way", "id": 406597484, "nodes": [4086514931, 2391653983, 2069815792, 9309473203, 2032021843, 2046258517], "tags": {"highway": "primary", "lanes": "2", "maxspeed": "70", "name": "Bannister Road", "oneway": "yes", "surface": "asphalt"}}, {"type": "way", "id": 406597498, "nodes": [2391401354, 2489430861, 2032021876], "tags": {"cycleway:left": "no", "highway": "primary", "lanes": "5", "maxspeed": "70", "name": "Ranford Road", "network": "AU:WA:S", "oneway": "yes", "ref": "13", "surface": "paved"}}, {"type": "way", "id": 406597505, "nodes": [2032021854, 2032021867], "tags": {"cycleway:left": "no", "highway": "primary", "lanes": "4", "maxspeed": "70", "name": "South Street", "network": "AU:WA:S", "oneway": "yes", "placement": "middle_of:2", "ref": "13", "surface": "asphalt"}}, {"type": "way", "id": 406597506, "nodes": [2032021869, 4086514950], "tags": {"cycleway:left": "no", "highway": "primary", "lanes": "3", "maxspeed": "70", "name": "South Street", "network": "AU:WA:S", "oneway": "yes", "ref": "13", "surface": "asphalt"}}, {"type": "way", "id": 406597507, "nodes": [626579665, 1843461823], "tags": {"cycleway:left": "lane", "highway": "primary", "lanes": "3", "maxspeed": "70", "name": "South Street", "network": "AU:WA:S", "oneway": "yes", "ref": "13", "surface": "asphalt"}}, {"type": "way", "id": 406597508, "nodes": [626579659, 2341562727], "tags": {"cycleway:left": "lane", "highway": "trunk", "lanes": "3", "maxspeed": "70", "name": "South Street", "network": "AU:WA:S", "oneway": "yes", "ref": "13", "surface": "paved"}}, {"type": "way", "id": 406597509, "nodes": [2032021876, 2032021869], "tags": {"cycleway:left": "no", "highway": "primary", "lanes": "5", "maxspeed": "70", "name": "South Street", "network": "AU:WA:S", "oneway": "yes", "ref": "13", "surface": "asphalt"}}, {"type": "way", "id": 406597510, "nodes": [2391401352, 2489430801, 2032021854], "tags": {"cycleway:left": "no", "highway": "primary", "lanes": "4", "maxspeed": "70", "name": "South Street", "network": "AU:WA:S", "oneway": "yes", "placement": "middle_of:2", "ref": "13", "surface": "asphalt"}}, {"type": "way", "id": 406597511, "nodes": [4086514927, 603554883, 4145406789, 178637595], "tags": {"cycleway:left": "lane", "highway": "trunk", "lanes": "4", "maxspeed": "70", "name": "South Street", "network": "AU:WA:S", "oneway": "yes", "placement": "middle_of:2", "ref": "13", "surface": "paved", "turn:lanes": "|||right"}}, {"type": "way", "id": 469739473, "nodes": [4640288389, 4640288392], "tags": {"bridge": "yes", "highway": "motorway", "lanes": "2", "layer": "1", "maxspeed": "100", "name": "Roe Highway", "network": "AU:WA:S", "oneway": "yes", "ref": "3", "surface": "asphalt"}}, {"type": "way", "id": 469739478, "nodes": [4640288393, 4640288390], "tags": {"bridge": "yes", "highway": "motorway", "lanes": "2", "layer": "1", "maxspeed": "100", "name": "Roe Highway", "network": "AU:WA:S", "oneway": "yes", "ref": "3", "surface": "asphalt"}}, {"type": "way", "id": 579058100, "nodes": [179995337, 10983590920, 960926378, 180015759, 914357724, 2391653960], "tags": {"highway": "primary", "lanes": "2", "maxspeed": "70", "name": "Bannister Road", "oneway": "yes", "surface": "asphalt"}}, {"type": "way", "id": 665265219, "nodes": [269351441, 626579661], "tags": {"cycleway:left": "lane", "highway": "trunk", "lanes": "4", "maxspeed": "70", "name": "South Street", "network": "AU:WA:S", "oneway": "yes", "placement": "middle_of:2", "ref": "13", "surface": "paved", "turn:lanes": "none|none|none|through"}}, {"type": "way", "id": 665265220, "nodes": [2341562722, 6285504220], "tags": {"cycleway:left": "lane", "highway": "trunk", "lanes": "4", "maxspeed": "70", "name": "South Street", "network": "AU:WA:S", "oneway": "yes", "placement": "middle_of:2", "ref": "13", "surface": "paved", "turn:lanes": "|||through"}}, {"type": "way", "id": 670460387, "nodes": [2134732698, 589247319], "tags": {"cycleway:left": "lane", "highway": "trunk", "lanes": "5", "maxspeed": "70", "name": "South Street", "network": "AU:WA:S", "oneway": "yes", "placement": "middle_of:3", "ref": "13", "surface": "paved", "turn:lanes": "left||||through"}}, {"type": "way", "id": 670462899, "nodes": [4640288390, 589240162, 31128469, 31128470, 31128471, 589247310], "tags": {"highway": "motorway", "lanes": "2", "maxspeed": "100", "name": "Roe Highway", "network": "AU:WA:S", "oneway": "yes", "ref": "3", "surface": "asphalt"}}, {"type": "way", "id": 671199367, "nodes": [589247415, 32829980, 32829981, 4640288389], "tags": {"highway": "motorway", "lanes": "2", "maxspeed": "100", "name": "Roe Highway", "network": "AU:WA:S", "oneway": "yes", "ref": "3", "surface": "asphalt"}}, {"type": "way", "id": 671200557, "nodes": [4640288392, 32829982, 32829983, 1843461842], "tags": {"highway": "motorway", "lanes": "2", "maxspeed": "100", "name": "Roe Highway", "network": "AU:WA:S", "oneway": "yes", "ref": "3", "surface": "asphalt"}}, {"type": "way", "id": 671200565, "nodes": [1843461838, 31128466, 31128467, 4640288393], "tags": {"highway": "motorway", "lanes": "2", "maxspeed": "100", "name": "Roe Highway", "network": "AU:WA:S", "oneway": "yes", "ref": "3", "surface": "asphalt"}}, {"type": "way", "id": 671201573, "nodes": [6285504220, 626579665], "tags": {"cycleway:left": "lane", "highway": "trunk", "lanes": "4", "maxspeed": "70", "name": "South Street", "network": "AU:WA:S", "oneway": "yes", "placement": "middle_of:2", "ref": "13", "surface": "paved", "turn:lanes": "through|||right"}}, {"type": "way", "id": 671215706, "nodes": [4086514943, 1964605351, 2061577825, 2032021839], "tags": {"highway": "primary", "lanes": "2", "maxspeed": "70", "name": "Bannister Road", "oneway": "yes", "surface": "asphalt"}}, {"type": "way", "id": 763260844, "nodes": [1964605411, 2134732731], "tags": {"cycleway:left": "shared_lane", "highway": "primary", "lanes": "3", "maxspeed": "70", "name": "Ranford Road", "network": "AU:WA:S", "oneway": "yes", "ref": "13", "surface": "paved"}}, {"type": "way", "id": 765554212, "nodes": [2489430814, 2032021848], "tags": {"cycleway:left": "shared_lane", "highway": "primary", "lanes": "3", "maxspeed": "70", "name": "South Street", "network": "AU:WA:S", "oneway": "yes", "ref": "13", "surface": "asphalt"}}, {"type": "way", "id": 765554213, "nodes": [4086514950, 2489430814], "tags": {"cycleway:left": "lane", "highway": "primary", "lanes": "3", "maxspeed": "70", "name": "South Street", "network": "AU:WA:S", "oneway": "yes", "ref": "13", "surface": "asphalt"}}, {"type": "way", "id": 769162354, "nodes": [2391653960, 2391653970], "tags": {"highway": "primary", "lanes": "2", "maxspeed": "70", "name": "Bannister Road", "oneway": "yes", "surface": "asphalt"}}, {"type": "way", "id": 769162356, "nodes": [2391653984, 2391653976], "tags": {"highway": "primary", "lanes": "2", "maxspeed": "70", "name": "Bannister Road", "oneway": "yes", "surface": "asphalt"}}, {"type": "way", "id": 779938083, "nodes": [1843461823, 1843461825, 589247341], "tags": {"cycleway:left": "lane", "highway": "primary", "lanes": "3", "maxspeed": "70", "name": "South Street", "network": "AU:WA:S", "oneway": "yes", "ref": "13", "surface": "asphalt"}}, {"type": "way", "id": 785921982, "nodes": [589247341, 7346838859], "tags": {"cycleway:left": "lane", "highway": "primary", "lanes": "3", "maxspeed": "70", "name": "South Street", "network": "AU:WA:S", "oneway": "yes", "ref": "13", "surface": "asphalt"}}, {"type": "way", "id": 785921984, "nodes": [7346838860, 2502978364], "tags": {"bicycle:lanes": "no|designated|no|no|no|no", "cycleway:lanes": "none|shared_lane|none|none|none|none", "cycleway:left": "none", "highway": "primary", "lanes": "6", "maxspeed": "70", "name": "South Street", "network": "AU:WA:S", "oneway": "yes", "ref": "13", "surface": "asphalt", "turn:lanes": "left|||||through", "vehicle:lanes": "yes|no|yes|yes|yes|yes"}}, {"type": "way", "id": 787064792, "nodes": [589247329, 4086514927], "tags": {"cycleway:left": "lane", "highway": "trunk", "lanes": "3", "maxspeed": "70", "name": "South Street", "network": "AU:WA:S", "oneway": "yes", "ref": "13", "surface": "paved"}}, {"type": "way", "id": 975182801, "nodes": [1964605377, 2391401352], "tags": {"cycleway:left": "lane", "highway": "primary", "lanes": "4", "maxspeed": "70", "name": "South Street", "network": "AU:WA:S", "oneway": "yes", "placement": "middle_of:2", "ref": "13", "surface": "asphalt", "turn:lanes": "|||right"}}, {"type": "way", "id": 975182804, "nodes": [9024429040, 4752816079, 7346838860], "tags": {"cycleway:left": "lane", "highway": "primary", "lanes": "3", "maxspeed": "70", "name": "South Street", "network": "AU:WA:S", "oneway": "yes", "ref": "13", "surface": "asphalt"}}, {"type": "way", "id": 975182810, "nodes": [2032021908, 2391401354], "tags": {"cycleway:left": "lane", "highway": "primary", "lanes": "5", "maxspeed": "70", "name": "Ranford Road", "network": "AU:WA:S", "oneway": "yes", "ref": "13", "surface": "paved", "turn:lanes": "|||right|right"}}, {"type": "way", "id": 975182813, "nodes": [2061577812, 9024429076], "tags": {"bicycle:lanes": "yes|designated|no|no|no", "cycleway:lanes": "none|shared_lane|none|none|none", "cycleway:left": "no", "highway": "primary", "lanes": "5", "maxspeed": "70", "name": "South Street", "network": "AU:WA:S", "oneway": "yes", "placement": "middle_of:4", "ref": "13", "surface": "asphalt", "turn:lanes": "left||||", "vehicle:lanes": "yes|no|yes|yes|yes"}}, {"type": "way", "id": 975182815, "nodes": [9024429076, 1964605377], "tags": {"bicycle:lanes": "yes|designated|no|no|no|yes", "cycleway:lanes": "none|shared_lane|none|none|none|none", "cycleway:left": "no", "highway": "primary", "lanes": "6", "maxspeed": "70", "name": "South Street", "network": "AU:WA:S", "oneway": "yes", "placement": "middle_of:4", "ref": "13", "surface": "asphalt", "turn:lanes": "left|||||right", "vehicle:lanes": "yes|no|yes|yes|yes|yes"}}, {"type": "way", "id": 975182822, "nodes": [2061577789, 2061577812], "tags": {"cycleway:left": "lane", "highway": "primary", "lanes": "3", "maxspeed": "70", "name": "South Street", "network": "AU:WA:S", "oneway": "yes", "ref": "13", "surface": "asphalt"}}, {"type": "way", "id": 975631097, "nodes": [9028472497, 178636353, 2032021908], "tags": {"cycleway:left": "lane", "highway": "primary", "lanes": "6", "maxspeed": "70", "name": "Ranford Road", "network": "AU:WA:S", "oneway": "yes", "ref": "13", "surface": "paved", "turn:lanes": "left||||right|right"}}, {"type": "way", "id": 975631098, "nodes": [178636361, 562614340, 6814909900, 1843461841, 1843461840, 9028472498], "tags": {"cycleway:left": "lane", "highway": "primary", "lanes": "4", "maxspeed": "70", "name": "Ranford Road", "network": "AU:WA:S", "ref": "13", "surface": "paved"}}, {"type": "way", "id": 975631113, "nodes": [9024429096, 269351441], "tags": {"cycleway:left": "lane", "highway": "primary", "lanes": "4", "maxspeed": "70", "name": "South Street", "network": "AU:WA:S", "oneway": "yes", "placement": "middle_of:2", "ref": "13", "surface": "asphalt", "turn:lanes": "none|none|none|through"}}, {"type": "way", "id": 975631117, "nodes": [9024429055, 2341562722], "tags": {"cycleway:left": "lane", "highway": "trunk", "lanes": "4", "maxspeed": "70", "name": "South Street", "network": "AU:WA:S", "oneway": "yes", "placement": "middle_of:2", "ref": "13", "surface": "paved", "turn:lanes": "|||through"}}, {"type": "way", "id": 1084331032, "nodes": [562615073, 1843461835, 9028472497], "tags": {"bus:lanes": "designated|yes|yes|yes", "cycleway:left": "lane", "highway": "primary", "lanes": "2", "maxspeed": "70", "name": "Ranford Road", "network": "AU:WA:S", "oneway": "yes", "ref": "13", "surface": "paved", "turn:lanes": "|||right"}}, {"type": "way", "id": 1084331033, "nodes": [562615072, 562615073], "tags": {"cycleway:left": "no", "highway": "primary", "lanes": "3", "maxspeed": "70", "name": "Ranford Road", "network": "AU:WA:S", "oneway": "yes", "ref": "13", "surface": "paved"}}]}