{"version": 0.6, "generator": "Overpass API 0.7.61.5 4133829e", "osm3s": {"timestamp_osm_base": "2023-12-08T08:01:45Z", "copyright": "The data included in this document is from www.openstreetmap.org. The data is made available under ODbL."}, "elements": [{"type": "node", "id": 106276870, "lat": -32.2309334, "lon": 115.8510103, "tags": {"highway": "traffic_signals"}}, {"type": "node", "id": 106276875, "lat": -32.2311258, "lon": 115.8504555}, {"type": "node", "id": 106276881, "lat": -32.2316231, "lon": 115.8485797}, {"type": "node", "id": 106276884, "lat": -32.2320321, "lon": 115.845709, "tags": {"created_by": "JOSM"}}, {"type": "node", "id": 130181495, "lat": -32.242786, "lon": 115.8518885}, {"type": "node", "id": 130181497, "lat": -32.2400926, "lon": 115.8514336}, {"type": "node", "id": 130181498, "lat": -32.2378348, "lon": 115.8510645}, {"type": "node", "id": 130181499, "lat": -32.2357714, "lon": 115.8506753}, {"type": "node", "id": 130181500, "lat": -32.233261, "lon": 115.8503178}, {"type": "node", "id": 130181501, "lat": -32.2310725, "lon": 115.8498856}, {"type": "node", "id": 130181502, "lat": -32.2284189, "lon": 115.8494722}, {"type": "node", "id": 130183444, "lat": -32.2309893, "lon": 115.8501998}, {"type": "node", "id": 130183445, "lat": -32.2322953, "lon": 115.8504208}, {"type": "node", "id": 130183446, "lat": -32.2346606, "lon": 115.8508453}, {"type": "node", "id": 130183447, "lat": -32.239098, "lon": 115.8515537}, {"type": "node", "id": 130183448, "lat": -32.2431417, "lon": 115.8521889}, {"type": "node", "id": 130183449, "lat": -32.2465826, "lon": 115.8527382}, {"type": "node", "id": 130183450, "lat": -32.2493923, "lon": 115.8529203}, {"type": "node", "id": 134847171, "lat": -32.2256976, "lon": 115.8493648, "tags": {"highway": "motorway_junction", "noref": "yes"}}, {"type": "node", "id": 148963922, "lat": -32.2307525, "lon": 115.8515674}, {"type": "node", "id": 148963929, "lat": -32.2302811, "lon": 115.8528434, "tags": {"created_by": "JOSM"}}, {"type": "node", "id": 148963933, "lat": -32.2299854, "lon": 115.8539116}, {"type": "node", "id": 650086824, "lat": -32.2355692, "lon": 115.8506309, "tags": {"highway": "motorway_junction", "noref": "yes"}}, {"type": "node", "id": 650086841, "lat": -32.2316287, "lon": 115.8474778}, {"type": "node", "id": 650086843, "lat": -32.231763, "lon": 115.84633}, {"type": "node", "id": 650086856, "lat": -32.2314448, "lon": 115.8494369, "tags": {"highway": "traffic_signals"}}, {"type": "node", "id": 650086859, "lat": -32.2312381, "lon": 115.8496436}, {"type": "node", "id": 650086861, "lat": -32.2313654, "lon": 115.849086}, {"type": "node", "id": 650086863, "lat": -32.2314848, "lon": 115.8485462}, {"type": "node", "id": 650086866, "lat": -32.2310019, "lon": 115.8504291}, {"type": "node", "id": 650086868, "lat": -32.2299533, "lon": 115.8534795}, {"type": "node", "id": 650086870, "lat": -32.2302905, "lon": 115.8524081}, {"type": "node", "id": 650087606, "lat": -32.2313399, "lon": 115.8497679}, {"type": "node", "id": 650087614, "lat": -32.2278499, "lon": 115.8493359}, {"type": "node", "id": 650089123, "lat": -32.2321621, "lon": 115.8450563}, {"type": "node", "id": 650089125, "lat": -32.2312075, "lon": 115.8497457}, {"type": "node", "id": 715295749, "lat": -32.2312763, "lon": 115.8494369, "tags": {"highway": "traffic_signals"}}, {"type": "node", "id": 715362019, "lat": -32.230762, "lon": 115.8510458, "tags": {"highway": "traffic_signals"}}, {"type": "node", "id": 1836370409, "lat": -32.2314878, "lon": 115.8492272}, {"type": "node", "id": 6200662807, "lat": -32.2318035, "lon": 115.8473172}, {"type": "node", "id": 6200662816, "lat": -32.2316905, "lon": 115.8481081}, {"type": "node", "id": 6200662817, "lat": -32.2315869, "lon": 115.847788}, {"type": "node", "id": 6200662821, "lat": -32.2316812, "lon": 115.8470039}, {"type": "node", "id": 6200662829, "lat": -32.2306895, "lon": 115.8513086}, {"type": "node", "id": 6200662839, "lat": -32.2306731, "lon": 115.8517756}, {"type": "node", "id": 6229385384, "lat": -32.2316326, "lon": 115.8474428, "tags": {"highway": "traffic_signals"}}, {"type": "node", "id": 6229385485, "lat": -32.2317809, "lon": 115.847476, "tags": {"highway": "traffic_signals"}}, {"type": "node", "id": 6229385486, "lat": -32.2317647, "lon": 115.8475894, "tags": {"highway": "traffic_signals"}}, {"type": "node", "id": 6229385487, "lat": -32.2316184, "lon": 115.8475542, "tags": {"highway": "traffic_signals"}}, {"type": "node", "id": 6273712003, "lat": -32.237292, "lon": 115.8512525}, {"type": "node", "id": 6273928763, "lat": -32.2299551, "lon": 115.8540385}, {"type": "node", "id": 6273928764, "lat": -32.2298945, "lon": 115.8537738}, {"type": "node", "id": 6273928765, "lat": -32.2310896, "lon": 115.8501434}, {"type": "node", "id": 6273928766, "lat": -32.231165, "lon": 115.8503366}, {"type": "node", "id": 6273928767, "lat": -32.2314702, "lon": 115.8486226}, {"type": "node", "id": 6273928768, "lat": -32.2315213, "lon": 115.8490598}, {"type": "node", "id": 6759576796, "lat": -32.2299384, "lon": 115.853554}, {"type": "node", "id": 9385530322, "lat": -32.2372421, "lon": 115.8509527}, {"type": "node", "id": 9385530323, "lat": -32.2388463, "lon": 115.8512299}, {"type": "node", "id": 9385530324, "lat": -32.2429513, "lon": 115.8519128}, {"type": "node", "id": 9662478420, "lat": -32.2446049, "lon": 115.8524225}, {"type": "node", "id": 9662478421, "lat": -32.244627, "lon": 115.8521588}, {"type": "node", "id": 9778462697, "lat": -32.2314649, "lon": 115.849339}, {"type": "node", "id": 9778462698, "lat": -32.231302, "lon": 115.849348}, {"type": "node", "id": 11141451776, "lat": -32.2297488, "lon": 115.8560901}, {"type": "node", "id": 11141451779, "lat": -32.2298246, "lon": 115.8548015}, {"type": "node", "id": 11160874389, "lat": -32.2298744, "lon": 115.8544915}, {"type": "node", "id": 11184919163, "lat": -32.2299175, "lon": 115.8577685}, {"type": "node", "id": 11184919178, "lat": -32.2298326, "lon": 115.8575415}, {"type": "node", "id": 11184919179, "lat": -32.229782, "lon": 115.8572883}, {"type": "node", "id": 11184919198, "lat": -32.2297163, "lon": 115.8546402}, {"type": "node", "id": 11184919199, "lat": -32.2296129, "lon": 115.8558628}, {"type": "node", "id": 11184919200, "lat": -32.2295828, "lon": 115.8561955}, {"type": "node", "id": 11184919201, "lat": -32.2295402, "lon": 115.8564535}, {"type": "node", "id": 11184919202, "lat": -32.2295187, "lon": 115.8567634}, {"type": "node", "id": 11184919203, "lat": -32.2295345, "lon": 115.8569328}, {"type": "node", "id": 11184919204, "lat": -32.2295693, "lon": 115.8571268}, {"type": "node", "id": 11184919205, "lat": -32.2296274, "lon": 115.8572843}, {"type": "node", "id": 11184919206, "lat": -32.229641, "lon": 115.8573747}, {"type": "node", "id": 11184919207, "lat": -32.2296466, "lon": 115.8574873}, {"type": "node", "id": 11184919208, "lat": -32.2296261, "lon": 115.8575943}, {"type": "node", "id": 11184919209, "lat": -32.2295858, "lon": 115.8577231}, {"type": "node", "id": 11184919223, "lat": -32.2296406, "lon": 115.8575183, "tags": {"highway": "crossing"}}, {"type": "node", "id": 11184919224, "lat": -32.2298242, "lon": 115.8574994, "tags": {"highway": "crossing"}}, {"type": "node", "id": 11184919258, "lat": -32.229779, "lon": 115.8571773}, {"type": "way", "id": 15092292, "nodes": [6273928763, 148963933, 148963929, 6200662839], "tags": {"highway": "trunk", "lanes": "2", "maxspeed": "70", "name": "Thomas Road", "network": "AU:WA:S", "oneway": "yes", "ref": "21", "source:lanes": "Esri World Imagery", "source:maxspeed": "https://portal-mainroads.opendata.arcgis.com/datasets", "surface": "asphalt"}}, {"type": "way", "id": 50988673, "nodes": [6200662829, 650086870, 650086868, 6759576796, 6273928764], "tags": {"highway": "trunk", "lanes": "2", "maxspeed": "70", "name": "Thomas Road", "network": "AU:WA:S", "oneway": "yes", "ref": "21", "source:lanes": "Esri World Imagery", "surface": "asphalt"}}, {"type": "way", "id": 50988679, "nodes": [650089125, 6273928765], "tags": {"bridge": "yes", "highway": "trunk", "lanes": "2", "layer": "1", "maxspeed": "70", "name": "Thomas Road", "network": "AU:WA:S", "oneway": "yes", "ref": "21", "source:lanes": "Esri World Imagery", "surface": "asphalt"}}, {"type": "way", "id": 50988680, "nodes": [106276875, 6273928766], "tags": {"bridge": "yes", "highway": "trunk", "lanes": "2", "layer": "1", "maxspeed": "70", "name": "Thomas Road", "network": "AU:WA:S", "oneway": "yes", "ref": "21", "source:lanes": "Esri World Imagery", "source:ref": "OpenStreetCam", "surface": "asphalt"}}, {"type": "way", "id": 580644946, "nodes": [715295749, 650086859, 650089125], "tags": {"highway": "trunk", "lanes": "2", "maxspeed": "70", "name": "Thomas Road", "network": "AU:WA:S", "oneway": "yes", "ref": "21", "source:lanes": "Esri World Imagery", "surface": "asphalt"}}, {"type": "way", "id": 580644950, "nodes": [650086856, 9778462697, 1836370409], "tags": {"highway": "trunk", "lanes": "2", "maxspeed": "70", "name": "Thomas Road", "network": "AU:WA:S", "oneway": "yes", "ref": "21", "source:lanes": "Esri World Imagery", "source:ref": "OpenStreetCam", "surface": "asphalt"}}, {"type": "way", "id": 665550265, "nodes": [6229385384, 650086841, 6229385487], "tags": {"highway": "trunk", "lanes": "3", "maxspeed": "70", "name": "Thomas Road", "network": "AU:WA:S", "oneway": "yes", "ref": "21", "surface": "asphalt", "turn:lanes": "||right"}}, {"type": "way", "id": 665550266, "nodes": [650086843, 6200662821], "tags": {"highway": "trunk", "lanes": "4", "maxspeed": "70", "name": "Thomas Road", "network": "AU:WA:S", "oneway": "yes", "ref": "21", "surface": "asphalt", "turn:lanes": "left|||right"}}, {"type": "way", "id": 665550268, "nodes": [6229385485, 6200662807, 106276884, 650089123], "tags": {"highway": "trunk", "lanes": "2", "maxspeed": "70", "name": "Thomas Road", "network": "AU:WA:S", "oneway": "yes", "ref": "21", "source:lanes": "Esri World Imagery", "source:ref": "OpenStreetCam", "surface": "asphalt"}}, {"type": "way", "id": 665550269, "nodes": [6229385486, 6229385485], "tags": {"highway": "trunk", "lanes": "2", "maxspeed": "70", "name": "Thomas Road", "network": "AU:WA:S", "oneway": "yes", "ref": "21", "source:lanes": "Esri World Imagery", "source:ref": "OpenStreetCam", "surface": "asphalt"}}, {"type": "way", "id": 669900881, "nodes": [134847171, 130183444, 130183445, 130183446], "tags": {"highway": "motorway", "lanes": "2", "maxspeed": "100", "name": "Kwinana Freeway", "network": "AU:WA:S", "oneway": "yes", "ref": "2", "surface": "asphalt"}}, {"type": "way", "id": 669900883, "nodes": [9662478421, 9385530324, 130181495, 130181497, 9385530323, 130181498, 9385530322, 130181499, 650086824], "tags": {"highway": "motorway", "lanes": "2", "maxspeed": "100", "name": "Kwinana Freeway", "network": "AU:WA:S", "oneway": "yes", "ref": "2", "surface": "asphalt"}}, {"type": "way", "id": 669900889, "nodes": [130183446, 6273712003], "tags": {"highway": "motorway", "lanes": "3", "maxspeed": "100", "name": "Kwinana Freeway", "network": "AU:WA:S", "oneway": "yes", "ref": "2", "surface": "asphalt", "turn:lanes": "merge_to_right||"}}, {"type": "way", "id": 669905097, "nodes": [6200662816, 6229385486], "tags": {"highway": "trunk", "lanes": "2", "maxspeed": "70", "name": "Thomas Road", "network": "AU:WA:S", "oneway": "yes", "ref": "21", "source:lanes": "Esri World Imagery", "source:ref": "OpenStreetCam", "surface": "asphalt"}}, {"type": "way", "id": 669905098, "nodes": [6200662821, 6229385384], "tags": {"highway": "trunk", "lanes": "3", "maxspeed": "70", "name": "Thomas Road", "network": "AU:WA:S", "oneway": "yes", "ref": "21", "surface": "asphalt", "turn:lanes": "||right"}}, {"type": "way", "id": 669925525, "nodes": [11141451779, 11160874389, 6273928763], "tags": {"highway": "trunk", "lanes": "1", "maxspeed": "70", "name": "Thomas Road", "network": "AU:WA:S", "oneway": "yes", "ref": "21", "source:lanes": "Esri World Imagery", "source:maxspeed": "https://portal-mainroads.opendata.arcgis.com/datasets", "surface": "asphalt"}}, {"type": "way", "id": 669925527, "nodes": [6200662839, 148963922, 106276870], "tags": {"highway": "trunk", "lanes": "2", "maxspeed": "70", "name": "Thomas Road", "network": "AU:WA:S", "oneway": "yes", "ref": "21", "surface": "asphalt", "turn:lanes": "|through"}}, {"type": "way", "id": 669925528, "nodes": [650086866, 715362019], "tags": {"highway": "trunk", "lanes": "3", "maxspeed": "70", "name": "Thomas Road", "network": "AU:WA:S", "oneway": "yes", "ref": "21", "surface": "asphalt", "turn:lanes": "through|through|right"}}, {"type": "way", "id": 669925529, "nodes": [106276870, 106276875], "tags": {"highway": "trunk", "lanes": "2", "maxspeed": "70", "name": "Thomas Road", "network": "AU:WA:S", "oneway": "yes", "ref": "21", "source:lanes": "Esri World Imagery", "surface": "asphalt"}}, {"type": "way", "id": 669925530, "nodes": [6273928765, 650086866], "tags": {"bridge": "yes", "highway": "trunk", "lanes": "3", "layer": "1", "maxspeed": "70", "name": "Thomas Road", "network": "AU:WA:S", "oneway": "yes", "ref": "21", "source:lanes": "Esri World Imagery", "surface": "asphalt", "turn:lanes": "through|through|right"}}, {"type": "way", "id": 669925531, "nodes": [6273928766, 650087606], "tags": {"bridge": "yes", "highway": "trunk", "lanes": "3", "layer": "1", "maxspeed": "70", "name": "Thomas Road", "network": "AU:WA:S", "oneway": "yes", "ref": "21", "source:lanes": "Esri World Imagery", "source:ref": "OpenStreetCam", "surface": "asphalt", "turn:lanes": "through|through|right"}}, {"type": "way", "id": 669925532, "nodes": [650087606, 650086856], "tags": {"highway": "trunk", "lanes": "3", "maxspeed": "70", "name": "Thomas Road", "network": "AU:WA:S", "oneway": "yes", "ref": "21", "source:lanes": "Esri World Imagery", "source:ref": "OpenStreetCam", "surface": "asphalt", "turn:lanes": "through|through|right"}}, {"type": "way", "id": 669925533, "nodes": [650086861, 9778462698, 715295749], "tags": {"highway": "trunk", "lanes": "2", "maxspeed": "70", "name": "Thomas Road", "network": "AU:WA:S", "oneway": "yes", "ref": "21", "source:lanes": "Esri World Imagery", "surface": "asphalt", "turn:lanes": "|through"}}, {"type": "way", "id": 669925534, "nodes": [6273928767, 650086861], "tags": {"highway": "trunk", "lanes": "3", "maxspeed": "70", "name": "Thomas Road", "network": "AU:WA:S", "oneway": "yes", "ref": "21", "surface": "asphalt", "turn:lanes": "left||through"}}, {"type": "way", "id": 669925535, "nodes": [6229385487, 6200662817, 650086863, 6273928767], "tags": {"highway": "trunk", "lanes": "2", "maxspeed": "70", "name": "Thomas Road", "network": "AU:WA:S", "oneway": "yes", "ref": "21", "source:lanes": "Esri World Imagery", "surface": "asphalt"}}, {"type": "way", "id": 669925536, "nodes": [6273928768, 106276881, 6200662816], "tags": {"highway": "trunk", "lanes": "3", "maxspeed": "70", "name": "Thomas Road", "network": "AU:WA:S", "oneway": "yes", "ref": "21", "source:lanes": "Esri World Imagery", "source:ref": "OpenStreetCam", "surface": "asphalt", "turn:lanes": "left||"}}, {"type": "way", "id": 670211385, "nodes": [6273712003, 130183447, 130183448, 9662478420, 130183449, 130183450], "tags": {"highway": "motorway", "lanes": "2", "maxspeed": "100", "name": "Kwinana Freeway", "network": "AU:WA:S", "oneway": "yes", "ref": "2", "surface": "asphalt"}}, {"type": "way", "id": 723599580, "nodes": [650086824, 130181500, 130181501, 130181502, 650087614], "tags": {"highway": "motorway", "lanes": "2", "maxspeed": "100", "name": "Kwinana Freeway", "network": "AU:WA:S", "oneway": "yes", "ref": "2", "surface": "asphalt"}}, {"type": "way", "id": 778709712, "nodes": [1836370409, 6273928768], "tags": {"highway": "trunk", "lanes": "2", "maxspeed": "70", "name": "Thomas Road", "network": "AU:WA:S", "oneway": "yes", "ref": "21", "source:lanes": "Esri World Imagery", "source:ref": "OpenStreetCam", "surface": "asphalt"}}, {"type": "way", "id": 778715690, "nodes": [715362019, 6200662829], "tags": {"highway": "trunk", "lanes": "2", "maxspeed": "70", "name": "Thomas Road", "network": "AU:WA:S", "oneway": "yes", "ref": "21", "source:lanes": "Esri World Imagery", "surface": "asphalt"}}, {"type": "way", "id": 1207065478, "nodes": [11184919163, 11184919178, 11184919224, 11184919179, 11184919258, 11141451776], "tags": {"highway": "trunk", "lanes": "1", "maxspeed": "70", "name": "Thomas Road", "network": "AU:WA:S", "oneway": "yes", "ref": "21", "source:lanes": "Esri World Imagery", "source:maxspeed": "https://portal-mainroads.opendata.arcgis.com/datasets", "surface": "asphalt"}}, {"type": "way", "id": 1207065481, "nodes": [6273928764, 11184919198, 11184919199, 11184919200, 11184919201, 11184919202, 11184919203, 11184919204, 11184919205, 11184919206, 11184919207, 11184919223, 11184919208, 11184919209], "tags": {"highway": "trunk", "lanes": "1", "maxspeed": "70", "name": "Thomas Road", "network": "AU:WA:S", "oneway": "yes", "ref": "21", "source:lanes": "Esri World Imagery", "source:maxspeed": "https://portal-mainroads.opendata.arcgis.com/datasets", "surface": "asphalt"}}]}