{"version": 0.6, "generator": "Overpass API 0.7.61.5 4133829e", "osm3s": {"timestamp_osm_base": "2023-12-06T10:51:30Z", "copyright": "The data included in this document is from www.openstreetmap.org. The data is made available under ODbL."}, "elements": [{"type": "node", "id": 175656130, "lat": -33.9611541, "lon": 151.0737008}, {"type": "node", "id": 175656131, "lat": -33.9611992, "lon": 151.0730031}, {"type": "node", "id": 175656132, "lat": -33.961181, "lon": 151.0727297}, {"type": "node", "id": 175656135, "lat": -33.9610713, "lon": 151.0724136}, {"type": "node", "id": 175656138, "lat": -33.9604416, "lon": 151.0716861}, {"type": "node", "id": 175656139, "lat": -33.9600491, "lon": 151.0714165}, {"type": "node", "id": 175656140, "lat": -33.9592161, "lon": 151.0705925}, {"type": "node", "id": 181259845, "lat": -33.9588856, "lon": 151.0638931}, {"type": "node", "id": 200635036, "lat": -33.9585955, "lon": 151.0696138}, {"type": "node", "id": 241454701, "lat": -33.9608139, "lon": 151.0720596}, {"type": "node", "id": 241454722, "lat": -33.9599552, "lon": 151.0713536}, {"type": "node", "id": 241647086, "lat": -33.9600082, "lon": 151.0613621}, {"type": "node", "id": 252168717, "lat": -33.9593506, "lon": 151.0628536}, {"type": "node", "id": 252169077, "lat": -33.9596625, "lon": 151.0621532}, {"type": "node", "id": 739350097, "lat": -33.9589327, "lon": 151.0701096}, {"type": "node", "id": 1142016507, "lat": -33.9611497, "lon": 151.0725944, "tags": {"crossing": "traffic_signals", "highway": "crossing", "source": "nearmap"}}, {"type": "node", "id": 1142016529, "lat": -33.9611064, "lon": 151.0724856}, {"type": "node", "id": 1142016530, "lat": -33.9608713, "lon": 151.072132}, {"type": "node", "id": 1142016531, "lat": -33.9603614, "lon": 151.0716276}, {"type": "node", "id": 1142016545, "lat": -33.9605155, "lon": 151.071745}, {"type": "node", "id": 1142016548, "lat": -33.9605999, "lon": 151.071824}, {"type": "node", "id": 1142016550, "lat": -33.9606547, "lon": 151.0718842}, {"type": "node", "id": 1142016574, "lat": -33.961197, "lon": 151.0728579}, {"type": "node", "id": 1142020527, "lat": -33.9587508, "lon": 151.0698263}, {"type": "node", "id": 1832355994, "lat": -33.9587064, "lon": 151.0699295}, {"type": "node", "id": 1832356019, "lat": -33.959604, "lon": 151.0710798}, {"type": "node", "id": 1847377340, "lat": -33.9584601, "lon": 151.069621}, {"type": "node", "id": 1871099719, "lat": -33.9597612, "lon": 151.0712024}, {"type": "node", "id": 2356767208, "lat": -33.9594119, "lon": 151.0627216, "tags": {"crossing": "traffic_signals", "highway": "crossing"}}, {"type": "node", "id": 2457708567, "lat": -33.9592515, "lon": 151.0633611}, {"type": "node", "id": 2457708568, "lat": -33.9589821, "lon": 151.0639675}, {"type": "node", "id": 2457708569, "lat": -33.9601092, "lon": 151.0614147}, {"type": "node", "id": 2457708585, "lat": -33.9586591, "lon": 151.0646975}, {"type": "node", "id": 2457708591, "lat": -33.9595091, "lon": 151.0627838, "tags": {"crossing": "traffic_signals", "highway": "crossing"}}, {"type": "node", "id": 2457708595, "lat": -33.9598472, "lon": 151.0620267}, {"type": "node", "id": 3474380161, "lat": -33.9611808, "lon": 151.0733564}, {"type": "node", "id": 3474380162, "lat": -33.9611931, "lon": 151.0731585}, {"type": "node", "id": 3771597212, "lat": -33.9609819, "lon": 151.0722703}, {"type": "node", "id": 3771597214, "lat": -33.9610325, "lon": 151.0723513}, {"type": "node", "id": 5749028627, "lat": -33.9599401, "lon": 151.061531}, {"type": "node", "id": 5749028628, "lat": -33.959885, "lon": 151.0616586}, {"type": "node", "id": 5749028629, "lat": -33.9598324, "lon": 151.0617758}, {"type": "node", "id": 5749028630, "lat": -33.9592348, "lon": 151.0631204}, {"type": "node", "id": 5749028658, "lat": -33.9587394, "lon": 151.064226}, {"type": "node", "id": 5749028675, "lat": -33.959053, "lon": 151.0635269}, {"type": "node", "id": 5749028681, "lat": -33.9587158, "lon": 151.0645695}, {"type": "node", "id": 5749028682, "lat": -33.9597454, "lon": 151.0622534}, {"type": "node", "id": 5749028683, "lat": -33.9599481, "lon": 151.0618}, {"type": "node", "id": 5749028684, "lat": -33.9600455, "lon": 151.061573}, {"type": "node", "id": 6419106929, "lat": -33.9583015, "lon": 151.0692586, "tags": {"highway": "traffic_signals", "traffic_signals": "signal", "traffic_signals:direction": "forward"}}, {"type": "node", "id": 6419106944, "lat": -33.9582352, "lon": 151.0691689}, {"type": "node", "id": 10100878520, "lat": -33.9594335, "lon": 151.0629533}, {"type": "node", "id": 10100878532, "lat": -33.9595734, "lon": 151.0626397}, {"type": "node", "id": 10100878556, "lat": -33.9597737, "lon": 151.0621904}, {"type": "node", "id": 10605875230, "lat": -33.9600041, "lon": 151.0616695}, {"type": "node", "id": 11288288120, "lat": -33.9589345, "lon": 151.0637861, "tags": {"highway": "traffic_signals", "traffic_signals": "signal", "traffic_signals:direction": "forward"}}, {"type": "node", "id": 11288288121, "lat": -33.9589258, "lon": 151.0640948, "tags": {"highway": "traffic_signals", "traffic_signals": "signal", "traffic_signals:direction": "forward"}}, {"type": "node", "id": 11288288126, "lat": -33.9588452, "lon": 151.0639851, "tags": {"crossing": "traffic_signals", "highway": "crossing"}}, {"type": "node", "id": 11288288127, "lat": -33.9589376, "lon": 151.0640682, "tags": {"crossing": "traffic_signals", "highway": "crossing"}}, {"type": "node", "id": 11288288137, "lat": -33.958924, "lon": 151.0638091, "tags": {"crossing": "traffic_signals", "highway": "crossing"}}, {"type": "node", "id": 11288288138, "lat": -33.9590223, "lon": 151.063877, "tags": {"crossing": "traffic_signals", "highway": "crossing"}}, {"type": "node", "id": 11288376336, "lat": -33.9594684, "lon": 151.0628749, "tags": {"highway": "traffic_signals", "traffic_signals": "signal", "traffic_signals:direction": "forward"}}, {"type": "node", "id": 11288376337, "lat": -33.9594496, "lon": 151.0626361, "tags": {"highway": "traffic_signals", "traffic_signals": "signal", "traffic_signals:direction": "forward"}}, {"type": "way", "id": 11888002, "nodes": [2457708585, 5749028681, 11288288121, 11288288127, 2457708568], "tags": {"cycleway:left": "no", "highway": "primary", "lanes": "3", "maxspeed": "60", "name": "Forest Road", "oneway": "yes", "surface": "asphalt"}}, {"type": "way", "id": 36182198, "nodes": [241454701, 1142016550, 1142016548, 1142016545, 175656138, 1142016531], "tags": {"fixme": "needs survey for hours for school zone (maxspeed 40km/h)", "highway": "primary", "lanes": "4", "maxspeed": "60", "name": "Forest Road", "restriction": "school_zone", "surface": "asphalt"}}, {"type": "way", "id": 98714018, "nodes": [1142016531, 175656139, 241454722, 1871099719, 1832356019, 175656140], "tags": {"highway": "primary", "lanes": "4", "maxspeed": "60", "name": "Forest Road", "source": "nearmap", "surface": "paved"}}, {"type": "way", "id": 172321393, "nodes": [252168717, 5749028630, 5749028675], "tags": {"cycleway:left": "no", "highway": "primary", "lanes": "3", "maxspeed": "60", "name": "Forest Road", "oneway": "yes", "surface": "paved"}}, {"type": "way", "id": 172321401, "nodes": [175656140, 739350097, 1142020527, 200635036, 6419106929, 6419106944], "tags": {"highway": "primary", "lanes": "2", "maxspeed": "60", "name": "Forest Road", "oneway": "yes", "surface": "paved"}}, {"type": "way", "id": 373741232, "nodes": [175656130, 3474380161, 3474380162, 175656131, 1142016574, 175656132, 1142016507, 1142016529, 175656135, 3771597214], "tags": {"fixme": "needs survey for hours for school zone (maxspeed 40km/h)", "highway": "primary", "lanes": "4", "maxspeed": "60", "name": "Forest Road", "restriction": "school_zone", "source": "nearmap", "surface": "asphalt"}}, {"type": "way", "id": 373741233, "nodes": [3771597214, 3771597212, 1142016530, 241454701], "tags": {"fixme": "needs survey for hours for school zone (maxspeed 40km/h)", "highway": "primary", "lanes": "4", "maxspeed": "60", "name": "Forest Road", "restriction": "school_zone", "source": "nearmap", "surface": "asphalt"}}, {"type": "way", "id": 734998658, "nodes": [5749028675, 11288288120, 11288288137, 181259845], "tags": {"cycleway:left": "no", "highway": "primary", "lanes": "3", "maxspeed": "60", "name": "Forest Road", "oneway": "yes", "surface": "paved"}}, {"type": "way", "id": 737409139, "nodes": [2457708567, 10100878520, 11288376336, 2457708591, 10100878532, 5749028682, 10100878556, 2457708595, 5749028683, 10605875230, 5749028684, 2457708569], "tags": {"cycleway:left": "no", "highway": "primary", "lanes": "3", "maxspeed": "60", "name": "Forest Road", "oneway": "yes", "surface": "asphalt"}}, {"type": "way", "id": 787909800, "nodes": [2457708568, 11288288138, 2457708567], "tags": {"cycleway:left": "no", "highway": "primary", "lanes": "3", "maxspeed": "60", "name": "Forest Road", "oneway": "yes", "surface": "asphalt"}}, {"type": "way", "id": 787909804, "nodes": [241647086, 5749028627, 5749028628, 5749028629, 252169077, 11288376337, 2356767208, 252168717], "tags": {"cycleway:left": "no", "highway": "primary", "lanes": "3", "maxspeed": "60", "name": "Forest Road", "oneway": "yes", "surface": "paved"}}, {"type": "way", "id": 787909806, "nodes": [181259845, 11288288126, 5749028658], "tags": {"cycleway:left": "no", "highway": "primary", "lanes": "3", "maxspeed": "60", "name": "Forest Road", "oneway": "yes", "surface": "asphalt"}}, {"type": "way", "id": 790205329, "nodes": [1847377340, 1832355994, 175656140], "tags": {"highway": "primary", "lanes": "2", "maxspeed": "60", "name": "Forest Road", "oneway": "yes", "surface": "paved"}}]}