{"version": 0.6, "generator": "Overpass API 0.7.61.5 4133829e", "osm3s": {"timestamp_osm_base": "2023-12-06T11:31:06Z", "copyright": "The data included in this document is from www.openstreetmap.org. The data is made available under ODbL."}, "elements": [{"type": "node", "id": 15128188, "lat": -35.3636668, "lon": 149.0925242}, {"type": "node", "id": 15128191, "lat": -35.3642501, "lon": 149.092537}, {"type": "node", "id": 67385975, "lat": -35.3657101, "lon": 149.0924419}, {"type": "node", "id": 654831475, "lat": -35.3714163, "lon": 149.0929122}, {"type": "node", "id": 654846151, "lat": -35.3668765, "lon": 149.0926086, "tags": {"crossing": "unmarked", "highway": "crossing", "tactile_paving": "no"}}, {"type": "node", "id": 654846159, "lat": -35.3646013, "lon": 149.0925452}, {"type": "node", "id": 654846174, "lat": -35.3640823, "lon": 149.0923899}, {"type": "node", "id": 654846176, "lat": -35.3638987, "lon": 149.0925288}, {"type": "node", "id": 672839254, "lat": -35.3653014, "lon": 149.0924205}, {"type": "node", "id": 672839264, "lat": -35.3647633, "lon": 149.0924087}, {"type": "node", "id": 672839266, "lat": -35.3643913, "lon": 149.0923984}, {"type": "node", "id": 672839267, "lat": -35.3643922, "lon": 149.0925403}, {"type": "node", "id": 672839269, "lat": -35.3644948, "lon": 149.0924013, "tags": {"highway": "traffic_signals", "traffic_signals": "traffic_lights", "traffic_signals:direction": "forward"}}, {"type": "node", "id": 672839270, "lat": -35.3642552, "lon": 149.0923947}, {"type": "node", "id": 672839272, "lat": -35.3623115, "lon": 149.092366}, {"type": "node", "id": 943325886, "lat": -35.3613459, "lon": 149.0920889}, {"type": "node", "id": 1930487142, "lat": -35.3618893, "lon": 149.0922682}, {"type": "node", "id": 1930487143, "lat": -35.3621944, "lon": 149.0923431}, {"type": "node", "id": 4242234159, "lat": -35.3638287, "lon": 149.0925272}, {"type": "node", "id": 4393349159, "lat": -35.3656572, "lon": 149.0925432}, {"type": "node", "id": 4533067092, "lat": -35.3641682, "lon": 149.0925351, "tags": {"highway": "traffic_signals", "traffic_signals": "traffic_lights", "traffic_signals:direction": "forward"}}, {"type": "node", "id": 5190607790, "lat": -35.3635813, "lon": 149.0923761, "tags": {"bus": "yes", "gtfs_id": "2610", "name": "Athllon Drive opposite Southlands Shops", "network": "Transport Canberra", "public_transport": "stop_position", "ref": "2610"}}, {"type": "node", "id": 5190609789, "lat": -35.36501, "lon": 149.0925488, "tags": {"bus": "yes", "gtfs_id": "2609", "name": "Athllon Drive Southlands Shops", "network": "Transport Canberra", "public_transport": "stop_position", "ref": "2609"}}, {"type": "node", "id": 6246858274, "lat": -35.3710733, "lon": 149.0927429}, {"type": "node", "id": 6323111862, "lat": -35.3661029, "lon": 149.0924633}, {"type": "node", "id": 6323111863, "lat": -35.363303, "lon": 149.0923684}, {"type": "node", "id": 6323111864, "lat": -35.362937, "lon": 149.0923598}, {"type": "node", "id": 6323111865, "lat": -35.3629285, "lon": 149.0924965}, {"type": "node", "id": 6592540681, "lat": -35.3641953, "lon": 149.0925357, "tags": {"button_operated": "yes", "crossing": "traffic_signals", "highway": "crossing", "tactile_paving": "no", "traffic_signals:sound": "yes", "traffic_signals:vibration": "yes"}}, {"type": "node", "id": 6592540683, "lat": -35.3642029, "lon": 149.0923932, "tags": {"button_operated": "yes", "crossing": "traffic_signals", "highway": "crossing", "tactile_paving": "no", "traffic_signals:sound": "yes", "traffic_signals:vibration": "yes"}}, {"type": "node", "id": 6592656367, "lat": -35.3644749, "lon": 149.0924007, "tags": {"button_operated": "yes", "crossing": "traffic_signals", "highway": "crossing", "tactile_paving": "no", "traffic_signals:sound": "yes", "traffic_signals:vibration": "yes"}}, {"type": "node", "id": 6592656368, "lat": -35.364468, "lon": 149.0925421, "tags": {"button_operated": "yes", "crossing": "traffic_signals", "highway": "crossing", "tactile_paving": "no", "traffic_signals:sound": "yes", "traffic_signals:vibration": "yes"}}, {"type": "node", "id": 7115679167, "lat": -35.366931, "lon": 149.0925073, "tags": {"crossing": "unmarked", "highway": "crossing", "tactile_paving": "no"}}, {"type": "node", "id": 7116214866, "lat": -35.3657286, "lon": 149.0925469}, {"type": "node", "id": 7728274451, "lat": -35.3708494, "lon": 149.0928658}, {"type": "node", "id": 7728274470, "lat": -35.3620414, "lon": 149.0923081}, {"type": "node", "id": 7728274471, "lat": -35.3625918, "lon": 149.0923498}, {"type": "node", "id": 7728274472, "lat": -35.3625876, "lon": 149.0924582}, {"type": "node", "id": 7728274473, "lat": -35.3632975, "lon": 149.0925136}, {"type": "node", "id": 7728274475, "lat": -35.3649357, "lon": 149.092553}, {"type": "node", "id": 7728274477, "lat": -35.3654968, "lon": 149.0925349}, {"type": "node", "id": 7728274478, "lat": -35.3653349, "lon": 149.0925302}, {"type": "node", "id": 7728274480, "lat": -35.3705572, "lon": 149.0927071}, {"type": "node", "id": 7728274481, "lat": -35.3700403, "lon": 149.0926751}, {"type": "node", "id": 7728274482, "lat": -35.3690042, "lon": 149.0926187}, {"type": "node", "id": 7728274483, "lat": -35.3700003, "lon": 149.0927788}, {"type": "node", "id": 7728274484, "lat": -35.369717, "lon": 149.0927628}, {"type": "node", "id": 7728300485, "lat": -35.3702829, "lon": 149.0928068}, {"type": "node", "id": 7728300486, "lat": -35.3691482, "lon": 149.0927315}, {"type": "node", "id": 9289002512, "lat": -35.3655057, "lon": 149.0924312}, {"type": "way", "id": 80915755, "nodes": [943325886, 1930487142, 7728274470, 1930487143, 672839272], "tags": {"cycleway:both": "no", "highway": "primary", "lanes": "4", "lanes:backward": "2", "lanes:forward": "2", "maxspeed": "80", "maxspeed:conditional": "60 @ (Mo-Fr 15:00-15:30; PH off; SH off)", "name": "Athllon Drive", "source:geometry": "ACTMapi Imagery January 2020", "source:lanes": "ACT mapi Imagery 2018", "surface": "asphalt"}}, {"type": "way", "id": 410088472, "nodes": [672839272, 7728274472, 6323111865, 7728274473, 15128188], "tags": {"cycleway:left": "no", "highway": "primary", "lanes": "2", "maxspeed": "80", "name": "Athllon Drive", "oneway": "yes", "source": "nearmap", "source:geometry": "ACTMapi Imagery January 2020", "surface": "asphalt"}}, {"type": "way", "id": 582023245, "nodes": [672839266, 672839270], "tags": {"cycleway:left": "no", "highway": "primary", "lanes": "3", "maxspeed": "80", "name": "Athllon Drive", "oneway": "yes", "source": "nearmap", "source:geometry": "ACTMapi Imagery January 2020", "surface": "asphalt", "turn:lanes": "||right"}}, {"type": "way", "id": 582023246, "nodes": [15128191, 672839267], "tags": {"highway": "primary", "lanes": "3", "maxspeed": "80", "name": "Athllon Drive", "oneway": "yes", "source": "nearmap", "source:geometry": "ACTMapi Imagery January 2020", "surface": "asphalt", "turn:lanes": "||right"}}, {"type": "way", "id": 582023247, "nodes": [15128188, 4242234159, 654846176], "tags": {"cycleway:left": "no", "highway": "primary", "lanes": "2", "maxspeed": "80", "name": "Athllon Drive", "oneway": "yes", "source": "nearmap", "source:geometry": "ACTMapi Imagery January 2020", "surface": "asphalt"}}, {"type": "way", "id": 582023248, "nodes": [654846174, 5190607790, 6323111863], "tags": {"highway": "primary", "lanes": "3", "maxspeed": "80", "maxspeed:conditional": "60 @ (Mo-Fr 15:00-15:30; PH off; SH off)", "name": "Athllon Drive", "oneway": "yes", "source": "nearmap", "source:geometry": "ACTMapi Imagery January 2020", "source:lanes": "ACT mapi Imagery 2018", "surface": "asphalt"}}, {"type": "way", "id": 667196610, "nodes": [7728274475, 5190609789, 7728274478], "tags": {"highway": "primary", "lanes": "2", "maxspeed": "80", "name": "Athllon Drive", "oneway": "yes", "source": "nearmap", "source:geometry": "ACTMapi Imagery January 2020", "surface": "asphalt"}}, {"type": "way", "id": 667196612, "nodes": [9289002512, 672839254, 672839264], "tags": {"highway": "primary", "lanes": "2", "maxspeed": "80", "maxspeed:conditional": "60 @ (Mo-Fr 15:00-15:30; PH off; SH off)", "name": "Athllon Drive", "oneway": "yes", "source": "nearmap", "source:geometry": "ACTMapi Imagery January 2020", "surface": "asphalt"}}, {"type": "way", "id": 667640981, "nodes": [672839264, 672839269, 6592656367, 672839266], "tags": {"cycleway:left": "no", "highway": "primary", "lanes": "3", "maxspeed": "80", "maxspeed:conditional": "60 @ (Mo-Fr 15:00-15:30; PH off; SH off)", "name": "Athllon Drive", "oneway": "yes", "source": "nearmap", "source:geometry": "ACTMapi Imagery January 2020", "source:lanes": "ACT mapi Imagery 2018", "surface": "asphalt", "turn:lanes": "||right"}}, {"type": "way", "id": 667640982, "nodes": [654846176, 4533067092, 6592540681, 15128191], "tags": {"highway": "primary", "lanes": "3", "maxspeed": "80", "name": "Athllon Drive", "oneway": "yes", "source": "nearmap", "source:geometry": "ACTMapi Imagery January 2020", "surface": "asphalt", "turn:lanes": "||right"}}, {"type": "way", "id": 667640983, "nodes": [672839270, 6592540683, 654846174], "tags": {"cycleway:left": "no", "highway": "primary", "lanes": "2", "maxspeed": "80", "maxspeed:conditional": "60 @ (Mo-Fr 15:00-15:30; PH off; SH off)", "name": "Athllon Drive", "oneway": "yes", "source": "nearmap", "source:geometry": "ACTMapi Imagery January 2020", "surface": "asphalt"}}, {"type": "way", "id": 675181354, "nodes": [7728274480, 7728274481, 7728274482, 7115679167, 6323111862], "tags": {"cycleway:left": "lane", "highway": "primary", "lanes": "2", "maxspeed": "80", "name": "Athllon Drive", "oneway": "yes", "source": "nearmap", "source:geometry": "ACTMapi Imagery January 2020", "surface": "asphalt"}}, {"type": "way", "id": 675181355, "nodes": [6323111863, 6323111864, 7728274471, 672839272], "tags": {"cycleway:left": "no", "highway": "primary", "lanes": "3", "maxspeed": "80", "maxspeed:conditional": "60 @ (Mo-Fr 15:00-15:30; PH off; SH off)", "name": "Athllon Drive", "oneway": "yes", "source": "nearmap", "source:geometry": "ACTMapi Imagery January 2020", "source:lanes": "ACT mapi Imagery 2018", "surface": "asphalt"}}, {"type": "way", "id": 761601923, "nodes": [654846151, 7728300486, 7728274484, 7728274483, 7728300485], "tags": {"cycleway:left": "lane", "highway": "primary", "lanes": "2", "maxspeed": "80", "name": "Athllon Drive", "oneway": "yes", "source": "nearmap", "source:geometry": "ACTMapi Imagery January 2020", "surface": "asphalt"}}, {"type": "way", "id": 786041693, "nodes": [4393349159, 7116214866, 654846151], "tags": {"cycleway:left": "lane", "highway": "primary", "lanes": "2", "maxspeed": "80", "name": "Athllon Drive", "oneway": "yes", "source": "nearmap", "source:geometry": "ACTMapi Imagery January 2020", "surface": "asphalt"}}, {"type": "way", "id": 1006838461, "nodes": [6246858274, 7728274480], "tags": {"cycleway:left": "no", "highway": "primary", "lanes": "2", "maxspeed": "80", "name": "Athllon Drive", "oneway": "yes", "source": "nearmap", "source:geometry": "ACTMapi Imagery January 2020", "surface": "asphalt"}}, {"type": "way", "id": 1006838462, "nodes": [7728300485, 7728274451, 654831475], "tags": {"cycleway:left": "no", "highway": "primary", "lanes": "2", "maxspeed": "80", "name": "Athllon Drive", "oneway": "yes", "source": "nearmap", "source:geometry": "ACTMapi Imagery January 2020", "surface": "asphalt"}}, {"type": "way", "id": 1006838463, "nodes": [7728274478, 7728274477, 4393349159], "tags": {"cycleway:left": "lane", "highway": "primary", "lanes": "2", "maxspeed": "80", "name": "Athllon Drive", "oneway": "yes", "source": "nearmap", "source:geometry": "ACTMapi Imagery January 2020", "surface": "asphalt"}}, {"type": "way", "id": 1006838464, "nodes": [6323111862, 67385975, 9289002512], "tags": {"cycleway:left": "lane", "highway": "primary", "lanes": "2", "maxspeed": "80", "maxspeed:conditional": "60 @ (Mo-Fr 15:00-15:30; PH off; SH off)", "name": "Athllon Drive", "oneway": "yes", "source": "nearmap", "source:geometry": "ACTMapi Imagery January 2020", "surface": "asphalt"}}, {"type": "way", "id": 1074107863, "nodes": [672839267, 6592656368, 654846159, 7728274475], "tags": {"highway": "primary", "lanes": "2", "maxspeed": "80", "name": "Athllon Drive", "oneway": "yes", "source": "nearmap", "source:geometry": "ACTMapi Imagery January 2020", "surface": "asphalt"}}]}