{"version": 0.6, "generator": "Overpass API 0.7.61.5 4133829e", "osm3s": {"timestamp_osm_base": "2023-12-06T09:52:58Z", "copyright": "The data included in this document is from www.openstreetmap.org. The data is made available under ODbL."}, "elements": [{"type": "node", "id": 93132834, "lat": -30.3483466, "lon": 149.7593053}, {"type": "node", "id": 93132926, "lat": -30.3447256, "lon": 149.7618365}, {"type": "node", "id": 93133029, "lat": -30.3436152, "lon": 149.7627192}, {"type": "node", "id": 93133046, "lat": -30.3424312, "lon": 149.7637323}, {"type": "node", "id": 93518513, "lat": -30.3491097, "lon": 149.7609854}, {"type": "node", "id": 93518516, "lat": -30.34958, "lon": 149.7613239}, {"type": "node", "id": 93518535, "lat": -30.3499811, "lon": 149.761714}, {"type": "node", "id": 93518545, "lat": -30.3504916, "lon": 149.7621097}, {"type": "node", "id": 93518566, "lat": -30.3519645, "lon": 149.7628561}, {"type": "node", "id": 1545719010, "lat": -30.3537597, "lon": 149.763482}, {"type": "node", "id": 1820185176, "lat": -30.3496477, "lon": 149.7566525}, {"type": "node", "id": 1820185180, "lat": -30.3489637, "lon": 149.7580454}, {"type": "node", "id": 1828625748, "lat": -30.3430075, "lon": 149.7632311}, {"type": "node", "id": 1828625750, "lat": -30.3433663, "lon": 149.7629252}, {"type": "node", "id": 1828625751, "lat": -30.343788, "lon": 149.7625905}, {"type": "node", "id": 1828625754, "lat": -30.3439251, "lon": 149.7625613}, {"type": "node", "id": 1828625757, "lat": -30.3440444, "lon": 149.7623335}, {"type": "node", "id": 1828625833, "lat": -30.3440408, "lon": 149.7623917}, {"type": "node", "id": 1828625835, "lat": -30.3440583, "lon": 149.7622908}, {"type": "node", "id": 1828625839, "lat": -30.3441584, "lon": 149.7621999}, {"type": "node", "id": 1828625844, "lat": -30.3441204, "lon": 149.7625334}, {"type": "node", "id": 1828625845, "lat": -30.3442017, "lon": 149.7621946}, {"type": "node", "id": 1828625847, "lat": -30.3442143, "lon": 149.762555}, {"type": "node", "id": 1828625848, "lat": -30.3442402, "lon": 149.7622018}, {"type": "node", "id": 1828625850, "lat": -30.3442607, "lon": 149.7625401}, {"type": "node", "id": 1828625852, "lat": -30.3443427, "lon": 149.7623125}, {"type": "node", "id": 1828625855, "lat": -30.3443488, "lon": 149.7624139}, {"type": "node", "id": 1828625857, "lat": -30.3443522, "lon": 149.7623673}, {"type": "node", "id": 1828625860, "lat": -30.3443628, "lon": 149.7621481}, {"type": "node", "id": 1828625866, "lat": -30.3445327, "lon": 149.7620116}, {"type": "node", "id": 1828625871, "lat": -30.3449939, "lon": 149.7615941, "tags": {"crossing:barrier": "no", "crossing:light": "yes", "railway": "level_crossing", "source": "Bing"}}, {"type": "node", "id": 1828625960, "lat": -30.3474657, "lon": 149.7600267}, {"type": "node", "id": 1828625962, "lat": -30.3476446, "lon": 149.7600183}, {"type": "node", "id": 1828625964, "lat": -30.3477372, "lon": 149.7598859}, {"type": "node", "id": 1828625966, "lat": -30.3477424, "lon": 149.7599648}, {"type": "node", "id": 1828625968, "lat": -30.3477629, "lon": 149.7597947}, {"type": "node", "id": 1828625983, "lat": -30.3477748, "lon": 149.7600427}, {"type": "node", "id": 1828625987, "lat": -30.3478077, "lon": 149.7600823}, {"type": "node", "id": 1828625989, "lat": -30.3478094, "lon": 149.7597328}, {"type": "node", "id": 1828625996, "lat": -30.3478567, "lon": 149.7597007}, {"type": "node", "id": 1828625997, "lat": -30.3478656, "lon": 149.7601198}, {"type": "node", "id": 1828625999, "lat": -30.3479127, "lon": 149.7596851}, {"type": "node", "id": 1828626001, "lat": -30.3479185, "lon": 149.760132}, {"type": "node", "id": 1828626002, "lat": -30.3479694, "lon": 149.759689}, {"type": "node", "id": 1828626004, "lat": -30.3479718, "lon": 149.760127}, {"type": "node", "id": 1828626006, "lat": -30.3479969, "lon": 149.7596982}, {"type": "node", "id": 1828626094, "lat": -30.347998, "lon": 149.7601179}, {"type": "node", "id": 1828626095, "lat": -30.3480518, "lon": 149.7597346}, {"type": "node", "id": 1828626096, "lat": -30.3480622, "lon": 149.7600714}, {"type": "node", "id": 1828626097, "lat": -30.348091, "lon": 149.7597849}, {"type": "node", "id": 1828626098, "lat": -30.348097, "lon": 149.7600204}, {"type": "node", "id": 1828626099, "lat": -30.3481198, "lon": 149.7598681}, {"type": "node", "id": 1828626100, "lat": -30.3481204, "lon": 149.7599448}, {"type": "node", "id": 1828626101, "lat": -30.34814, "lon": 149.7596}, {"type": "node", "id": 1828626102, "lat": -30.3481825, "lon": 149.7601741}, {"type": "node", "id": 1828626103, "lat": -30.3481934, "lon": 149.7600847}, {"type": "node", "id": 1828626104, "lat": -30.3482666, "lon": 149.7594732}, {"type": "node", "id": 1828626106, "lat": -30.3483091, "lon": 149.7602394}, {"type": "node", "id": 1846240842, "lat": -30.3508936, "lon": 149.76236}, {"type": "node", "id": 3006854565, "lat": -30.341594, "lon": 149.7646008}, {"type": "node", "id": 3006854566, "lat": -30.3416513, "lon": 149.7645461}, {"type": "node", "id": 3006854567, "lat": -30.3461246, "lon": 149.7607557}, {"type": "node", "id": 3006854568, "lat": -30.3484193, "lon": 149.759159}, {"type": "node", "id": 3006854569, "lat": -30.3503765, "lon": 149.755176}, {"type": "node", "id": 4089721701, "lat": -30.343891, "lon": 149.7624836}, {"type": "node", "id": 4493627779, "lat": -30.3453698, "lon": 149.7612901}, {"type": "node", "id": 4493627780, "lat": -30.3440534, "lon": 149.7624482}, {"type": "node", "id": 4493627781, "lat": -30.3440809, "lon": 149.7624972}, {"type": "node", "id": 4493627782, "lat": -30.3441659, "lon": 149.7625528}, {"type": "node", "id": 4493627783, "lat": -30.3443011, "lon": 149.7625094}, {"type": "node", "id": 4493627784, "lat": -30.3443314, "lon": 149.762466}, {"type": "node", "id": 4493627785, "lat": -30.3443191, "lon": 149.7622637}, {"type": "node", "id": 4493627786, "lat": -30.3442838, "lon": 149.7622256}, {"type": "node", "id": 4493627787, "lat": -30.3441181, "lon": 149.7622188}, {"type": "node", "id": 4493627788, "lat": -30.3440838, "lon": 149.76225}, {"type": "node", "id": 4743840806, "lat": -30.3457574, "lon": 149.7610009}, {"type": "node", "id": 4847373747, "lat": -30.3496965, "lon": 149.756552}, {"type": "node", "id": 7438428182, "lat": -30.3473869, "lon": 149.7600695}, {"type": "node", "id": 10574309426, "lat": -30.3488173, "lon": 149.7583482}, {"type": "way", "id": 171896474, "nodes": [1828625748, 93133046, 3006854566, 3006854565], "tags": {"alt_name": "Newell Highway", "highway": "trunk", "lanes": "2", "maxspeed": "50", "name": "Cooma Road", "network": "AU:NSW", "ref": "A39", "source": "survey", "source:maxspeed": "sign", "surface": "asphalt"}}, {"type": "way", "id": 171896512, "nodes": [1828626094, 1828626102, 1828626106], "tags": {"highway": "primary", "lanes": "1", "maxspeed": "50", "name": "Kamilaroi Highway", "network": "AU:NSW", "old_network": "NR", "old_ref": "37", "oneway": "yes", "ref": "B51", "source": "Bing", "surface": "asphalt"}}, {"type": "way", "id": 171896514, "nodes": [1828626106, 1828626103, 1828626100], "tags": {"highway": "primary", "lanes": "1", "maxspeed": "50", "name": "Kamilaroi Highway", "network": "AU:NSW", "old_network": "NR", "old_ref": "37", "oneway": "yes", "ref": "B51", "source": "Bing", "surface": "asphalt"}}, {"type": "way", "id": 171896515, "nodes": [1828626106, 93518513, 93518516], "tags": {"highway": "primary", "maxspeed": "50", "name": "Kamilaroi Highway", "network": "AU:NSW", "old_network": "NR", "old_ref": "37", "ref": "B51", "source": "survey", "source:maxspeed": "sign", "surface": "asphalt"}}, {"type": "way", "id": 171896524, "nodes": [93518516, 93518535, 93518545, 1846240842, 93518566, 1545719010], "tags": {"highway": "primary", "maxspeed": "80", "name": "Kamilaroi Highway", "network": "AU:NSW", "old_network": "NR", "old_ref": "37", "ref": "B51", "source": "survey", "source:maxspeed": "sign", "surface": "asphalt"}}, {"type": "way", "id": 171896544, "nodes": [1828625844, 4493627782, 1828625847, 1828625850, 4493627783, 4493627784, 1828625855], "tags": {"highway": "trunk", "junction": "roundabout", "lanes": "1", "maxspeed": "50", "network": "AU:NSW", "ref": "A39", "source": "Bing", "surface": "asphalt"}}, {"type": "way", "id": 171896545, "nodes": [1828625750, 1828625748], "tags": {"alt_name": "Newell Highway", "bridge": "yes", "highway": "trunk", "lanes": "2", "layer": "1", "maxspeed": "50", "name": "Cooma Road", "network": "AU:NSW", "ref": "A39", "source": "Bing", "source:name": "NSW LPI Base Map", "source:name:date": "2016-03", "surface": "asphalt"}}, {"type": "way", "id": 171896546, "nodes": [1828625857, 1828625866], "tags": {"highway": "trunk", "lanes": "1", "maxspeed": "50", "name": "Newell Highway", "network": "AU:NSW", "oneway": "yes", "ref": "A39", "source": "Bing", "surface": "asphalt"}}, {"type": "way", "id": 171896548, "nodes": [1828625757, 4089721701, 1828625751], "tags": {"alt_name": "Newell Highway", "highway": "trunk", "lanes": "1", "maxspeed": "50", "name": "Cooma Road", "network": "AU:NSW", "oneway": "yes", "ref": "A39", "source": "Bing", "source:name": "NSW LPI Base Map", "source:name:date": "2016-03", "surface": "asphalt"}}, {"type": "way", "id": 171896549, "nodes": [1828625968, 1828625960], "tags": {"highway": "trunk", "lanes": "1", "maxspeed": "50", "name": "Newell Highway", "network": "AU:NSW", "oneway": "yes", "ref": "A39", "source": "Bing", "surface": "asphalt"}}, {"type": "way", "id": 171896550, "nodes": [1828625983, 1828625987, 1828625997, 1828626001, 1828626004], "tags": {"highway": "trunk", "junction": "roundabout", "lanes": "1", "maxspeed": "50", "network": "AU:NSW", "ref": "A39", "source": "Bing", "surface": "asphalt"}}, {"type": "way", "id": 171896551, "nodes": [1828625751, 93133029, 1828625750], "tags": {"alt_name": "Newell Highway", "highway": "trunk", "lanes": "2", "maxspeed": "50", "name": "Cooma Road", "network": "AU:NSW", "ref": "A39", "source": "survey", "source:maxspeed": "sign", "source:name": "NSW LPI Base Map", "source:name:date": "2016-03", "surface": "asphalt"}}, {"type": "way", "id": 171896552, "nodes": [1828625866, 1828625860, 1828625848], "tags": {"highway": "trunk", "lanes": "1", "maxspeed": "50", "name": "Newell Highway", "network": "AU:NSW", "oneway": "yes", "ref": "A39", "source": "Bing", "surface": "asphalt"}}, {"type": "way", "id": 171896553, "nodes": [1828625751, 1828625754, 1828625844], "tags": {"alt_name": "Newell Highway", "highway": "trunk", "lanes": "1", "maxspeed": "50", "name": "Cooma Road", "network": "AU:NSW", "oneway": "yes", "ref": "A39", "source": "Bing", "source:name": "NSW LPI Base Map", "source:name:date": "2016-03", "surface": "asphalt"}}, {"type": "way", "id": 171896554, "nodes": [1828625960, 1828625962, 1828625983], "tags": {"highway": "trunk", "lanes": "1", "maxspeed": "50", "name": "Newell Highway", "network": "AU:NSW", "oneway": "yes", "ref": "A39", "source": "Bing", "surface": "asphalt"}}, {"type": "way", "id": 171896556, "nodes": [1828625960, 7438428182, 3006854567, 4743840806, 4493627779, 1828625871], "tags": {"highway": "trunk", "lanes": "2", "maxspeed": "50", "name": "Newell Highway", "network": "AU:NSW", "ref": "A39", "source": "survey", "source:maxspeed": "sign", "surface": "asphalt"}}, {"type": "way", "id": 171896558, "nodes": [1828626099, 1828626104], "tags": {"highway": "trunk", "lanes": "1", "maxspeed": "50", "name": "Newell Highway", "network": "AU:NSW", "oneway": "yes", "ref": "A39", "source": "Bing", "surface": "asphalt"}}, {"type": "way", "id": 171896563, "nodes": [1828626104, 1828626101, 1828626006], "tags": {"highway": "trunk", "lanes": "1", "maxspeed": "50", "name": "Newell Highway", "network": "AU:NSW", "oneway": "yes", "ref": "A39", "source": "Bing", "surface": "asphalt"}}, {"type": "way", "id": 171896565, "nodes": [1828626104, 93132834, 3006854568, 10574309426], "tags": {"highway": "trunk", "lanes": "2", "maxspeed": "50", "name": "Newell Highway", "network": "AU:NSW", "ref": "A39", "source": "survey", "source:location": "bing", "surface": "asphalt"}}, {"type": "way", "id": 296878076, "nodes": [10574309426, 1820185180, 1820185176, 4847373747, 3006854569], "tags": {"highway": "trunk", "lanes": "2", "maxspeed": "80", "name": "Newell Highway", "network": "AU:NSW", "ref": "A39", "source": "survey", "source:location": "bing", "surface": "asphalt"}}, {"type": "way", "id": 726002544, "nodes": [1828625835, 1828625757], "tags": {"highway": "trunk", "junction": "roundabout", "lanes": "1", "maxspeed": "50", "network": "AU:NSW", "ref": "A39", "source": "Bing", "surface": "asphalt"}}, {"type": "way", "id": 726162817, "nodes": [1828626006, 1828626002, 1828625999, 1828625996, 1828625989], "tags": {"highway": "trunk", "junction": "roundabout", "lanes": "1", "maxspeed": "50", "network": "AU:NSW", "ref": "A39", "source": "Bing", "surface": "asphalt"}}, {"type": "way", "id": 726162818, "nodes": [1828626100, 1828626099], "tags": {"highway": "trunk", "junction": "roundabout", "lanes": "1", "maxspeed": "50", "network": "AU:NSW", "ref": "A39", "source": "Bing", "surface": "asphalt"}}, {"type": "way", "id": 726162819, "nodes": [1828625989, 1828625968], "tags": {"highway": "trunk", "junction": "roundabout", "lanes": "1", "maxspeed": "50", "network": "AU:NSW", "ref": "A39", "source": "Bing", "surface": "asphalt"}}, {"type": "way", "id": 770515086, "nodes": [1828626094, 1828626096, 1828626098, 1828626100], "tags": {"highway": "trunk", "junction": "roundabout", "lanes": "1", "maxspeed": "50", "network": "AU:NSW", "ref": "A39", "source": "Bing", "surface": "asphalt"}}, {"type": "way", "id": 770515087, "nodes": [1828626004, 1828626094], "tags": {"highway": "trunk", "junction": "roundabout", "lanes": "1", "maxspeed": "50", "network": "AU:NSW", "ref": "A39", "source": "Bing", "surface": "asphalt"}}, {"type": "way", "id": 770752037, "nodes": [1828625848, 1828625845, 1828625839, 4493627787, 4493627788, 1828625835], "tags": {"highway": "trunk", "junction": "roundabout", "lanes": "1", "maxspeed": "50", "network": "AU:NSW", "ref": "A39", "source": "Bing", "surface": "asphalt"}}, {"type": "way", "id": 770752038, "nodes": [1828625855, 1828625857], "tags": {"highway": "trunk", "junction": "roundabout", "lanes": "1", "maxspeed": "50", "network": "AU:NSW", "ref": "A39", "source": "Bing", "surface": "asphalt"}}, {"type": "way", "id": 795282420, "nodes": [1828625871, 93132926, 1828625866], "tags": {"highway": "trunk", "lanes": "2", "maxspeed": "50", "name": "Newell Highway", "network": "AU:NSW", "ref": "A39", "source": "survey", "source:maxspeed": "sign", "surface": "asphalt"}}, {"type": "way", "id": 944246234, "nodes": [1828625757, 1828625833, 4493627780, 4493627781, 1828625844], "tags": {"highway": "trunk", "junction": "roundabout", "lanes": "1", "maxspeed": "50", "network": "AU:NSW", "ref": "A39", "source": "Bing", "surface": "asphalt"}}, {"type": "way", "id": 944246235, "nodes": [1828625857, 1828625852, 4493627785, 4493627786, 1828625848], "tags": {"highway": "trunk", "junction": "roundabout", "lanes": "1", "maxspeed": "50", "network": "AU:NSW", "ref": "A39", "source": "Bing", "surface": "asphalt"}}, {"type": "way", "id": 944246236, "nodes": [1828626099, 1828626097, 1828626095, 1828626006], "tags": {"highway": "trunk", "junction": "roundabout", "lanes": "1", "maxspeed": "50", "network": "AU:NSW", "ref": "A39", "source": "Bing", "surface": "asphalt"}}, {"type": "way", "id": 944246237, "nodes": [1828625968, 1828625964, 1828625966, 1828625983], "tags": {"highway": "trunk", "junction": "roundabout", "lanes": "1", "maxspeed": "50", "network": "AU:NSW", "ref": "A39", "source": "Bing", "surface": "asphalt"}}]}