{"version": 0.6, "generator": "Overpass API 0.7.61.5 4133829e", "osm3s": {"timestamp_osm_base": "2023-12-06T11:45:36Z", "copyright": "The data included in this document is from www.openstreetmap.org. The data is made available under ODbL."}, "elements": [{"type": "node", "id": 19160748, "lat": -33.8140088, "lon": 150.997932}, {"type": "node", "id": 19160751, "lat": -33.8139751, "lon": 150.9980286}, {"type": "node", "id": 19160764, "lat": -33.8143668, "lon": 150.9998724}, {"type": "node", "id": 19160794, "lat": -33.8128229, "lon": 151.000278}, {"type": "node", "id": 19160798, "lat": -33.8161136, "lon": 150.9993053, "tags": {"ref": "0889", "start_date": "1979-05-23"}}, {"type": "node", "id": 19160866, "lat": -33.8196807, "lon": 151.006572}, {"type": "node", "id": 21703289, "lat": -33.8178824, "lon": 150.9987742}, {"type": "node", "id": 21703292, "lat": -33.8187897, "lon": 151.0095162}, {"type": "node", "id": 29778375, "lat": -33.8116078, "lon": 151.0005647}, {"type": "node", "id": 29778377, "lat": -33.8152751, "lon": 150.999555}, {"type": "node", "id": 29778403, "lat": -33.819557, "lon": 151.0071571}, {"type": "node", "id": 29778404, "lat": -33.8192721, "lon": 151.0077667}, {"type": "node", "id": 29778405, "lat": -33.8190576, "lon": 151.0083445}, {"type": "node", "id": 36422670, "lat": -33.8191103, "lon": 150.9988971}, {"type": "node", "id": 36809630, "lat": -33.818993, "lon": 150.998383}, {"type": "node", "id": 36809631, "lat": -33.8190385, "lon": 150.9981662}, {"type": "node", "id": 51912040, "lat": -33.818613, "lon": 150.9985555}, {"type": "node", "id": 52028404, "lat": -33.8194191, "lon": 151.0074806, "tags": {"highway": "traffic_signals"}}, {"type": "node", "id": 52029050, "lat": -33.8170107, "lon": 150.99903, "tags": {"highway": "traffic_signals"}}, {"type": "node", "id": 52030966, "lat": -33.8193967, "lon": 151.0002179}, {"type": "node", "id": 52030968, "lat": -33.8194752, "lon": 151.0001684, "tags": {"ref": "0724", "start_date": "1971-12-30"}}, {"type": "node", "id": 543387457, "lat": -33.811633, "lon": 151.0006621}, {"type": "node", "id": 585685199, "lat": -33.8099786, "lon": 151.0011864}, {"type": "node", "id": 1836004785, "lat": -33.8130621, "lon": 151.0003082}, {"type": "node", "id": 1836004789, "lat": -33.8108308, "lon": 151.0008997}, {"type": "node", "id": 1836004791, "lat": -33.8142142, "lon": 150.9998358}, {"type": "node", "id": 1836004792, "lat": -33.8101705, "lon": 151.0010195, "tags": {"bus": "yes", "highway": "bus_stop", "name": "Bankwest Stadium", "public_transport": "stop_position"}}, {"type": "node", "id": 1838673168, "lat": -33.8160649, "lon": 150.9993187}, {"type": "node", "id": 2085353843, "lat": -33.8188433, "lon": 151.0090687}, {"type": "node", "id": 2368038488, "lat": -33.8160147, "lon": 150.9993333, "tags": {"crossing": "traffic_signals", "highway": "crossing"}}, {"type": "node", "id": 2368065701, "lat": -33.8194672, "lon": 151.0073917}, {"type": "node", "id": 2622027016, "lat": -33.8128397, "lon": 151.0003706}, {"type": "node", "id": 2626755338, "lat": -33.8146648, "lon": 150.9997386}, {"type": "node", "id": 2626755339, "lat": -33.813992, "lon": 150.997963}, {"type": "node", "id": 2626755341, "lat": -33.8143469, "lon": 150.9997861}, {"type": "node", "id": 2626755345, "lat": -33.8139858, "lon": 150.9981491}, {"type": "node", "id": 2626798472, "lat": -33.8108136, "lon": 151.0008052}, {"type": "node", "id": 3774006697, "lat": -33.8191952, "lon": 151.0079616}, {"type": "node", "id": 3774006700, "lat": -33.8195152, "lon": 151.0072721}, {"type": "node", "id": 4417495243, "lat": -33.8191132, "lon": 150.9984786, "tags": {"highway": "traffic_signals", "traffic_signals:direction": "forward"}}, {"type": "node", "id": 4417496591, "lat": -33.8181556, "lon": 150.998692}, {"type": "node", "id": 5319350433, "lat": -33.8100018, "lon": 151.0010722}, {"type": "node", "id": 5419605891, "lat": -33.8139773, "lon": 150.9981079}, {"type": "node", "id": 5595711946, "lat": -33.8190214, "lon": 151.008461}, {"type": "node", "id": 5595711947, "lat": -33.8189163, "lon": 151.0088075}, {"type": "node", "id": 5595711950, "lat": -33.8188184, "lon": 151.009206}, {"type": "node", "id": 5595711952, "lat": -33.8188765, "lon": 151.0089531}, {"type": "node", "id": 6011740832, "lat": -33.8140526, "lon": 150.9999968}, {"type": "node", "id": 6011740833, "lat": -33.8141251, "lon": 150.9998683}, {"type": "node", "id": 6011740834, "lat": -33.8134944, "lon": 151.0000799}, {"type": "node", "id": 6011740868, "lat": -33.813981, "lon": 150.9979958}, {"type": "node", "id": 6011740869, "lat": -33.8139735, "lon": 150.998069}, {"type": "node", "id": 6011772399, "lat": -33.8122237, "lon": 151.0004183}, {"type": "node", "id": 6011772400, "lat": -33.8122397, "lon": 151.0005059}, {"type": "node", "id": 6633157690, "lat": -33.8194994, "lon": 151.0002854, "tags": {"crossing": "traffic_signals", "highway": "crossing"}}, {"type": "node", "id": 6633157691, "lat": -33.8194164, "lon": 151.000315, "tags": {"crossing": "traffic_signals", "highway": "crossing"}}, {"type": "node", "id": 6718213817, "lat": -33.8195672, "lon": 151.0009998}, {"type": "node", "id": 6718213840, "lat": -33.8196259, "lon": 151.0012704}, {"type": "node", "id": 6779575031, "lat": -33.8180407, "lon": 150.998727}, {"type": "node", "id": 7351836037, "lat": -33.8191698, "lon": 150.9991626}, {"type": "node", "id": 7728174140, "lat": -33.8141439, "lon": 150.9988738, "tags": {"crossing": "marked", "highway": "crossing", "ref": "3650", "start_date": "2000-08-11", "traffic_calming": "table"}}, {"type": "node", "id": 8387549924, "lat": -33.8194769, "lon": 151.0073691}, {"type": "node", "id": 8387549960, "lat": -33.815759, "lon": 150.9994094}, {"type": "node", "id": 8387549961, "lat": -33.8159374, "lon": 150.9993563}, {"type": "node", "id": 8420494716, "lat": -33.8178686, "lon": 150.9987782}, {"type": "node", "id": 8455798326, "lat": -33.8196129, "lon": 151.0069879}, {"type": "node", "id": 8460530966, "lat": -33.8193633, "lon": 151.0075828}, {"type": "node", "id": 8460530984, "lat": -33.8187966, "lon": 151.0093958, "tags": {"crossing": "marked", "highway": "crossing"}}, {"type": "node", "id": 8465162552, "lat": -33.812732, "lon": 151.0002986, "tags": {"crossing": "traffic_signals", "highway": "crossing"}}, {"type": "node", "id": 8465162553, "lat": -33.8127494, "lon": 151.0003949, "tags": {"crossing": "traffic_signals", "highway": "crossing"}}, {"type": "node", "id": 8465162555, "lat": -33.8129208, "lon": 151.0002509, "tags": {"crossing": "traffic_signals", "highway": "crossing"}}, {"type": "node", "id": 8465162556, "lat": -33.8129402, "lon": 151.0003411, "tags": {"crossing": "traffic_signals", "highway": "crossing"}}, {"type": "node", "id": 8465162757, "lat": -33.8168736, "lon": 150.999072, "tags": {"crossing": "traffic_signals", "highway": "crossing"}}, {"type": "node", "id": 8465162758, "lat": -33.81617, "lon": 150.9992874, "tags": {"crossing": "traffic_signals", "highway": "crossing"}}, {"type": "node", "id": 8484726261, "lat": -33.8193589, "lon": 151.0000423, "tags": {"highway": "traffic_signals", "traffic_signals": "signal", "traffic_signals:direction": "forward"}}, {"type": "node", "id": 8484726264, "lat": -33.8196871, "lon": 151.0011489}, {"type": "node", "id": 8484726265, "lat": -33.8197015, "lon": 151.0015513}, {"type": "node", "id": 8558986627, "lat": -33.8165814, "lon": 150.9991615}, {"type": "node", "id": 9708726586, "lat": -33.813836, "lon": 150.9999706}, {"type": "node", "id": 9710968341, "lat": -33.8196526, "lon": 151.0067787}, {"type": "node", "id": 9710968342, "lat": -33.8196329, "lon": 151.0068906}, {"type": "node", "id": 9710968347, "lat": -33.8188024, "lon": 151.0093294}, {"type": "node", "id": 9710968349, "lat": -33.8187995, "lon": 151.0093626, "tags": {"highway": "traffic_signals", "traffic_signals": "signal", "traffic_signals:direction": "forward"}}, {"type": "node", "id": 9710968389, "lat": -33.8151795, "lon": 150.9995838, "tags": {"highway": "traffic_signals", "traffic_signals": "signal", "traffic_signals:direction": "forward"}}, {"type": "node", "id": 9710968390, "lat": -33.8142613, "lon": 150.9999126, "tags": {"highway": "traffic_signals", "traffic_signals": "signal", "traffic_signals:direction": "forward"}}, {"type": "node", "id": 9710968391, "lat": -33.8129488, "lon": 151.0002429, "tags": {"highway": "traffic_signals", "traffic_signals": "signal", "traffic_signals:direction": "forward"}}, {"type": "node", "id": 9710968392, "lat": -33.8127114, "lon": 151.0004032, "tags": {"highway": "traffic_signals", "traffic_signals": "signal", "traffic_signals:direction": "forward"}}, {"type": "node", "id": 10125387857, "lat": -33.8193052, "lon": 151.0076999}, {"type": "node", "id": 10131902520, "lat": -33.8143115, "lon": 150.999628, "tags": {"highway": "traffic_signals", "traffic_signals": "signal", "traffic_signals:direction": "forward"}}, {"type": "node", "id": 10131902521, "lat": -33.8143173, "lon": 150.9996537, "tags": {"crossing": "traffic_signals", "highway": "crossing"}}, {"type": "node", "id": 10131902522, "lat": -33.8144657, "lon": 150.999828, "tags": {"crossing": "traffic_signals", "highway": "crossing"}}, {"type": "node", "id": 10131902523, "lat": -33.8142675, "lon": 150.9998159}, {"type": "node", "id": 10131902524, "lat": -33.8142887, "lon": 150.9999022}, {"type": "node", "id": 10131902529, "lat": -33.8136725, "lon": 151.0001163}, {"type": "node", "id": 10153175924, "lat": -33.8195872, "lon": 151.0070785}, {"type": "node", "id": 10303605416, "lat": -33.8195068, "lon": 151.0003194, "tags": {"highway": "traffic_signals", "traffic_signals": "signal", "traffic_signals:direction": "forward"}}, {"type": "node", "id": 10303605417, "lat": -33.8190778, "lon": 150.9987547}, {"type": "node", "id": 10598556759, "lat": -33.8105242, "lon": 151.001003}, {"type": "node", "id": 10598556760, "lat": -33.8104438, "lon": 151.001039}, {"type": "node", "id": 11390707669, "lat": -33.8159854, "lon": 150.999342, "tags": {"highway": "traffic_signals", "traffic_signals": "signal", "traffic_signals:direction": "forward"}}, {"type": "way", "id": 3816228, "nodes": [19160748, 2626755339, 6011740868, 19160751, 6011740869, 5419605891, 2626755345, 7728174140], "tags": {"highway": "primary", "lanes": "1", "maxspeed": "50", "name": "Macquarie Street", "oneway": "yes", "surface": "paved"}}, {"type": "way", "id": 255868967, "nodes": [52028404, 8460530966, 10125387857, 29778404, 3774006697], "tags": {"bicycle": "yes", "cycleway": "no", "foot": "yes", "highway": "primary", "lanes": "4", "lit": "yes", "maxspeed": "60", "name": "Parkes Street", "oneway": "no", "sidewalk": "both", "surface": "asphalt"}}, {"type": "way", "id": 257059644, "nodes": [1836004791, 6011740833, 9708726586, 6011740834, 9710968391, 8465162555, 19160794], "tags": {"bicycle": "yes", "cycleway": "no", "highway": "primary", "lanes": "3", "name": "O'Connell Street", "oneway": "yes", "source:name": "NSW LPI Base Map", "source:name:date": "2015-12", "surface": "paved", "turn:lanes": "none|none|right"}}, {"type": "way", "id": 257059646, "nodes": [2626755341, 19160764], "tags": {"bicycle": "yes", "highway": "primary", "lanes": "1", "name": "Macquarie Street", "oneway": "yes", "surface": "paved"}}, {"type": "way", "id": 257063584, "nodes": [19160764, 10131902522, 2626755338, 9710968389, 29778377, 8387549960], "tags": {"highway": "primary", "lanes": "4", "name": "O'Connell Street", "oneway": "yes", "surface": "paved"}}, {"type": "way", "id": 257063586, "nodes": [6011772400, 9710968392, 8465162553, 2622027016], "tags": {"highway": "primary", "name": "O'Connell Street", "oneway": "yes", "source:name": "NSW LPI Base Map", "source:name:date": "2015-12", "surface": "paved"}}, {"type": "way", "id": 257063587, "nodes": [1836004789, 543387457], "tags": {"bridge": "yes", "highway": "primary", "layer": "2", "name": "O'Connell Street", "oneway": "yes", "surface": "paved"}}, {"type": "way", "id": 257063588, "nodes": [29778375, 2626798472], "tags": {"bicycle": "yes", "bridge": "yes", "cycleway": "no", "highway": "primary", "layer": "2", "name": "O'Connell Street", "oneway": "yes", "surface": "paved"}}, {"type": "way", "id": 257344168, "nodes": [19160866, 9710968341, 9710968342, 8455798326, 10153175924, 29778403], "tags": {"bicycle": "yes", "cycleway": "no", "foot": "yes", "highway": "primary", "lanes": "4", "lit": "yes", "maxspeed": "60", "name": "Parkes Street", "oneway": "no", "sidewalk": "both", "surface": "asphalt"}}, {"type": "way", "id": 373984436, "nodes": [2085353843, 5595711950, 9710968347, 9710968349, 8460530984, 21703292], "tags": {"bicycle": "yes", "cycleway": "no", "foot": "yes", "highway": "primary", "lanes": "4", "lit": "yes", "maxspeed": "60", "name": "Parkes Street", "oneway": "no", "sidewalk": "both", "surface": "asphalt"}}, {"type": "way", "id": 373984437, "nodes": [3774006697, 29778405, 5595711946], "tags": {"bicycle": "yes", "cycleway": "no", "foot": "yes", "highway": "primary", "lanes": "4", "lit": "yes", "maxspeed": "60", "name": "Parkes Street", "oneway": "no", "sidewalk": "both", "surface": "asphalt"}}, {"type": "way", "id": 373984438, "nodes": [8387549924, 2368065701, 52028404], "tags": {"bicycle": "yes", "cycleway": "no", "foot": "yes", "highway": "primary", "lanes": "5", "lanes:backward": "2", "lanes:forward": "3", "lit": "yes", "maxspeed": "60", "name": "Parkes Street", "oneway": "no", "sidewalk": "both", "surface": "asphalt", "turn:lanes:forward": "left|none|none"}}, {"type": "way", "id": 444261925, "nodes": [19160798, 8465162758, 8558986627, 8465162757, 52029050, 8420494716, 21703289], "tags": {"highway": "primary", "lanes": "3", "name": "O'Connell Street", "oneway": "yes", "surface": "paved"}}, {"type": "way", "id": 444261926, "nodes": [4417496591, 51912040], "tags": {"destination:lanes": "Rosehill;Granville|Rosehill;Granville|Wentworthville;Blacktown|Wentworthville;Blacktown", "destination:ref:lanes": "A44|A44|A44|A44", "destination:street": "Great Western Highway", "highway": "primary", "lanes": "4", "name": "O'Connell Street", "oneway": "yes", "surface": "paved", "turn:lanes": "left|left|right|right"}}, {"type": "way", "id": 581006948, "nodes": [10131902529, 6011740832, 9710968390, 10131902524, 19160764], "tags": {"highway": "primary", "lanes": "3", "name": "O'Connell Street", "oneway": "yes", "source:name": "NSW LPI Base Map", "source:name:date": "2015-12", "surface": "paved"}}, {"type": "way", "id": 581006949, "nodes": [2622027016, 8465162556, 1836004785], "tags": {"highway": "primary", "lanes": "2", "name": "O'Connell Street", "oneway": "yes", "source:name": "NSW LPI Base Map", "source:name:date": "2015-12", "surface": "paved"}}, {"type": "way", "id": 581006950, "nodes": [19160794, 8465162552, 6011772399, 29778375], "tags": {"bicycle": "yes", "cycleway": "no", "highway": "primary", "name": "O'Connell Street", "oneway": "yes", "source:name": "NSW LPI Base Map", "source:name:date": "2015-12", "surface": "paved"}}, {"type": "way", "id": 585574463, "nodes": [5595711946, 5595711947, 5595711952, 2085353843], "tags": {"bicycle": "yes", "cycleway": "no", "foot": "yes", "highway": "primary", "lanes": "4", "maxspeed": "60", "name": "Parkes Street", "oneway": "no", "sidewalk": "both", "surface": "asphalt"}}, {"type": "way", "id": 722744319, "nodes": [2626755341, 10131902523, 1836004791], "tags": {"highway": "primary", "lanes": "2", "name": "O'Connell Street", "oneway": "yes", "surface": "paved"}}, {"type": "way", "id": 763509751, "nodes": [52030966, 6633157691], "tags": {"highway": "trunk", "lanes": "2", "maxspeed": "60", "name": "Great Western Highway", "network": "AU:NSW", "oneway": "yes", "ref": "A44", "ref:start_date": "2013-08", "surface": "paved"}}, {"type": "way", "id": 782985298, "nodes": [7351836037, 8484726261, 52030966], "tags": {"highway": "trunk", "lanes": "4", "maxspeed": "60", "name": "Great Western Highway", "network": "AU:NSW", "oneway": "yes", "ref": "A44", "ref:start_date": "2013-08", "surface": "paved", "turn:lanes": "left|none|none|right"}}, {"type": "way", "id": 782985299, "nodes": [21703289, 6779575031, 4417496591], "tags": {"highway": "primary", "lanes": "3", "name": "O'Connell Street", "oneway": "yes", "surface": "paved"}}, {"type": "way", "id": 790442624, "nodes": [543387457, 6011772400], "tags": {"highway": "primary", "name": "O'Connell Street", "oneway": "yes", "source:name": "NSW LPI Base Map", "source:name:date": "2015-12", "surface": "paved"}}, {"type": "way", "id": 795750265, "nodes": [2626798472, 1836004792, 5319350433], "tags": {"bicycle": "yes", "cycleway": "no", "highway": "primary", "maxspeed": "60", "maxspeed:type": "sign", "name": "O'Connell Street", "oneway": "yes", "source:name": "NSW LPI Base Map", "source:name:date": "2016-01", "surface": "paved"}}, {"type": "way", "id": 903054982, "nodes": [29778403, 3774006700], "tags": {"bicycle": "yes", "covered": "yes", "cycleway": "no", "foot": "yes", "highway": "primary", "lanes": "5", "lanes:backward": "2", "lanes:forward": "3", "lit": "yes", "maxheight": "4.6 m", "maxspeed": "60", "name": "Parkes Street", "oneway": "no", "sidewalk": "both", "surface": "asphalt", "turn:lanes:forward": "left|none|none"}}, {"type": "way", "id": 903054983, "nodes": [3774006700, 8387549924], "tags": {"bicycle": "yes", "covered": "yes", "cycleway": "no", "foot": "yes", "highway": "primary", "lanes": "5", "lanes:backward": "2", "lanes:forward": "3", "lit": "yes", "maxheight": "4.6 m", "maxspeed": "60", "name": "Parkes Street", "oneway": "no", "sidewalk": "both", "surface": "asphalt", "turn:lanes:forward": "left|none|none"}}, {"type": "way", "id": 903055009, "nodes": [8387549961, 11390707669, 2368038488, 1838673168, 19160798], "tags": {"highway": "primary", "name": "O'Connell Street", "oneway": "yes", "surface": "paved"}}, {"type": "way", "id": 903055010, "nodes": [8387549960, 8387549961], "tags": {"highway": "primary", "layer": "-1", "name": "O'Connell Street", "oneway": "yes", "surface": "paved", "tunnel": "yes"}}, {"type": "way", "id": 1107300956, "nodes": [10131902520, 10131902521, 2626755341], "tags": {"highway": "primary", "lanes": "3", "maxspeed": "50", "name": "Macquarie Street", "oneway": "yes", "surface": "paved"}}, {"type": "way", "id": 1107300958, "nodes": [7728174140, 10131902520], "tags": {"highway": "primary", "lanes": "3", "maxspeed": "50", "name": "Macquarie Street", "oneway": "yes", "surface": "paved", "turn:lanes": "left|left|none"}}, {"type": "way", "id": 1107300961, "nodes": [1836004785, 10131902529], "tags": {"highway": "primary", "lanes": "2", "name": "O'Connell Street", "oneway": "yes", "source:name": "NSW LPI Base Map", "source:name:date": "2015-12", "surface": "paved"}}, {"type": "way", "id": 1115115011, "nodes": [585685199, 10598556760, 10598556759, 1836004789], "tags": {"highway": "primary", "maxspeed": "60", "maxspeed:type": "sign", "name": "O'Connell Street", "oneway": "yes", "source:name": "NSW LPI Base Map", "source:name:date": "2016-01", "surface": "paved"}}, {"type": "way", "id": 1126812080, "nodes": [36422670, 7351836037], "tags": {"highway": "trunk", "maxspeed": "60", "name": "Great Western Highway", "network": "AU:NSW", "oneway": "yes", "ref": "A44", "ref:start_date": "2013-08", "surface": "paved"}}, {"type": "way", "id": 1126812081, "nodes": [52030968, 4417495243, 36809631], "tags": {"destination": "Wentworthville;Parramatta City Centre", "destination:ref": "A44", "highway": "trunk", "lanes": "2", "maxspeed": "60", "name": "Great Western Highway", "network": "AU:NSW", "oneway": "yes", "ref": "A44", "ref:start_date": "2013-08", "surface": "paved"}}, {"type": "way", "id": 1126812082, "nodes": [10303605417, 36422670], "tags": {"highway": "trunk", "lanes": "3", "maxspeed": "60", "name": "Great Western Highway", "network": "AU:NSW", "oneway": "yes", "ref": "A44", "ref:start_date": "2013-08", "surface": "paved"}}, {"type": "way", "id": 1126812083, "nodes": [36809630, 10303605417], "tags": {"highway": "trunk", "lanes": "2", "maxspeed": "60", "name": "Great Western Highway", "network": "AU:NSW", "oneway": "yes", "ref": "A44", "ref:start_date": "2013-08", "surface": "paved"}}, {"type": "way", "id": 1126812084, "nodes": [8484726264, 10303605416, 6633157690, 52030968], "tags": {"destination": "Wentworthville;Parramatta City Centre", "destination:ref": "A44", "highway": "trunk", "lanes": "4", "maxspeed": "60", "name": "Great Western Highway", "network": "AU:NSW", "oneway": "yes", "ref": "A44", "ref:start_date": "2013-08", "surface": "paved", "turn:lanes": "none|none|right|right"}}, {"type": "way", "id": 1126812086, "nodes": [6633157691, 6718213817, 6718213840, 8484726265], "tags": {"highway": "trunk", "lanes": "2", "maxspeed": "60", "name": "Great Western Highway", "network": "AU:NSW", "oneway": "yes", "ref": "A44", "ref:start_date": "2013-08", "surface": "paved"}}]}