{"version": 0.6, "generator": "Overpass API 0.7.61.5 4133829e", "osm3s": {"timestamp_osm_base": "2023-12-06T11:43:29Z", "copyright": "The data included in this document is from www.openstreetmap.org. The data is made available under ODbL."}, "elements": [{"type": "node", "id": 26375770, "lat": -33.8551014, "lon": 151.1582712, "tags": {"highway": "traffic_signals", "ref": "0085", "start_date": "1956-06-09"}}, {"type": "node", "id": 62406434, "lat": -33.8569182, "lon": 151.1601041}, {"type": "node", "id": 62406539, "lat": -33.8573236, "lon": 151.1604944}, {"type": "node", "id": 1127630678, "lat": -33.8567263, "lon": 151.1597817}, {"type": "node", "id": 1127630679, "lat": -33.8606732, "lon": 151.1638479}, {"type": "node", "id": 1127630680, "lat": -33.8604219, "lon": 151.1634132}, {"type": "node", "id": 1127630682, "lat": -33.8569736, "lon": 151.1599935}, {"type": "node", "id": 1127630692, "lat": -33.8608018, "lon": 151.164082}, {"type": "node", "id": 1127630693, "lat": -33.8574194, "lon": 151.1603586}, {"type": "node", "id": 1127648050, "lat": -33.8561759, "lon": 151.159272, "tags": {"bicycle": "yes", "crossing": "traffic_signals", "highway": "crossing"}}, {"type": "node", "id": 1127648052, "lat": -33.8561224, "lon": 151.1593614, "tags": {"bicycle": "yes", "crossing": "traffic_signals", "highway": "crossing"}}, {"type": "node", "id": 1832460905, "lat": -33.8580034, "lon": 151.1607922}, {"type": "node", "id": 1832460912, "lat": -33.8588441, "lon": 151.1614963}, {"type": "node", "id": 1832460918, "lat": -33.8598314, "lon": 151.1625786}, {"type": "node", "id": 1832460927, "lat": -33.8584254, "lon": 151.1611232}, {"type": "node", "id": 1832460936, "lat": -33.8594269, "lon": 151.1620948}, {"type": "node", "id": 1832470230, "lat": -33.8573997, "lon": 151.1605728}, {"type": "node", "id": 1832470233, "lat": -33.8561867, "lon": 151.1594213, "tags": {"highway": "traffic_signals"}}, {"type": "node", "id": 1832470235, "lat": -33.8606965, "lon": 151.1641862}, {"type": "node", "id": 1832470239, "lat": -33.8604845, "lon": 151.1639142}, {"type": "node", "id": 1924290035, "lat": -33.855606, "lon": 151.1588794}, {"type": "node", "id": 1924315202, "lat": -33.856243, "lon": 151.159334, "tags": {"highway": "traffic_signals"}}, {"type": "node", "id": 3910048054, "lat": -33.8602591, "lon": 151.1631652}, {"type": "node", "id": 3910048055, "lat": -33.860515, "lon": 151.1635649}, {"type": "node", "id": 5512514033, "lat": -33.8553238, "lon": 151.1586088}, {"type": "node", "id": 5512514034, "lat": -33.8554574, "lon": 151.1586061}, {"type": "node", "id": 5512518946, "lat": -33.8548242, "lon": 151.158012}, {"type": "node", "id": 5512518947, "lat": -33.8547706, "lon": 151.1581036}, {"type": "node", "id": 5512522028, "lat": -33.8527853, "lon": 151.1562208}, {"type": "node", "id": 5512522029, "lat": -33.8528263, "lon": 151.1561663}, {"type": "node", "id": 5755478570, "lat": -33.8556687, "lon": 151.158802}, {"type": "node", "id": 5926809524, "lat": -33.8538264, "lon": 151.1570718}, {"type": "node", "id": 11228292215, "lat": -33.8551876, "lon": 151.1583523, "tags": {"highway": "traffic_signals", "traffic_signals": "signal", "traffic_signals:direction": "forward"}}, {"type": "node", "id": 11228292216, "lat": -33.8549424, "lon": 151.1582665, "tags": {"highway": "traffic_signals", "traffic_signals": "signal", "traffic_signals:direction": "forward"}}, {"type": "node", "id": 11228292218, "lat": -33.8550326, "lon": 151.1582069}, {"type": "node", "id": 11228292219, "lat": -33.8549736, "lon": 151.1582961}, {"type": "node", "id": 11228292221, "lat": -33.8550467, "lon": 151.1583576, "tags": {"highway": "traffic_signals", "ref": "0085", "start_date": "1956-06-09"}}, {"type": "way", "id": 9283459, "nodes": [1832470230, 1832470239, 1832470235], "tags": {"bridge": "yes", "highway": "trunk", "lanes": "4", "layer": "1", "maxheight:lanes": "unrestricted|unrestricted|4.6", "maxspeed": "60", "name": "Victoria Road", "network": "AU:NSW", "old_network": "S", "old_ref": "40", "oneway": "yes", "psv:lanes": "designated|yes|yes|yes", "ref": "A40", "surface": "asphalt"}}, {"type": "way", "id": 25153980, "nodes": [1924315202, 1127648050, 5755478570, 5512514034], "tags": {"highway": "trunk", "lanes": "3", "lanes:conditional": "2 @ (mo-fri 06:00 - 10:00)", "maxspeed": "60", "name": "Victoria Road", "network": "AU:NSW", "old_network": "S", "old_ref": "40", "oneway": "yes", "ref": "A40", "surface": "asphalt"}}, {"type": "way", "id": 68235031, "nodes": [1127630692, 1127630679, 3910048055, 1127630680, 3910048054, 1832460918, 1832460936, 1832460912, 1832460927, 1832460905, 1127630693], "tags": {"bridge": "yes", "highway": "trunk", "lanes": "3", "lanes:bus:conditional": "1 @ (Mo-Fr 06:00-10:00)", "layer": "1", "maxspeed": "60", "name": "Victoria Road", "network": "AU:NSW", "old_network": "S", "old_ref": "40", "oneway": "yes", "ref": "A40", "surface": "asphalt"}}, {"type": "way", "id": 97353369, "nodes": [1127630693, 1127630682], "tags": {"highway": "trunk", "lanes": "3", "maxspeed": "60", "name": "Victoria Road", "network": "AU:NSW", "old_network": "S", "old_ref": "40", "oneway": "yes", "ref": "A40", "source": "survey", "surface": "asphalt"}}, {"type": "way", "id": 244384488, "nodes": [5512514033, 1924290035, 1127648052, 1832470233], "tags": {"highway": "trunk", "lanes": "3", "lanes:conditional": "4 @ (mo-fri 06:00 - 10:00)", "maxspeed": "60", "name": "Victoria Road", "network": "AU:NSW", "old_network": "S", "old_ref": "40", "oneway": "yes", "psv:lanes:conditional": "(designated|yes|yes|yes) @ (Mo-Fr 6:00-10:00); (designated|yes|yes) @ (Mo-Fr 15:00-19:00)", "ref": "A40", "surface": "asphalt"}}, {"type": "way", "id": 385523789, "nodes": [1832470233, 62406434], "tags": {"highway": "trunk", "lanes": "3", "lanes:conditional": "4 @ (mo-fri 06:00 - 10:00)", "maxspeed": "60", "name": "Victoria Road", "network": "AU:NSW", "old_network": "S", "old_ref": "40", "oneway": "yes", "psv:lanes": "designated|yes|yes", "psv:lanes:conditional": "(designated|yes|yes|yes) @ (mo-fri 06:00 - 10:00)", "ref": "A40", "surface": "asphalt"}}, {"type": "way", "id": 574209926, "nodes": [11228292221, 5512514033], "tags": {"highway": "trunk", "lanes": "3", "lanes:conditional": "4 @ (mo-fri 06:00 - 10:00)", "maxspeed": "60", "name": "Victoria Road", "network": "AU:NSW", "old_network": "S", "old_ref": "40", "oneway": "yes", "psv:lanes:conditional": "(designated|yes|yes|yes) @ (Mo-Fr 6:00-10:00); (designated|yes|yes) @ (Mo-Fr 15:00-19:00)", "ref": "A40", "surface": "asphalt"}}, {"type": "way", "id": 574209929, "nodes": [5512514034, 11228292215, 26375770], "tags": {"highway": "trunk", "lanes": "3", "lanes:conditional": "2 @ (mo-fri 06:00 - 10:00)", "maxspeed": "60", "name": "Victoria Road", "network": "AU:NSW", "old_network": "S", "old_ref": "40", "oneway": "yes", "ref": "A40", "surface": "asphalt"}}, {"type": "way", "id": 574210017, "nodes": [26375770, 11228292218, 5512518946], "tags": {"highway": "trunk", "lanes": "3", "lanes:conditional": "2 @ (mo-fri 06:00 - 10:00)", "maxspeed": "60", "name": "Victoria Road", "network": "AU:NSW", "old_network": "S", "old_ref": "40", "oneway": "yes", "ref": "A40", "surface": "asphalt"}}, {"type": "way", "id": 574210018, "nodes": [5512518947, 11228292216, 11228292219, 11228292221], "tags": {"highway": "trunk", "lanes": "3", "lanes:conditional": "4 @ (mo-fri 06:00 - 10:00)", "maxspeed": "60", "name": "Victoria Road", "network": "AU:NSW", "old_network": "S", "old_ref": "40", "oneway": "yes", "psv:lanes:conditional": "(designated|yes|yes|yes) @ (Mo-Fr 6:00-10:00); (designated|yes|yes) @ (Mo-Fr 15:00-19:00)", "ref": "A40", "surface": "asphalt"}}, {"type": "way", "id": 574210605, "nodes": [5512522028, 5512518947], "tags": {"highway": "trunk", "lanes": "3", "lanes:conditional": "4 @ (mo-fri 06:00 - 10:00)", "maxspeed": "60", "name": "Victoria Road", "network": "AU:NSW", "old_network": "S", "old_ref": "40", "oneway": "yes", "psv:lanes:conditional": "(designated|yes|yes|yes) @ (Mo-Fr 6:00-10:00); (designated|yes|yes) @ (Mo-Fr 15:00-19:00)", "ref": "A40", "surface": "asphalt"}}, {"type": "way", "id": 574210616, "nodes": [5512518946, 5926809524, 5512522029], "tags": {"highway": "trunk", "lanes": "3", "lanes:conditional": "2 @ (mo-fri 06:00 - 10:00)", "maxspeed": "60", "name": "Victoria Road", "network": "AU:NSW", "old_network": "S", "old_ref": "40", "oneway": "yes", "psv": "yes", "ref": "A40", "surface": "asphalt"}}, {"type": "way", "id": 575722287, "nodes": [1127630682, 1127630678, 1924315202], "tags": {"highway": "trunk", "lanes": "3", "lanes:conditional": "2 @ (mo-fri 06:00 - 10:00)", "maxspeed": "60", "name": "Victoria Road", "network": "AU:NSW", "old_network": "S", "old_ref": "40", "oneway": "yes", "ref": "A40", "source": "survey", "surface": "asphalt"}}, {"type": "way", "id": 784138907, "nodes": [62406434, 62406539, 1832470230], "tags": {"highway": "trunk", "lanes": "4", "maxspeed": "60", "name": "Victoria Road", "network": "AU:NSW", "old_network": "S", "old_ref": "40", "oneway": "yes", "psv:lanes": "designated|yes|yes|yes", "ref": "A40", "surface": "asphalt"}}]}