{"version": 0.6, "generator": "Overpass API 0.7.61.5 4133829e", "osm3s": {"timestamp_osm_base": "2023-12-06T13:02:45Z", "copyright": "The data included in this document is from www.openstreetmap.org. The data is made available under ODbL."}, "elements": [{"type": "node", "id": 135857136, "lat": -27.663384, "lon": 153.0594962}, {"type": "node", "id": 135857147, "lat": -27.6639398, "lon": 153.0628506}, {"type": "node", "id": 135857150, "lat": -27.6641461, "lon": 153.0632743}, {"type": "node", "id": 135862565, "lat": -27.6676353, "lon": 153.0676517}, {"type": "node", "id": 135862570, "lat": -27.6665979, "lon": 153.0662527, "tags": {"highway": "traffic_signals", "traffic_signals": "signal"}}, {"type": "node", "id": 135862575, "lat": -27.665011, "lon": 153.0645012}, {"type": "node", "id": 135862577, "lat": -27.664705, "lon": 153.0640816}, {"type": "node", "id": 135862578, "lat": -27.6641903, "lon": 153.0631236}, {"type": "node", "id": 135862591, "lat": -27.6631813, "lon": 153.0574955, "tags": {"highway": "traffic_signals"}}, {"type": "node", "id": 135864451, "lat": -27.6646974, "lon": 153.0642477}, {"type": "node", "id": 135864452, "lat": -27.6649511, "lon": 153.0645899}, {"type": "node", "id": 135864458, "lat": -27.6665235, "lon": 153.0663354, "tags": {"highway": "traffic_signals", "traffic_signals": "signal"}}, {"type": "node", "id": 135864463, "lat": -27.6675561, "lon": 153.0677445}, {"type": "node", "id": 135867047, "lat": -27.6687831, "lon": 153.0695314}, {"type": "node", "id": 135867048, "lat": -27.6689351, "lon": 153.0697889}, {"type": "node", "id": 135867050, "lat": -27.6690872, "lon": 153.070158}, {"type": "node", "id": 135868344, "lat": -27.6689884, "lon": 153.0696773}, {"type": "node", "id": 135868345, "lat": -27.669148, "lon": 153.0699949}, {"type": "node", "id": 135868347, "lat": -27.6693, "lon": 153.070467}, {"type": "node", "id": 179979912, "lat": -27.6639855, "lon": 153.0626216, "tags": {"highway": "traffic_signals"}}, {"type": "node", "id": 316554395, "lat": -27.6634786, "lon": 153.0594784}, {"type": "node", "id": 316555026, "lat": -27.6639642, "lon": 153.0625177, "tags": {"highway": "traffic_signals"}}, {"type": "node", "id": 567797722, "lat": -27.66366, "lon": 153.0606891}, {"type": "node", "id": 567798205, "lat": -27.6629506, "lon": 153.0566247}, {"type": "node", "id": 567798206, "lat": -27.6630849, "lon": 153.0575149, "tags": {"highway": "traffic_signals"}}, {"type": "node", "id": 567798248, "lat": -27.6633006, "lon": 153.0589436}, {"type": "node", "id": 567798281, "lat": -27.6632827, "lon": 153.0581716}, {"type": "node", "id": 567798282, "lat": -27.6636105, "lon": 153.0603586}, {"type": "node", "id": 574202976, "lat": -27.6681873, "lon": 153.0686544}, {"type": "node", "id": 574203012, "lat": -27.6694424, "lon": 153.0709185}, {"type": "node", "id": 577461352, "lat": -27.6693423, "lon": 153.0709833}, {"type": "node", "id": 671223884, "lat": -27.6638487, "lon": 153.0625216, "tags": {"highway": "traffic_signals"}}, {"type": "node", "id": 671223886, "lat": -27.6637916, "lon": 153.0621964}, {"type": "node", "id": 671223893, "lat": -27.6638756, "lon": 153.0626265, "tags": {"highway": "traffic_signals"}}, {"type": "node", "id": 671223903, "lat": -27.6641221, "lon": 153.06295}, {"type": "node", "id": 1339314326, "lat": -27.663003, "lon": 153.0563061}, {"type": "node", "id": 1339416142, "lat": -27.6668526, "lon": 153.0665768}, {"type": "node", "id": 1339444243, "lat": -27.6648035, "lon": 153.0644069}, {"type": "node", "id": 1339444250, "lat": -27.6648638, "lon": 153.064311}, {"type": "node", "id": 1374446143, "lat": -27.6667283, "lon": 153.0665824}, {"type": "node", "id": 1886727339, "lat": -27.663927, "lon": 153.0623378}, {"type": "node", "id": 2528641283, "lat": -27.6690326, "lon": 153.0700255}, {"type": "node", "id": 5793026596, "lat": -27.6635129, "lon": 153.059707}, {"type": "node", "id": 7321765823, "lat": -27.6624486, "lon": 153.0532992}, {"type": "node", "id": 7321990535, "lat": -27.6628481, "lon": 153.0552603}, {"type": "node", "id": 7433889030, "lat": -27.6637347, "lon": 153.0618193}, {"type": "node", "id": 7433965705, "lat": -27.664418, "lon": 153.0635634}, {"type": "node", "id": 9632326045, "lat": -27.6643992, "lon": 153.0637211}, {"type": "node", "id": 9632326079, "lat": -27.6640567, "lon": 153.0630907}, {"type": "node", "id": 9632326085, "lat": -27.6643123, "lon": 153.0635677}, {"type": "node", "id": 9632354189, "lat": -27.6638443, "lon": 153.0618274}, {"type": "node", "id": 9632354192, "lat": -27.6637526, "lon": 153.0612606}, {"type": "node", "id": 9689549312, "lat": -27.6693613, "lon": 153.0706613}, {"type": "node", "id": 9690761558, "lat": -27.6693034, "lon": 153.0708575, "tags": {"highway": "traffic_signals", "traffic_signals": "signal"}}, {"type": "way", "id": 14206898, "nodes": [7433965705, 135862578, 671223903], "tags": {"highway": "primary", "lanes": "2", "maxspeed": "70", "name": "Browns Plains Road", "network": "AU:QLD:S", "oneway": "yes", "ref": "94", "surface": "asphalt"}}, {"type": "way", "id": 44771122, "nodes": [567798205, 567798206], "tags": {"highway": "primary", "lanes": "3", "mapillary": "164764358935263", "maxspeed": "70", "name": "Browns Plains Road", "network": "AU:QLD:S", "oneway": "yes", "ref": "94", "source:ref": "mapillary", "surface": "asphalt"}}, {"type": "way", "id": 44771124, "nodes": [567798206, 567798248], "tags": {"highway": "primary", "lanes": "2", "maxspeed": "70", "name": "Browns Plains Road", "network": "AU:QLD:S", "oneway": "yes", "ref": "94", "surface": "asphalt"}}, {"type": "way", "id": 44771128, "nodes": [316554395, 567798281], "tags": {"highway": "primary", "lanes": "2", "maxspeed": "70", "name": "Browns Plains Road", "network": "AU:QLD:S", "oneway": "yes", "ref": "94", "surface": "asphalt"}}, {"type": "way", "id": 44771129, "nodes": [567798248, 135857136], "tags": {"highway": "primary", "lanes": "3", "maxspeed": "70", "name": "Browns Plains Road", "network": "AU:QLD:S", "oneway": "yes", "ref": "94", "surface": "asphalt"}}, {"type": "way", "id": 44771130, "nodes": [135857147, 9632326079, 135857150], "tags": {"highway": "primary", "lanes": "2", "maxspeed": "70", "name": "Browns Plains Road", "network": "AU:QLD:S", "oneway": "yes", "ref": "94", "surface": "asphalt"}}, {"type": "way", "id": 44771131, "nodes": [135862591, 1339314326, 7321990535], "tags": {"highway": "primary", "lanes": "2", "maxspeed": "70", "name": "Browns Plains Road", "network": "AU:QLD:S", "oneway": "yes", "ref": "94", "surface": "asphalt"}}, {"type": "way", "id": 44771132, "nodes": [567798281, 135862591], "tags": {"highway": "primary", "lanes": "3", "maxspeed": "70", "name": "Browns Plains Road", "network": "AU:QLD:S", "oneway": "yes", "ref": "94", "surface": "asphalt"}}, {"type": "way", "id": 44771133, "nodes": [567798282, 5793026596, 316554395], "tags": {"highway": "primary", "lanes": "3", "maxspeed": "70", "name": "Browns Plains Road", "network": "AU:QLD:S", "oneway": "yes", "ref": "94", "surface": "asphalt"}}, {"type": "way", "id": 44771171, "nodes": [7321765823, 567798205], "tags": {"highway": "primary", "lanes": "2", "maxspeed": "70", "name": "Browns Plains Road", "network": "AU:QLD:S", "oneway": "yes", "ref": "94", "surface": "asphalt"}}, {"type": "way", "id": 764308878, "nodes": [671223903, 179979912, 316555026, 1886727339], "tags": {"highway": "primary", "lanes": "2", "maxspeed": "70", "name": "Browns Plains Road", "network": "AU:QLD:S", "oneway": "yes", "ref": "94", "surface": "asphalt"}}, {"type": "way", "id": 764308879, "nodes": [671223886, 671223884, 671223893, 135857147], "tags": {"highway": "primary", "lanes": "2", "maxspeed": "70", "name": "Browns Plains Road", "network": "AU:QLD:S", "oneway": "yes", "ref": "94", "surface": "asphalt"}}, {"type": "way", "id": 764308880, "nodes": [1886727339, 9632354189, 9632354192, 567797722], "tags": {"highway": "primary", "lanes": "2", "maxspeed": "70", "name": "Browns Plains Road", "network": "AU:QLD:S", "oneway": "yes", "ref": "94", "surface": "asphalt"}}, {"type": "way", "id": 764308883, "nodes": [7433889030, 671223886], "tags": {"highway": "primary", "lanes": "2", "maxspeed": "70", "name": "Browns Plains Road", "network": "AU:QLD:S", "oneway": "yes", "ref": "94", "surface": "asphalt"}}, {"type": "way", "id": 794793835, "nodes": [135857136, 7433889030], "tags": {"highway": "primary", "lanes": "2", "maxspeed": "70", "name": "Browns Plains Road", "network": "AU:QLD:S", "oneway": "yes", "ref": "94", "surface": "asphalt"}}, {"type": "way", "id": 794799599, "nodes": [574203012, 9689549312, 135868347, 135868345, 135868344, 135862565, 1339416142, 135862570, 135862575, 1339444250, 135862577, 7433965705], "tags": {"highway": "primary", "lanes": "2", "maxspeed": "70", "name": "Browns Plains Road", "network": "AU:QLD:S", "oneway": "yes", "ref": "94", "surface": "asphalt"}}, {"type": "way", "id": 794801654, "nodes": [135857150, 9632326085, 9632326045, 135864451, 1339444243, 135864452, 135864458, 1374446143, 135864463, 574202976, 135867047, 135867048, 2528641283, 135867050, 9690761558, 577461352], "tags": {"highway": "primary", "lanes": "2", "maxspeed": "70", "name": "Browns Plains Road", "network": "AU:QLD:S", "oneway": "yes", "ref": "94", "surface": "asphalt"}}, {"type": "way", "id": 794801656, "nodes": [567797722, 567798282], "tags": {"highway": "primary", "lanes": "2", "maxspeed": "70", "name": "Browns Plains Road", "network": "AU:QLD:S", "oneway": "yes", "ref": "94", "surface": "asphalt"}}]}