{"version": 0.6, "generator": "Overpass API 0.7.61.5 4133829e", "osm3s": {"timestamp_osm_base": "2023-12-06T14:57:55Z", "copyright": "The data included in this document is from www.openstreetmap.org. The data is made available under ODbL."}, "elements": [{"type": "node", "id": 281926637, "lat": -34.9076228, "lon": 138.629482}, {"type": "node", "id": 568303846, "lat": -34.9064299, "lon": 138.6304889}, {"type": "node", "id": 568303850, "lat": -34.905831, "lon": 138.630994}, {"type": "node", "id": 822575722, "lat": -34.9145486, "lon": 138.6236261}, {"type": "node", "id": 822575818, "lat": -34.9061266, "lon": 138.6307424}, {"type": "node", "id": 822576678, "lat": -34.9046953, "lon": 138.6319563, "tags": {"odbl": "clean"}}, {"type": "node", "id": 1025634648, "lat": -34.9144377, "lon": 138.6237241}, {"type": "node", "id": 1025634677, "lat": -34.9088828, "lon": 138.6284043}, {"type": "node", "id": 1025634796, "lat": -34.9100933, "lon": 138.6273949}, {"type": "node", "id": 1799245743, "lat": -34.9053447, "lon": 138.6314044}, {"type": "node", "id": 1799245745, "lat": -34.9053815, "lon": 138.6313733}, {"type": "node", "id": 1799245753, "lat": -34.9071859, "lon": 138.6298599}, {"type": "node", "id": 1799245765, "lat": -34.9072017, "lon": 138.6298312}, {"type": "node", "id": 1799245767, "lat": -34.9072265, "lon": 138.6298107}, {"type": "node", "id": 1799245771, "lat": -34.9079396, "lon": 138.6292014}, {"type": "node", "id": 1799245774, "lat": -34.9086173, "lon": 138.6286228}, {"type": "node", "id": 1799245784, "lat": -34.9092873, "lon": 138.6280813, "tags": {"highway": "traffic_signals", "traffic_signals:direction": "backward"}}, {"type": "node", "id": 1799245789, "lat": -34.9093135, "lon": 138.6280604, "tags": {"highway": "crossing"}}, {"type": "node", "id": 1799245805, "lat": -34.9093812, "lon": 138.6280063}, {"type": "node", "id": 1799245807, "lat": -34.9094535, "lon": 138.6279479}, {"type": "node", "id": 1799245810, "lat": -34.9095361, "lon": 138.6278765, "tags": {"highway": "crossing"}}, {"type": "node", "id": 1799245811, "lat": -34.909557, "lon": 138.6278585, "tags": {"highway": "traffic_signals", "traffic_signals:direction": "forward"}}, {"type": "node", "id": 1799245819, "lat": -34.9107273, "lon": 138.6268449}, {"type": "node", "id": 1799245821, "lat": -34.9116081, "lon": 138.6261062}, {"type": "node", "id": 1799245827, "lat": -34.9126116, "lon": 138.6252652}, {"type": "node", "id": 1799245851, "lat": -34.9130932, "lon": 138.6248549, "tags": {"highway": "traffic_signals", "traffic_signals:direction": "backward"}}, {"type": "node", "id": 1799245854, "lat": -34.913114, "lon": 138.6248372, "tags": {"crossing": "traffic_signals", "highway": "crossing"}}, {"type": "node", "id": 1799245855, "lat": -34.9131455, "lon": 138.6248086}, {"type": "node", "id": 1799245863, "lat": -34.913238, "lon": 138.6247323, "tags": {"crossing": "no", "highway": "traffic_signals", "traffic_signals:direction": "forward"}}, {"type": "node", "id": 1799245868, "lat": -34.913356, "lon": 138.6246332, "tags": {"crossing": "no"}}, {"type": "node", "id": 1879316714, "lat": -34.9091111, "lon": 138.628222}, {"type": "node", "id": 2013569718, "lat": -34.9106829, "lon": 138.6268835}, {"type": "node", "id": 2396938520, "lat": -34.9127864, "lon": 138.6251162}, {"type": "node", "id": 2396938523, "lat": -34.9130003, "lon": 138.6249341}, {"type": "node", "id": 4553242532, "lat": -34.9150426, "lon": 138.6232245}, {"type": "node", "id": 8653653966, "lat": -34.9092866, "lon": 138.6280819, "tags": {"highway": "speed_camera", "maxspeed": "60", "ref": "92 Safety Camera 60 Km/h"}}, {"type": "node", "id": 9936973730, "lat": -34.9134963, "lon": 138.6245153}, {"type": "node", "id": 9988836081, "lat": -34.9110789, "lon": 138.62655, "tags": {"button_operated": "yes", "crossing": "traffic_signals", "crossing:island": "no", "highway": "crossing", "source": "survey", "tactile_paving": "yes", "traffic_signals:sound": "yes", "traffic_signals:vibration": "yes"}}, {"type": "node", "id": 9988836094, "lat": -34.9130743, "lon": 138.624871}, {"type": "node", "id": 10057424984, "lat": -34.9120021, "lon": 138.625776}, {"type": "way", "id": 68321600, "nodes": [2396938523, 2396938520, 1799245827, 10057424984, 1799245821, 9988836081, 1799245819, 2013569718, 1025634796], "tags": {"cycleway": "lane", "highway": "primary", "lanes": "4", "lit": "yes", "maxspeed": "60", "name": "Payneham Road", "network": "AU:SA", "ref": "A11", "source": "nearmap", "surface": "asphalt"}}, {"type": "way", "id": 68321621, "nodes": [1799245753, 568303846, 822575818, 568303850, 1799245745, 1799245743, 822576678], "tags": {"cycleway": "lane", "highway": "primary", "lanes": "4", "lit": "yes", "maxspeed": "60", "name": "Payneham Road", "network": "AU:SA", "ref": "A11", "source": "survey", "surface": "asphalt"}}, {"type": "way", "id": 68321641, "nodes": [1799245805, 1799245789, 1799245784, 8653653966, 1879316714], "tags": {"cycleway:left": "lane", "cycleway:left:lane": "advisory", "cycleway:right": "no", "highway": "primary", "lanes": "4", "lit": "yes", "maxspeed": "60", "name": "Payneham Road", "network": "AU:SA", "ref": "A11", "source": "survey", "surface": "asphalt"}}, {"type": "way", "id": 88303820, "nodes": [1025634796, 1799245811, 1799245810, 1799245807], "tags": {"cycleway:left": "lane", "cycleway:left:lane": "advisory", "cycleway:right": "no", "highway": "primary", "lanes": "4", "lit": "yes", "maxspeed": "60", "name": "Payneham Road", "network": "AU:SA", "ref": "A11", "source": "nearmap", "surface": "asphalt"}}, {"type": "way", "id": 88303827, "nodes": [1799245868, 1799245863, 1799245855], "tags": {"cycleway": "lane", "highway": "primary", "lanes": "4", "lit": "yes", "maxspeed": "60", "name": "Payneham Road", "network": "AU:SA", "ref": "A11", "source": "nearmap", "surface": "asphalt"}}, {"type": "way", "id": 88303913, "nodes": [1799245774, 1799245771, 281926637, 1799245767, 1799245765, 1799245753], "tags": {"cycleway": "lane", "highway": "primary", "lanes": "4", "lit": "yes", "maxspeed": "60", "name": "Payneham Road", "network": "AU:SA", "ref": "A11", "source": "survey", "surface": "asphalt"}}, {"type": "way", "id": 233956203, "nodes": [4553242532, 822575722, 1025634648], "tags": {"cycleway:both": "no", "highway": "primary", "lanes": "4", "lit": "yes", "maxspeed": "60", "name": "Payneham Road", "network": "AU:SA", "ref": "A11", "shoulder": "no", "sidewalk": "both", "source": "nearmap", "surface": "asphalt"}}, {"type": "way", "id": 569704447, "nodes": [1025634648, 9936973730, 1799245868], "tags": {"cycleway": "lane", "highway": "primary", "lanes": "4", "lit": "yes", "maxspeed": "60", "name": "Payneham Road", "network": "AU:SA", "ref": "A11", "source": "nearmap", "surface": "asphalt"}}, {"type": "way", "id": 768627905, "nodes": [1025634677, 1799245774], "tags": {"cycleway": "lane", "highway": "primary", "lanes": "4", "lit": "yes", "maxspeed": "60", "name": "Payneham Road", "network": "AU:SA", "ref": "A11", "source": "survey", "surface": "asphalt"}}, {"type": "way", "id": 775124405, "nodes": [1879316714, 1025634677], "tags": {"cycleway:both": "lane", "cycleway:both:lane": "advisory", "highway": "primary", "lanes": "4", "lit": "yes", "maxspeed": "60", "name": "Payneham Road", "network": "AU:SA", "ref": "A11", "source": "survey", "surface": "asphalt"}}, {"type": "way", "id": 775124406, "nodes": [1799245807, 1799245805], "tags": {"highway": "primary", "lanes": "4", "lit": "yes", "maxspeed": "60", "name": "Payneham Road", "network": "AU:SA", "ref": "A11", "source": "nearmap", "surface": "asphalt"}}, {"type": "way", "id": 787934655, "nodes": [1799245855, 1799245854, 1799245851, 9988836094, 2396938523], "tags": {"cycleway": "lane", "highway": "primary", "lanes": "4", "lit": "yes", "maxspeed": "60", "name": "Payneham Road", "network": "AU:SA", "ref": "A11", "source": "nearmap", "surface": "asphalt"}}]}