{"version": 0.6, "generator": "Overpass API 0.7.61.5 4133829e", "osm3s": {"timestamp_osm_base": "2023-12-06T10:39:15Z", "copyright": "The data included in this document is from www.openstreetmap.org. The data is made available under ODbL."}, "elements": [{"type": "node", "id": 26791632, "lat": -33.8724432, "lon": 150.9641483}, {"type": "node", "id": 26791633, "lat": -33.8728431, "lon": 150.9644984}, {"type": "node", "id": 26791634, "lat": -33.8730196, "lon": 150.9646016}, {"type": "node", "id": 26791635, "lat": -33.8742649, "lon": 150.9649733}, {"type": "node", "id": 26791636, "lat": -33.8763411, "lon": 150.965535}, {"type": "node", "id": 26791640, "lat": -33.8813699, "lon": 150.9667079}, {"type": "node", "id": 65888800, "lat": -33.8818455, "lon": 150.9668865}, {"type": "node", "id": 65888895, "lat": -33.8821825, "lon": 150.9671524}, {"type": "node", "id": 65889897, "lat": -33.8818578, "lon": 150.9670721}, {"type": "node", "id": 65891713, "lat": -33.8821857, "lon": 150.9673023}, {"type": "node", "id": 65891715, "lat": -33.8825535, "lon": 150.9675212}, {"type": "node", "id": 65895231, "lat": -33.8734653, "lon": 150.9647615}, {"type": "node", "id": 65895233, "lat": -33.8737975, "lon": 150.9648373}, {"type": "node", "id": 97349362, "lat": -33.8729502, "lon": 150.9645618}, {"type": "node", "id": 140698344, "lat": -33.8714175, "lon": 150.962738}, {"type": "node", "id": 315235035, "lat": -33.8769694, "lon": 150.9656789, "tags": {"highway": "traffic_signals", "ref": "1531", "start_date": "1983-04-21"}}, {"type": "node", "id": 315235965, "lat": -33.8773521, "lon": 150.9657674}, {"type": "node", "id": 315236324, "lat": -33.8781844, "lon": 150.9659645}, {"type": "node", "id": 1847512576, "lat": -33.8805331, "lon": 150.9665083, "tags": {"highway": "traffic_signals"}}, {"type": "node", "id": 1847512590, "lat": -33.8812443, "lon": 150.9666785}, {"type": "node", "id": 1847512609, "lat": -33.8824398, "lon": 150.9674731, "tags": {"highway": "traffic_signals"}}, {"type": "node", "id": 1847512610, "lat": -33.8824805, "lon": 150.9673587, "tags": {"highway": "traffic_signals"}}, {"type": "node", "id": 1848986065, "lat": -33.8815939, "lon": 150.9667674}, {"type": "node", "id": 3222853628, "lat": -33.8731931, "lon": 150.9646776}, {"type": "node", "id": 3222973495, "lat": -33.8749145, "lon": 150.9651911}, {"type": "node", "id": 3868381454, "lat": -33.8747212, "lon": 150.9651443}, {"type": "node", "id": 5971798685, "lat": -33.8817893, "lon": 150.967021}, {"type": "node", "id": 6471376590, "lat": -33.8719709, "lon": 150.9635054, "tags": {"crossing": "traffic_signals", "highway": "crossing", "ref": "2183", "start_date": "1994-02-25"}}, {"type": "node", "id": 6471376593, "lat": -33.8712833, "lon": 150.9626756}, {"type": "node", "id": 6585098579, "lat": -33.8721191, "lon": 150.9637182}, {"type": "node", "id": 7418543356, "lat": -33.874501, "lon": 150.9650909}, {"type": "node", "id": 9957155210, "lat": -33.8733258, "lon": 150.9647226}, {"type": "node", "id": 9957155211, "lat": -33.874047, "lon": 150.9649013}, {"type": "node", "id": 9957155212, "lat": -33.8725906, "lon": 150.9642963}, {"type": "node", "id": 9957155213, "lat": -33.8727152, "lon": 150.9644044}, {"type": "node", "id": 9957155214, "lat": -33.8722699, "lon": 150.9639378}, {"type": "node", "id": 9957155215, "lat": -33.871635, "lon": 150.9630377}, {"type": "node", "id": 9957160622, "lat": -33.8707031, "lon": 150.961907}, {"type": "node", "id": 9957160630, "lat": -33.8708778, "lon": 150.9621355}, {"type": "node", "id": 9957160631, "lat": -33.8711522, "lon": 150.9625042}, {"type": "node", "id": 9957160632, "lat": -33.8714875, "lon": 150.9629482}, {"type": "node", "id": 9957160633, "lat": -33.8717136, "lon": 150.9632687}, {"type": "node", "id": 9957160634, "lat": -33.8719171, "lon": 150.963559}, {"type": "node", "id": 9957160635, "lat": -33.8722524, "lon": 150.9640271}, {"type": "node", "id": 9957160636, "lat": -33.8723641, "lon": 150.9641818}, {"type": "node", "id": 9957160637, "lat": -33.8724292, "lon": 150.9642662}, {"type": "node", "id": 9957160638, "lat": -33.8724867, "lon": 150.9643285}, {"type": "node", "id": 9957160639, "lat": -33.872566, "lon": 150.9644078}, {"type": "node", "id": 9957160640, "lat": -33.8726519, "lon": 150.9644922}, {"type": "node", "id": 9957160641, "lat": -33.8727684, "lon": 150.9645833}, {"type": "node", "id": 9957160642, "lat": -33.8728404, "lon": 150.9646318}, {"type": "node", "id": 9957160643, "lat": -33.8729388, "lon": 150.9646901}, {"type": "node", "id": 9957160644, "lat": -33.8730389, "lon": 150.9647403}, {"type": "node", "id": 9957160645, "lat": -33.8731431, "lon": 150.9647825}, {"type": "node", "id": 9957160646, "lat": -33.8732549, "lon": 150.9648157}, {"type": "node", "id": 9957160647, "lat": -33.8734501, "lon": 150.9648629}, {"type": "node", "id": 9957160648, "lat": -33.873777, "lon": 150.9649392}, {"type": "node", "id": 9957160649, "lat": -33.8739005, "lon": 150.9649704}, {"type": "node", "id": 9957160650, "lat": -33.8741231, "lon": 150.9650337}, {"type": "node", "id": 9957160651, "lat": -33.8743275, "lon": 150.965097}, {"type": "way", "id": 8992489, "nodes": [26791636, 315235035, 315235965], "tags": {"highway": "primary", "layer": "1", "maxspeed": "60", "name": "The Horsley Drive", "source": "yahoo_imagery", "surface": "paved"}}, {"type": "way", "id": 8993274, "nodes": [65895233, 65895231], "tags": {"bridge": "yes", "highway": "primary", "layer": "1", "maxspeed": "60", "name": "The Horsley Drive", "oneway": "yes", "source": "survey", "surface": "paved"}}, {"type": "way", "id": 8993278, "nodes": [7418543356, 3868381454, 3222973495, 26791636], "tags": {"highway": "primary", "maxspeed": "60", "name": "The Horsley Drive", "source": "yahoo_imagery", "surface": "paved"}}, {"type": "way", "id": 135625447, "nodes": [1847512610, 65888895, 65888800, 1848986065, 26791640], "tags": {"highway": "primary", "maxspeed": "60", "name": "The Horsley Drive", "oneway": "yes", "source": "yahoo_imagery", "surface": "paved"}}, {"type": "way", "id": 172723501, "nodes": [65889897, 65891713, 1847512609, 65891715], "tags": {"highway": "primary", "lanes": "3", "maxspeed": "60", "name": "The Horsley Drive", "oneway": "yes", "psv:lanes": "designated|yes|yes", "source": "yahoo_imagery", "surface": "paved"}}, {"type": "way", "id": 316186186, "nodes": [315235965, 315236324, 1847512576], "tags": {"highway": "primary", "layer": "1", "maxspeed": "60", "name": "The Horsley Drive", "source": "yahoo_imagery", "surface": "paved"}}, {"type": "way", "id": 333741079, "nodes": [65895231, 9957155210, 3222853628, 26791634, 97349362, 26791633, 9957155213, 9957155212, 26791632, 9957155214, 6585098579, 6471376590, 9957155215, 140698344], "tags": {"highway": "primary", "maxspeed": "60", "maxspeed:conditional": "40 @ (Mo-Fr 08:00-09:30, 14:30-16:00; PH off; SH off)", "name": "The Horsley Drive", "oneway": "yes", "source": "survey", "surface": "paved"}}, {"type": "way", "id": 571092825, "nodes": [1847512576, 1847512590, 26791640], "tags": {"highway": "primary", "layer": "1", "maxspeed": "60", "name": "The Horsley Drive", "source": "yahoo_imagery", "surface": "paved"}}, {"type": "way", "id": 728303710, "nodes": [26791640, 5971798685, 65889897], "tags": {"highway": "primary", "maxspeed": "60", "name": "The Horsley Drive", "oneway": "yes", "source": "yahoo_imagery", "surface": "paved"}}, {"type": "way", "id": 1086710878, "nodes": [7418543356, 26791635, 9957155211, 65895233], "tags": {"highway": "primary", "maxspeed": "60", "name": "The Horsley Drive", "oneway": "yes", "source": "yahoo_imagery", "surface": "paved"}}, {"type": "way", "id": 1086710883, "nodes": [9957160622, 9957160630, 9957160631, 6471376593, 9957160632, 9957160633, 9957160634, 9957160635, 9957160636, 9957160637, 9957160638, 9957160639, 9957160640, 9957160641, 9957160642, 9957160643, 9957160644, 9957160645, 9957160646, 9957160647], "tags": {"highway": "primary", "lanes": "2", "maxspeed": "60", "name": "The Horsley Drive", "oneway": "yes", "surface": "asphalt"}}, {"type": "way", "id": 1086710884, "nodes": [9957160647, 9957160648], "tags": {"bridge": "yes", "highway": "primary", "lanes": "2", "layer": "1", "maxspeed": "60", "name": "The Horsley Drive", "oneway": "yes", "surface": "asphalt"}}, {"type": "way", "id": 1086710885, "nodes": [9957160648, 9957160649, 9957160650, 9957160651, 7418543356], "tags": {"highway": "primary", "lanes": "2", "maxspeed": "60", "name": "The Horsley Drive", "oneway": "yes", "surface": "asphalt"}}]}