{"version": 0.6, "generator": "Overpass API 0.7.61.5 4133829e", "osm3s": {"timestamp_osm_base": "2023-12-06T09:43:00Z", "copyright": "The data included in this document is from www.openstreetmap.org. The data is made available under ODbL."}, "elements": [{"type": "node", "id": 21400646, "lat": -33.6510925, "lon": 151.3232435}, {"type": "node", "id": 21400647, "lat": -33.6508546, "lon": 151.3233509}, {"type": "node", "id": 161517067, "lat": -33.651335, "lon": 151.3231747}, {"type": "node", "id": 161530198, "lat": -33.6539081, "lon": 151.3217578, "tags": {"highway": "traffic_signals", "ref": "4268", "start_date": "2009-04-06"}}, {"type": "node", "id": 1853419207, "lat": -33.6515756, "lon": 151.3231026}, {"type": "node", "id": 1853419211, "lat": -33.6515832, "lon": 151.3230404}, {"type": "node", "id": 1853419212, "lat": -33.6527876, "lon": 151.3227468}, {"type": "node", "id": 1853419214, "lat": -33.6529707, "lon": 151.3225922}, {"type": "node", "id": 1853419216, "lat": -33.6529922, "lon": 151.3226488}, {"type": "node", "id": 1853419218, "lat": -33.6530384, "lon": 151.3225553}, {"type": "node", "id": 1853419224, "lat": -33.653124, "lon": 151.3225815}, {"type": "node", "id": 1853419226, "lat": -33.6532467, "lon": 151.3224068}, {"type": "node", "id": 1853419228, "lat": -33.6534224, "lon": 151.3223575}, {"type": "node", "id": 1853419230, "lat": -33.6535737, "lon": 151.3220998}, {"type": "node", "id": 1853419256, "lat": -33.6538207, "lon": 151.3219886}, {"type": "node", "id": 1853419257, "lat": -33.6539667, "lon": 151.3218476, "tags": {"highway": "traffic_signals", "ref": "4268", "start_date": "2009-04-06"}}, {"type": "node", "id": 1853419258, "lat": -33.6542244, "lon": 151.3214595}, {"type": "node", "id": 1853419304, "lat": -33.6543721, "lon": 151.3214636}, {"type": "node", "id": 1853419306, "lat": -33.654652, "lon": 151.3209203}, {"type": "node", "id": 1853419310, "lat": -33.6550946, "lon": 151.3205069}, {"type": "node", "id": 1853419311, "lat": -33.6550784, "lon": 151.320348}, {"type": "node", "id": 1853419315, "lat": -33.6555011, "lon": 151.3199491}, {"type": "node", "id": 1853419317, "lat": -33.6559295, "lon": 151.3192368}, {"type": "node", "id": 1853419319, "lat": -33.6561416, "lon": 151.3191191}, {"type": "node", "id": 1853419331, "lat": -33.6564407, "lon": 151.3185501}, {"type": "node", "id": 1853419333, "lat": -33.6564869, "lon": 151.3184881}, {"type": "node", "id": 1853419335, "lat": -33.6565111, "lon": 151.3186419}, {"type": "node", "id": 1853419355, "lat": -33.656736, "lon": 151.3181376, "tags": {"highway": "traffic_signals", "ref": "1602", "start_date": "1980-03-17"}}, {"type": "node", "id": 1853419356, "lat": -33.6567246, "lon": 151.3183661}, {"type": "node", "id": 1853419357, "lat": -33.6568178, "lon": 151.3182487, "tags": {"highway": "traffic_signals", "ref": "1602", "start_date": "1980-03-17"}}, {"type": "node", "id": 1853419358, "lat": -33.6571072, "lon": 151.3179761}, {"type": "node", "id": 1853419359, "lat": -33.6570366, "lon": 151.3178695}, {"type": "node", "id": 1853419360, "lat": -33.6573696, "lon": 151.3178571}, {"type": "node", "id": 1853419361, "lat": -33.6573408, "lon": 151.3176938}, {"type": "node", "id": 1853419366, "lat": -33.6576575, "lon": 151.317765}, {"type": "node", "id": 1853419367, "lat": -33.6577001, "lon": 151.3175786}, {"type": "node", "id": 1853419369, "lat": -33.6582328, "lon": 151.3175916}, {"type": "node", "id": 1853419374, "lat": -33.659243, "lon": 151.3170464}, {"type": "node", "id": 1853419379, "lat": -33.6598597, "lon": 151.3168293}, {"type": "node", "id": 1853419381, "lat": -33.6599042, "lon": 151.3169833}, {"type": "node", "id": 1853419384, "lat": -33.660123, "lon": 151.3169078}, {"type": "node", "id": 1853419396, "lat": -33.6612748, "lon": 151.3165433}, {"type": "node", "id": 1853419397, "lat": -33.661843, "lon": 151.3163503}, {"type": "node", "id": 2509374394, "lat": -33.6583935, "lon": 151.3175357}, {"type": "node", "id": 2509374396, "lat": -33.6583061, "lon": 151.3173542}, {"type": "node", "id": 2509375021, "lat": -33.6563049, "lon": 151.3187325}, {"type": "node", "id": 2509375022, "lat": -33.656528, "lon": 151.3184788}, {"type": "node", "id": 2509375023, "lat": -33.6563746, "lon": 151.3186802}, {"type": "node", "id": 2509375024, "lat": -33.6565041, "lon": 151.3185434}, {"type": "node", "id": 2509375025, "lat": -33.656553, "lon": 151.3183951}, {"type": "node", "id": 2509375026, "lat": -33.6564371, "lon": 151.3186454}, {"type": "node", "id": 2509375027, "lat": -33.6564929, "lon": 151.3185944}, {"type": "node", "id": 2509376004, "lat": -33.657636, "lon": 151.317661}, {"type": "node", "id": 2509376005, "lat": -33.6576254, "lon": 151.3176026}, {"type": "node", "id": 4377148180, "lat": -33.6579188, "lon": 151.3175022}, {"type": "node", "id": 4377148181, "lat": -33.6579589, "lon": 151.3176773}, {"type": "node", "id": 4377148914, "lat": -33.6571698, "lon": 151.317781}, {"type": "node", "id": 4377148915, "lat": -33.6572467, "lon": 151.3178944}, {"type": "node", "id": 5508186599, "lat": -33.6618109, "lon": 151.3161698}, {"type": "node", "id": 5765260895, "lat": -33.6540967, "lon": 151.3217224}, {"type": "node", "id": 5765261288, "lat": -33.6518941, "lon": 151.3230101}, {"type": "node", "id": 5765261289, "lat": -33.6518825, "lon": 151.3229471}, {"type": "node", "id": 6325242042, "lat": -33.6547948, "lon": 151.3207303}, {"type": "node", "id": 6325242070, "lat": -33.6558063, "lon": 151.3193977}, {"type": "node", "id": 6325242073, "lat": -33.6558541, "lon": 151.3193352}, {"type": "node", "id": 7730424042, "lat": -33.6550059, "lon": 151.3206244, "tags": {"crossing": "traffic_signals", "highway": "crossing", "ref": "1611", "start_date": "1980-04-11"}}, {"type": "node", "id": 7730424043, "lat": -33.6549373, "lon": 151.3205382, "tags": {"crossing": "traffic_signals", "highway": "crossing", "ref": "1611", "start_date": "1980-04-11"}}, {"type": "node", "id": 7882299531, "lat": -33.6511535, "lon": 151.3232273}, {"type": "node", "id": 9351553135, "lat": -33.6567547, "lon": 151.3183282}, {"type": "node", "id": 9351553136, "lat": -33.6566711, "lon": 151.3182289}, {"type": "node", "id": 9351553346, "lat": -33.6538965, "lon": 151.3219153}, {"type": "node", "id": 9351553347, "lat": -33.6538374, "lon": 151.3218301}, {"type": "node", "id": 9351553349, "lat": -33.6539728, "lon": 151.3216967}, {"type": "node", "id": 9351553350, "lat": -33.6540308, "lon": 151.3217858}, {"type": "way", "id": 14338438, "nodes": [161517067, 7882299531, 21400646, 21400647], "tags": {"alt_name": "Main Road 164", "highway": "primary", "lanes": "3", "lanes:backward": "2", "lanes:forward": "1", "maxspeed": "50", "name": "Barrenjoey Road", "source": "survey", "surface": "asphalt"}}, {"type": "way", "id": 174691214, "nodes": [161517067, 1853419207, 5765261288, 1853419212, 1853419216, 1853419224, 1853419228, 1853419256], "tags": {"alt_name": "Main Road 164", "highway": "primary", "lanes": "3", "maxspeed": "50", "name": "Barrenjoey Road", "oneway": "yes", "surface": "asphalt"}}, {"type": "way", "id": 243547142, "nodes": [1853419381, 1853419379], "tags": {"highway": "primary", "name": "Queens Parade", "surface": "asphalt"}}, {"type": "way", "id": 243547263, "nodes": [1853419355, 1853419357], "tags": {"highway": "primary", "name": "Bardo Road", "source:name": "NSW LPI Base Map", "source:name:date": "2015-12", "surface": "paved"}}, {"type": "way", "id": 243547295, "nodes": [2509375025, 2509375022, 2509375024, 2509375027, 1853419335], "tags": {"highway": "primary", "name": "The Boulevarde", "oneway": "yes", "source:name": "NSW LPI Base Map", "source:name:date": "2015-12", "surface": "paved"}}, {"type": "way", "id": 243547296, "nodes": [1853419335, 2509375026, 2509375023, 2509375021], "tags": {"highway": "primary", "name": "The Boulevarde", "oneway": "yes", "source:name": "NSW LPI Base Map", "source:name:date": "2015-12", "surface": "paved"}}, {"type": "way", "id": 243547408, "nodes": [2509376005, 2509376004, 1853419366], "tags": {"highway": "primary", "maxspeed": "50", "name": "Palm Road", "source:name": "NSW LPI Base Map", "source:name:date": "2015-12", "surface": "paved"}}, {"type": "way", "id": 440013567, "nodes": [2509376005, 1853419361, 4377148914, 1853419359, 1853419355], "tags": {"alt_name": "Main Road 164", "highway": "primary", "lanes": "3", "maxspeed": "50", "name": "Barrenjoey Road", "oneway": "yes", "surface": "paved"}}, {"type": "way", "id": 440256222, "nodes": [1853419310, 1853419315, 1853419319, 1853419335, 1853419356, 9351553135, 1853419357, 1853419358, 4377148915, 1853419360, 1853419366, 4377148181], "tags": {"alt_name": "Main Road 164", "highway": "primary", "lanes": "3", "maxspeed": "50", "name": "Barrenjoey Road", "oneway": "yes", "sidewalk": "left", "surface": "asphalt"}}, {"type": "way", "id": 573563728, "nodes": [5508186599, 1853419379, 1853419374, 2509374396], "tags": {"alt_name": "Main Road 164", "highway": "primary", "lanes": "3", "maxspeed": "60", "name": "Barrenjoey Road", "oneway": "yes", "surface": "asphalt"}}, {"type": "way", "id": 573563740, "nodes": [2509374394, 1853419381, 1853419384, 1853419396, 1853419397], "tags": {"alt_name": "Main Road 164", "cycleway:left": "no", "highway": "primary", "lanes": "3", "maxspeed": "60", "name": "Barrenjoey Road", "oneway": "yes", "surface": "asphalt"}}, {"type": "way", "id": 576897960, "nodes": [161530198, 9351553347, 1853419230], "tags": {"alt_name": "Main Road 164", "highway": "primary", "lanes": "3", "maxspeed": "50", "name": "Barrenjoey Road", "oneway": "yes", "surface": "paved"}}, {"type": "way", "id": 576897961, "nodes": [1853419230, 1853419226, 1853419218, 1853419214, 5765261289, 1853419211, 161517067], "tags": {"alt_name": "Main Road 164", "cycleway:left": "no", "highway": "primary", "lanes": "3", "maxspeed": "50", "name": "Barrenjoey Road", "oneway": "yes", "surface": "asphalt"}}, {"type": "way", "id": 576897962, "nodes": [1853419256, 9351553346, 1853419257], "tags": {"alt_name": "Main Road 164", "highway": "primary", "lanes": "3", "maxspeed": "50", "name": "Barrenjoey Road", "oneway": "yes", "surface": "asphalt"}}, {"type": "way", "id": 576897963, "nodes": [1853419257, 9351553350, 5765260895, 1853419304, 7730424042, 1853419310], "tags": {"alt_name": "Main Road 164", "highway": "primary", "lanes": "3", "maxspeed": "50", "name": "Barrenjoey Road", "oneway": "yes", "surface": "paved"}}, {"type": "way", "id": 667767328, "nodes": [1853419355, 9351553136, 2509375025, 1853419333, 1853419331, 2509375021, 1853419317, 6325242073, 6325242070, 1853419311, 7730424043, 6325242042, 1853419306, 1853419258, 9351553349, 161530198], "tags": {"alt_name": "Main Road 164", "highway": "primary", "lanes": "3", "maxspeed": "50", "name": "Barrenjoey Road", "oneway": "yes", "sidewalk": "left", "surface": "asphalt"}}, {"type": "way", "id": 791466083, "nodes": [4377148180, 1853419367, 2509376005], "tags": {"alt_name": "Main Road 164", "highway": "primary", "lanes": "3", "maxspeed": "50", "name": "Barrenjoey Road", "oneway": "yes", "surface": "paved"}}, {"type": "way", "id": 1156502320, "nodes": [2509374396, 4377148180], "tags": {"alt_name": "Main Road 164", "highway": "primary", "lanes": "3", "maxspeed": "60", "name": "Barrenjoey Road", "oneway": "yes", "surface": "asphalt"}}, {"type": "way", "id": 1156502321, "nodes": [4377148181, 1853419369, 2509374394], "tags": {"alt_name": "Main Road 164", "cycleway:left": "no", "highway": "primary", "lanes": "3", "maxspeed": "60", "name": "Barrenjoey Road", "oneway": "yes", "surface": "asphalt"}}]}