{"version": 0.6, "generator": "Overpass API 0.7.61.5 4133829e", "osm3s": {"timestamp_osm_base": "2023-12-08T07:59:44Z", "copyright": "The data included in this document is from www.openstreetmap.org. The data is made available under ODbL."}, "elements": [{"type": "node", "id": 130177792, "lat": -32.508363, "lon": 115.7411207}, {"type": "node", "id": 130177793, "lat": -32.5062196, "lon": 115.7410724}, {"type": "node", "id": 130177800, "lat": -32.4994026, "lon": 115.74354}, {"type": "node", "id": 130177803, "lat": -32.4964608, "lon": 115.7443924}, {"type": "node", "id": 130177927, "lat": -32.5083781, "lon": 115.7412773}, {"type": "node", "id": 190461293, "lat": -32.5030372, "lon": 115.7420676}, {"type": "node", "id": 190461308, "lat": -32.5073981, "lon": 115.7411748}, {"type": "node", "id": 190461333, "lat": -32.5074037, "lon": 115.7410137}, {"type": "node", "id": 190463795, "lat": -32.5006933, "lon": 115.7432917}, {"type": "node", "id": 190463814, "lat": -32.5007409, "lon": 115.7430091}, {"type": "node", "id": 1847294966, "lat": -32.5093343, "lon": 115.7413712}, {"type": "node", "id": 1847294981, "lat": -32.5062037, "lon": 115.7412328}, {"type": "node", "id": 1847294988, "lat": -32.5045231, "lon": 115.7417145}, {"type": "node", "id": 1847294992, "lat": -32.5080913, "lon": 115.7412193}, {"type": "node", "id": 1847294996, "lat": -32.5051773, "lon": 115.7412848}, {"type": "node", "id": 1847294999, "lat": -32.5099874, "lon": 115.7416398}, {"type": "node", "id": 1847295000, "lat": -32.5096087, "lon": 115.7414812}, {"type": "node", "id": 1860802272, "lat": -32.4955417, "lon": 115.7448444}, {"type": "node", "id": 1860802355, "lat": -32.5088193, "lon": 115.7413812}, {"type": "node", "id": 1860802357, "lat": -32.5088636, "lon": 115.741218}, {"type": "node", "id": 1860802370, "lat": -32.5092859, "lon": 115.7415291}, {"type": "node", "id": 1860802391, "lat": -32.5095906, "lon": 115.741643}, {"type": "node", "id": 1860802401, "lat": -32.5099508, "lon": 115.7418046}, {"type": "node", "id": 2594783298, "lat": -32.5092893, "lon": 115.7413565}, {"type": "node", "id": 4972376147, "lat": -32.5078384, "lon": 115.7410394}, {"type": "node", "id": 4972376153, "lat": -32.5068065, "lon": 115.7411733}, {"type": "node", "id": 4972376154, "lat": -32.5077939, "lon": 115.7411894}, {"type": "node", "id": 4972376156, "lat": -32.5050342, "lon": 115.7415059}, {"type": "node", "id": 4972376157, "lat": -32.5041068, "lon": 115.7416615}, {"type": "node", "id": 4972376165, "lat": -32.5068167, "lon": 115.7410151}, {"type": "node", "id": 4972376166, "lat": -32.5056766, "lon": 115.7411653}, {"type": "node", "id": 4972376167, "lat": -32.5055545, "lon": 115.741345}, {"type": "node", "id": 4972376168, "lat": -32.5079217, "lon": 115.7410513}, {"type": "node", "id": 4972376174, "lat": -32.5074847, "lon": 115.7411695}, {"type": "node", "id": 4972376175, "lat": -32.5074847, "lon": 115.7410264}, {"type": "node", "id": 5557630443, "lat": -32.5004229, "lon": 115.7431463}, {"type": "node", "id": 5557630444, "lat": -32.5002247, "lon": 115.7434809}, {"type": "node", "id": 6133482547, "lat": -32.4952131, "lon": 115.745037}, {"type": "node", "id": 6235467453, "lat": -32.5009767, "lon": 115.742911}, {"type": "node", "id": 6235467461, "lat": -32.5009507, "lon": 115.7431848}, {"type": "node", "id": 6280643739, "lat": -32.503021, "lon": 115.7423401}, {"type": "node", "id": 6285590013, "lat": -32.5018847, "lon": 115.7425393}, {"type": "node", "id": 6285610553, "lat": -32.5052938, "lon": 115.7414241}, {"type": "way", "id": 104752254, "nodes": [5557630443, 130177800, 130177803, 1860802272, 6133482547], "tags": {"highway": "trunk", "lanes": "2", "maxspeed": "80", "name": "Mandurah Road", "network": "AU:WA:NR", "oneway": "yes", "ref": "1", "surface": "asphalt"}}, {"type": "way", "id": 104752259, "nodes": [4972376174, 4972376154, 1847294992, 130177927, 1860802355, 1860802370, 1860802391, 1860802401], "tags": {"highway": "trunk", "lanes": "2", "maxspeed": "70", "name": "Mandurah Road", "network": "AU:WA:NR", "oneway": "yes", "ref": "1", "surface": "asphalt"}}, {"type": "way", "id": 571068819, "nodes": [2594783298, 1860802357, 130177792, 4972376168, 4972376147], "tags": {"highway": "trunk", "lanes": "2", "maxspeed": "80", "name": "Mandurah Road", "network": "AU:WA:NR", "oneway": "yes", "ref": "1", "surface": "asphalt"}}, {"type": "way", "id": 580605180, "nodes": [190463814, 5557630443], "tags": {"highway": "trunk", "lanes": "2", "maxspeed": "80", "name": "Mandurah Road", "network": "AU:WA:NR", "oneway": "yes", "ref": "1", "surface": "asphalt"}}, {"type": "way", "id": 580605181, "nodes": [190461333, 4972376165, 130177793, 4972376166, 1847294996, 4972376157, 190461293], "tags": {"highway": "trunk", "lanes": "2", "maxspeed": "80", "name": "Mandurah Road", "network": "AU:WA:NR", "oneway": "yes", "ref": "1", "surface": "asphalt"}}, {"type": "way", "id": 580605183, "nodes": [5557630444, 190463795], "tags": {"highway": "trunk", "lanes": "3", "maxspeed": "80", "name": "Mandurah Road", "network": "AU:WA:NR", "oneway": "yes", "ref": "1", "source:maxspeed": "https://portal-mainroads.opendata.arcgis.com/datasets", "surface": "asphalt", "turn:lanes": "||right"}}, {"type": "way", "id": 580611207, "nodes": [4972376175, 190461333], "tags": {"highway": "trunk", "lanes": "2", "maxspeed": "80", "name": "Mandurah Road", "network": "AU:WA:NR", "oneway": "yes", "ref": "1", "surface": "asphalt", "turn:lanes": "through|through"}}, {"type": "way", "id": 580611208, "nodes": [190461308, 4972376174], "tags": {"highway": "trunk", "lanes": "3", "maxspeed": "70", "name": "Mandurah Road", "network": "AU:WA:NR", "oneway": "yes", "ref": "1", "surface": "asphalt", "turn:lanes": "||right"}}, {"type": "way", "id": 580611209, "nodes": [6285610553, 4972376167, 1847294981, 4972376153, 190461308], "tags": {"highway": "trunk", "lanes": "3", "maxspeed": "70", "name": "Mandurah Road", "network": "AU:WA:NR", "oneway": "yes", "ref": "1", "surface": "asphalt", "turn:lanes": "||right"}}, {"type": "way", "id": 666027241, "nodes": [190463795, 6235467461], "tags": {"highway": "trunk", "lanes": "2", "maxspeed": "80", "name": "Mandurah Road", "network": "AU:WA:NR", "oneway": "yes", "ref": "1", "source:maxspeed": "https://portal-mainroads.opendata.arcgis.com/datasets", "surface": "asphalt"}}, {"type": "way", "id": 670682583, "nodes": [6235467461, 6280643739], "tags": {"highway": "trunk", "lanes": "2", "maxspeed": "80", "name": "Mandurah Road", "network": "AU:WA:NR", "oneway": "yes", "ref": "1", "source:maxspeed": "https://portal-mainroads.opendata.arcgis.com/datasets", "surface": "asphalt"}}, {"type": "way", "id": 670682585, "nodes": [6285590013, 6235467453], "tags": {"highway": "trunk", "lanes": "3", "maxspeed": "80", "name": "Mandurah Road", "network": "AU:WA:NR", "oneway": "yes", "ref": "1", "surface": "asphalt", "turn:lanes": "left||"}}, {"type": "way", "id": 671209184, "nodes": [6235467453, 190463814], "tags": {"highway": "trunk", "lanes": "2", "maxspeed": "80", "name": "Mandurah Road", "network": "AU:WA:NR", "oneway": "yes", "ref": "1", "surface": "asphalt", "turn:lanes": "through|through"}}, {"type": "way", "id": 671209185, "nodes": [190461293, 6285590013], "tags": {"highway": "trunk", "lanes": "2", "maxspeed": "80", "name": "Mandurah Road", "network": "AU:WA:NR", "oneway": "yes", "ref": "1", "surface": "asphalt"}}, {"type": "way", "id": 671209186, "nodes": [4972376147, 4972376175], "tags": {"highway": "trunk", "lanes": "2", "maxspeed": "80", "name": "Mandurah Road", "network": "AU:WA:NR", "oneway": "yes", "ref": "1", "surface": "asphalt", "turn:lanes": "through|through"}}, {"type": "way", "id": 671209187, "nodes": [1847294999, 1847295000, 1847294966, 2594783298], "tags": {"highway": "trunk", "lanes": "2", "maxspeed": "80", "name": "Mandurah Road", "network": "AU:WA:NR", "oneway": "yes", "ref": "1", "surface": "asphalt"}}, {"type": "way", "id": 671211013, "nodes": [6280643739, 1847294988, 4972376156, 6285610553], "tags": {"highway": "trunk", "lanes": "2", "maxspeed": "70", "name": "Mandurah Road", "network": "AU:WA:NR", "oneway": "yes", "ref": "1", "surface": "asphalt"}}]}