{"version": 0.6, "generator": "Overpass API 0.7.61.5 4133829e", "osm3s": {"timestamp_osm_base": "2023-12-06T13:25:04Z", "copyright": "The data included in this document is from www.openstreetmap.org. The data is made available under ODbL."}, "elements": [{"type": "node", "id": 316898612, "lat": -18.2897926, "lon": 143.5476606}, {"type": "node", "id": 316898629, "lat": -18.2898354, "lon": 143.5496214}, {"type": "node", "id": 1836112372, "lat": -18.2898235, "lon": 143.5486557}, {"type": "node", "id": 1916787884, "lat": -18.289741, "lon": 143.5437707}, {"type": "node", "id": 1916787886, "lat": -18.2897498, "lon": 143.5444918}, {"type": "node", "id": 1916787888, "lat": -18.2897653, "lon": 143.5461306}, {"type": "node", "id": 1916787890, "lat": -18.2898392, "lon": 143.5502023}, {"type": "node", "id": 1916787892, "lat": -18.2899149, "lon": 143.5542073}, {"type": "node", "id": 2531784027, "lat": -18.2897541, "lon": 143.5452739, "tags": {"barrier": "cattle_grid", "bicycle": "yes", "foot": "yes", "motorcar": "yes", "motorcycle": "yes", "name": "Jeffs Grid (Folly)"}}, {"type": "node", "id": 3768315714, "lat": -18.2898049, "lon": 143.5480573, "tags": {"name": "Georgetown", "place": "town", "population": "222", "population:date": "2021", "source:population": "ABS Urban Centres and Localities", "wikidata": "Q182262"}}, {"type": "way", "id": 181235141, "nodes": [1916787884, 1916787886], "tags": {"bridge": "yes", "highway": "trunk", "layer": "1", "maxspeed": "60", "name": "North Street", "network": "AU:QLD:NR", "oneway": "no", "operator": "mainroads.qld.gov.au", "ref": "1", "source": "survey", "surface": "asphalt"}}, {"type": "way", "id": 181235142, "nodes": [1916787890, 1916787892], "tags": {"bridge": "yes", "highway": "trunk", "layer": "1", "name": "North Street", "network": "AU:QLD:NR", "operator": "mainroads.qld.gov.au", "ref": "1", "source": "survey", "surface": "concrete"}}, {"type": "way", "id": 181235144, "nodes": [1916787886, 2531784027, 1916787888, 316898612, 3768315714, 1836112372, 316898629, 1916787890], "tags": {"highway": "trunk", "maxspeed": "60", "name": "North Street", "network": "AU:QLD:NR", "oneway": "no", "operator": "mainroads.qld.gov.au", "ref": "1", "source": "survey", "surface": "asphalt"}}]}