{"version": 0.6, "generator": "Overpass API 0.7.61.5 4133829e", "osm3s": {"timestamp_osm_base": "2023-12-08T07:55:39Z", "copyright": "The data included in this document is from www.openstreetmap.org. The data is made available under ODbL."}, "elements": [{"type": "node", "id": 85738779, "lat": -32.2317702, "lon": 116.0061456}, {"type": "node", "id": 85738780, "lat": -32.2301535, "lon": 116.0062312}, {"type": "node", "id": 85738781, "lat": -32.2288262, "lon": 116.0065275}, {"type": "node", "id": 85741540, "lat": -32.2272565, "lon": 116.0071239}, {"type": "node", "id": 5768939693, "lat": -32.2298443, "lon": 116.006279}, {"type": "node", "id": 5768939702, "lat": -32.2300014, "lon": 116.0063867}, {"type": "node", "id": 5768939703, "lat": -32.2291396, "lon": 116.0065641}, {"type": "node", "id": 5768939704, "lat": -32.2296162, "lon": 116.0064794}, {"type": "node", "id": 5768939705, "lat": -32.2299007, "lon": 116.0064032}, {"type": "node", "id": 5768939706, "lat": -32.2310908, "lon": 116.0062579}, {"type": "node", "id": 5768939707, "lat": -32.2283363, "lon": 116.0067209}, {"type": "node", "id": 5768939708, "lat": -32.2308896, "lon": 116.0061448}, {"type": "node", "id": 5768939713, "lat": -32.22999, "lon": 116.0062522}, {"type": "node", "id": 6200981640, "lat": -32.2299746, "lon": 116.006255}, {"type": "node", "id": 6200981641, "lat": -32.2298775, "lon": 116.0062729}, {"type": "node", "id": 6207194264, "lat": -32.2260902, "lon": 116.0075825}, {"type": "node", "id": 6276408365, "lat": -32.2285785, "lon": 116.006602}, {"type": "node", "id": 6276408366, "lat": -32.2287577, "lon": 116.006649}, {"type": "node", "id": 6276408367, "lat": -32.2293465, "lon": 116.0063875}, {"type": "node", "id": 6276408368, "lat": -32.2360703, "lon": 116.0059265}, {"type": "way", "id": 189519112, "nodes": [5768939708, 85738780, 5768939713, 6200981640, 6200981641], "tags": {"highway": "trunk", "lanes": "2", "maxspeed": "60", "name": "South Western Highway", "network": "AU:WA:S", "oneway": "yes", "ref": "20", "source:geometry": "Esri World Imagery", "source:lanes": "Esri World Imagery", "source:maxspeed": "OpenStreetCam", "surface": "asphalt", "turn:lanes": "|right"}}, {"type": "way", "id": 609019859, "nodes": [5768939704, 5768939705, 5768939702], "tags": {"highway": "trunk", "lanes": "1", "maxspeed": "60", "name": "South Western Highway", "network": "AU:WA:S", "oneway": "yes", "ref": "20", "source:geometry": "Esri World Imagery", "source:lanes": "Esri World Imagery", "source:maxspeed": "OpenStreetCam", "surface": "asphalt", "turn:lanes": "left"}}, {"type": "way", "id": 609019860, "nodes": [5768939707, 85741540], "tags": {"highway": "trunk", "lanes": "2", "maxspeed": "60", "name": "South Western Highway", "network": "AU:WA:S", "ref": "20", "source:lanes": "Esri World Imagery", "source:maxspeed": "OpenStreetCam", "surface": "asphalt"}}, {"type": "way", "id": 663098052, "nodes": [85741540, 6207194264], "tags": {"highway": "trunk", "lanes": "2", "maxspeed": "60", "name": "South Western Highway", "network": "AU:WA:S", "ref": "20", "source:lanes": "Esri World Imagery", "source:maxspeed": "OpenStreetCam", "surface": "asphalt"}}, {"type": "way", "id": 670214980, "nodes": [5768939702, 5768939706, 85738779], "tags": {"highway": "trunk", "lanes": "1", "maxspeed": "60", "name": "South Western Highway", "network": "AU:WA:S", "oneway": "yes", "ref": "20", "source:geometry": "Esri World Imagery", "source:lanes": "Esri World Imagery", "source:maxspeed": "OpenStreetCam", "surface": "asphalt", "turn:lanes": "left"}}, {"type": "way", "id": 670214981, "nodes": [5768939707, 6276408366, 5768939703, 5768939704], "tags": {"highway": "trunk", "lanes": "2", "maxspeed": "60", "name": "South Western Highway", "network": "AU:WA:S", "oneway": "yes", "ref": "20", "source:geometry": "Esri World Imagery", "source:lanes": "Esri World Imagery", "source:maxspeed": "OpenStreetCam", "surface": "asphalt", "turn:lanes": "left|"}}, {"type": "way", "id": 670214982, "nodes": [6200981641, 5768939693, 6276408367, 85738781, 6276408365, 5768939707], "tags": {"highway": "trunk", "lanes": "1", "maxspeed": "60", "name": "South Western Highway", "network": "AU:WA:S", "oneway": "yes", "ref": "20", "source:geometry": "Esri World Imagery", "source:lanes": "Esri World Imagery", "source:maxspeed": "OpenStreetCam", "surface": "asphalt"}}, {"type": "way", "id": 670214983, "nodes": [85738779, 5768939708], "tags": {"highway": "trunk", "lanes": "1", "maxspeed": "60", "name": "South Western Highway", "network": "AU:WA:S", "oneway": "yes", "ref": "20", "source:geometry": "Esri World Imagery", "source:lanes": "Esri World Imagery", "source:maxspeed": "OpenStreetCam", "surface": "asphalt"}}, {"type": "way", "id": 670214985, "nodes": [6276408368, 85738779], "tags": {"highway": "trunk", "lanes": "2", "maxspeed": "60", "name": "South Western Highway", "network": "AU:WA:S", "ref": "20", "source:lanes": "Esri World Imagery", "source:maxspeed": "OpenStreetCam", "surface": "asphalt"}}]}