{"version": 0.6, "generator": "Overpass API 0.7.61.5 4133829e", "osm3s": {"timestamp_osm_base": "2023-12-06T09:37:50Z", "copyright": "The data included in this document is from www.openstreetmap.org. The data is made available under ODbL."}, "elements": [{"type": "node", "id": 29753748, "lat": -34.0392856, "lon": 150.7403059, "tags": {"highway": "traffic_signals", "traffic_signals:direction": "forward"}}, {"type": "node", "id": 34631825, "lat": -34.039437, "lon": 150.7397979}, {"type": "node", "id": 34632198, "lat": -34.0396236, "lon": 150.7404019}, {"type": "node", "id": 34632199, "lat": -34.0397348, "lon": 150.741158}, {"type": "node", "id": 307346443, "lat": -34.0391178, "lon": 150.7393228}, {"type": "node", "id": 307346453, "lat": -34.0365928, "lon": 150.7334005}, {"type": "node", "id": 588380287, "lat": -34.0395341, "lon": 150.7400858, "tags": {"crossing": "traffic_signals", "highway": "crossing"}}, {"type": "node", "id": 1834189114, "lat": -34.0368209, "lon": 150.7337412, "tags": {"highway": "traffic_signals", "traffic_signals:direction": "forward"}}, {"type": "node", "id": 1834189126, "lat": -34.0382145, "lon": 150.7367473}, {"type": "node", "id": 1834189131, "lat": -34.0396157, "lon": 150.7414486}, {"type": "node", "id": 1834189133, "lat": -34.0381956, "lon": 150.7375289}, {"type": "node", "id": 1834189137, "lat": -34.0378276, "lon": 150.7356757}, {"type": "node", "id": 1834189139, "lat": -34.038635, "lon": 150.7387777}, {"type": "node", "id": 1834189141, "lat": -34.0379467, "lon": 150.7356191}, {"type": "node", "id": 1834189143, "lat": -34.0382701, "lon": 150.7385143}, {"type": "node", "id": 1834189147, "lat": -34.0388053, "lon": 150.7412858}, {"type": "node", "id": 1834189149, "lat": -34.0383284, "lon": 150.7383121}, {"type": "node", "id": 1834189164, "lat": -34.038107, "lon": 150.7366353}, {"type": "node", "id": 1834189171, "lat": -34.0385316, "lon": 150.7388886}, {"type": "node", "id": 1834189173, "lat": -34.0382563, "lon": 150.7381161}, {"type": "node", "id": 1834189185, "lat": -34.0390693, "lon": 150.7395208}, {"type": "node", "id": 1834189188, "lat": -34.0367069, "lon": 150.7338457, "tags": {"highway": "traffic_signals", "traffic_signals:direction": "forward"}}, {"type": "node", "id": 1834189189, "lat": -34.038076, "lon": 150.7358899}, {"type": "node", "id": 1834189190, "lat": -34.0381886, "lon": 150.7363076}, {"type": "node", "id": 1834189192, "lat": -34.0394267, "lon": 150.740239, "tags": {"crossing": "traffic_signals", "highway": "crossing"}}, {"type": "node", "id": 1834189214, "lat": -34.0392768, "lon": 150.7398528}, {"type": "node", "id": 1834189215, "lat": -34.0393399, "lon": 150.7396169}, {"type": "node", "id": 1834189217, "lat": -34.0381047, "lon": 150.7371294}, {"type": "node", "id": 1834189222, "lat": -34.0380928, "lon": 150.7377416}, {"type": "node", "id": 1834189223, "lat": -34.039367, "lon": 150.7400246}, {"type": "node", "id": 1834189226, "lat": -34.038135, "lon": 150.7381317}, {"type": "node", "id": 1834189233, "lat": -34.0379763, "lon": 150.7359449}, {"type": "node", "id": 1837621043, "lat": -34.0363068, "lon": 150.7329969}, {"type": "node", "id": 1837621047, "lat": -34.0381966, "lon": 150.737739}, {"type": "node", "id": 1837621074, "lat": -34.038029, "lon": 150.7360972}, {"type": "node", "id": 1837621294, "lat": -34.0395453, "lon": 150.7409602}, {"type": "node", "id": 1837621326, "lat": -34.0374334, "lon": 150.734763}, {"type": "node", "id": 1837621368, "lat": -34.0381059, "lon": 150.7379717}, {"type": "node", "id": 1837621373, "lat": -34.0380937, "lon": 150.7364272}, {"type": "node", "id": 1837621525, "lat": -34.0366438, "lon": 150.7334767}, {"type": "node", "id": 1837621590, "lat": -34.0384877, "lon": 150.7386016}, {"type": "node", "id": 1837621636, "lat": -34.0380675, "lon": 150.7362681}, {"type": "node", "id": 1837621658, "lat": -34.0382185, "lon": 150.7379511}, {"type": "node", "id": 1837621745, "lat": -34.0379073, "lon": 150.7358168}, {"type": "node", "id": 1837621766, "lat": -34.0383991, "lon": 150.738462}, {"type": "node", "id": 1837621818, "lat": -34.0381851, "lon": 150.7383213}, {"type": "node", "id": 1837621824, "lat": -34.038378, "lon": 150.7386998}, {"type": "node", "id": 1838286525, "lat": -34.039501, "lon": 150.7406425}, {"type": "node", "id": 1838286539, "lat": -34.0382091, "lon": 150.7365058}, {"type": "node", "id": 1838286545, "lat": -34.0381483, "lon": 150.7361098}, {"type": "node", "id": 1848210894, "lat": -34.0391096, "lon": 150.7404133}, {"type": "node", "id": 3626066993, "lat": -34.0391699, "lon": 150.739677, "tags": {"highway": "traffic_signals"}}, {"type": "node", "id": 3626066999, "lat": -34.0394773, "lon": 150.740493}, {"type": "node", "id": 3626067002, "lat": -34.0392255, "lon": 150.7400486}, {"type": "node", "id": 3626067003, "lat": -34.0391442, "lon": 150.7407103}, {"type": "node", "id": 4336147742, "lat": -34.0382003, "lon": 150.7371322}, {"type": "node", "id": 5709654346, "lat": -34.0385964, "lon": 150.7387315}, {"type": "node", "id": 6071913669, "lat": -34.0363888, "lon": 150.7334031}, {"type": "node", "id": 7014024868, "lat": -34.0387971, "lon": 150.7389607}, {"type": "node", "id": 7014024869, "lat": -34.0377813, "lon": 150.7353433}, {"type": "node", "id": 7014024883, "lat": -34.038689, "lon": 150.7390737}, {"type": "node", "id": 7015762159, "lat": -34.0398317, "lon": 150.7417338}, {"type": "node", "id": 7299438456, "lat": -34.0389455, "lon": 150.7412164}, {"type": "node", "id": 7299438457, "lat": -34.0383201, "lon": 150.7386084}, {"type": "node", "id": 7301485018, "lat": -34.0375445, "lon": 150.7349484}, {"type": "node", "id": 7301485019, "lat": -34.0373061, "lon": 150.7348242}, {"type": "node", "id": 8887275452, "lat": -34.0395449, "lon": 150.7401239, "tags": {"highway": "traffic_signals"}}, {"type": "node", "id": 8887275453, "lat": -34.0392965, "lon": 150.7402681, "tags": {"crossing": "traffic_signals", "highway": "crossing"}}, {"type": "node", "id": 8887275454, "lat": -34.0391811, "lon": 150.7401884, "tags": {"crossing": "traffic_signals", "highway": "crossing"}}, {"type": "node", "id": 8887275455, "lat": -34.0391879, "lon": 150.7397065, "tags": {"crossing": "traffic_signals", "highway": "crossing"}}, {"type": "node", "id": 8887275456, "lat": -34.0392638, "lon": 150.7395162, "tags": {"crossing": "traffic_signals", "highway": "crossing"}}, {"type": "node", "id": 8887322043, "lat": -34.036801, "lon": 150.7339993, "tags": {"crossing": "traffic_signals", "highway": "crossing"}}, {"type": "node", "id": 8887322044, "lat": -34.0369142, "lon": 150.7338968, "tags": {"crossing": "traffic_signals", "highway": "crossing"}}, {"type": "way", "id": 4966216, "nodes": [7301485019, 1834189137, 1837621745, 1834189233], "tags": {"highway": "trunk", "lanes": "2", "maxspeed": "60", "name": "Narellan Road", "network": "AU:NSW", "old_network": "MR", "old_ref": "9", "oneway": "yes", "ref": "A9", "surface": "paved"}}, {"type": "way", "id": 172523110, "nodes": [1834189223, 34631825], "tags": {"highway": "trunk", "lanes": "3", "name": "Camden Valley Way", "oneway": "yes", "surface": "paved"}}, {"type": "way", "id": 172523112, "nodes": [1834189214, 3626067002, 8887275454, 1848210894, 1834189147], "tags": {"highway": "primary", "lanes": "2", "maxspeed": "60", "name": "Camden Valley Way", "network": "AU:NSW:T", "oneway": "yes", "ref": "12", "source": "bing", "surface": "paved"}}, {"type": "way", "id": 176418237, "nodes": [3626066999, 1838286525, 1837621294, 1834189131], "tags": {"highway": "trunk", "lanes": "3", "maxspeed": "60", "name": "Narellan Road", "network": "AU:NSW;AU:NSW:T", "old_network": "MR", "old_ref": "9", "oneway": "yes", "ref": "A9;12", "surface": "paved"}}, {"type": "way", "id": 176418238, "nodes": [1834189214, 1834189223], "tags": {"highway": "trunk", "lanes": "3", "maxspeed": "60", "name": "Narellan Road", "network": "AU:NSW", "old_network": "MR", "old_ref": "9", "oneway": "yes", "ref": "A9", "surface": "paved"}}, {"type": "way", "id": 176418245, "nodes": [34631825, 1834189215], "tags": {"cycleway": "lane", "highway": "trunk", "lanes": "5", "maxspeed": "60", "network": "AU:NSW;AU:NSW:T", "noname": "yes", "old_network": "MR", "old_ref": "9", "oneway": "yes", "ref": "A9;12", "source:maxspeed": "bing", "surface": "paved"}}, {"type": "way", "id": 176418246, "nodes": [307346443, 7014024868], "tags": {"highway": "trunk", "lanes": "3", "maxspeed": "60", "name": "Narellan Road", "network": "AU:NSW", "old_network": "MR", "old_ref": "9", "oneway": "yes", "ref": "A9", "source:maxspeed": "bing", "surface": "paved"}}, {"type": "way", "id": 224331517, "nodes": [1834189215, 1834189214], "tags": {"highway": "trunk", "lanes": "5", "name": "Camden Valley Way", "network": "AU:NSW:T", "oneway": "yes", "ref": "12", "source": "bing", "surface": "paved"}}, {"type": "way", "id": 435714126, "nodes": [1834189217, 1834189222, 1837621368, 1834189226, 1837621818, 1834189143, 7299438457, 1837621824, 1834189171, 7014024883], "tags": {"highway": "trunk", "lanes": "3", "maxspeed": "60", "name": "Narellan Road", "network": "AU:NSW", "old_network": "MR", "old_ref": "9", "oneway": "yes", "ref": "A9", "surface": "paved"}}, {"type": "way", "id": 435714127, "nodes": [4336147742, 1834189126, 1838286539, 1834189190, 1838286545, 1834189189, 1834189141, 7014024869], "tags": {"highway": "trunk", "lanes": "3", "maxspeed": "60", "name": "Narellan Road", "network": "AU:NSW", "old_network": "MR", "old_ref": "9", "oneway": "yes", "ref": "A9", "source:maxspeed": "bing", "surface": "paved", "turn:lanes": "merge_to_right|none|none"}}, {"type": "way", "id": 573298285, "nodes": [1837621525, 307346453, 1837621043], "tags": {"highway": "trunk", "lanes": "2", "maxspeed": "60", "name": "The Northern Road", "network": "AU:NSW", "old_network": "MR", "old_ref": "9", "oneway": "yes", "ref": "A9", "source:maxspeed": "bing", "surface": "paved"}}, {"type": "way", "id": 733419903, "nodes": [3626067003, 29753748, 8887275453, 1834189223], "tags": {"highway": "primary", "lanes": "3", "maxspeed": "60", "name": "Camden Valley Way", "network": "AU:NSW:T", "oneway": "yes", "ref": "12", "surface": "paved", "turn:lanes": "none|none|right"}}, {"type": "way", "id": 750085991, "nodes": [7014024868, 1834189139, 5709654346], "tags": {"highway": "trunk", "lanes": "4", "maxspeed": "60", "name": "Narellan Road", "network": "AU:NSW", "old_network": "MR", "old_ref": "9", "oneway": "yes", "ref": "A9", "source:maxspeed": "bing", "surface": "paved", "turn:lanes": "left|none|none|none"}}, {"type": "way", "id": 750085992, "nodes": [5709654346, 1837621590, 1837621766, 1834189149, 1834189173, 1837621658, 1837621047], "tags": {"highway": "trunk", "lanes": "3", "maxspeed": "60", "name": "Narellan Road", "network": "AU:NSW", "old_network": "MR", "old_ref": "9", "oneway": "yes", "ref": "A9", "source:maxspeed": "bing", "surface": "paved"}}, {"type": "way", "id": 750085993, "nodes": [1837621047, 1834189133, 4336147742], "tags": {"highway": "trunk", "lanes": "3", "maxspeed": "60", "name": "Narellan Road", "network": "AU:NSW", "old_network": "MR", "old_ref": "9", "oneway": "yes", "ref": "A9", "source:maxspeed": "bing", "surface": "paved"}}, {"type": "way", "id": 750085994, "nodes": [7014024869, 7301485018, 1837621326], "tags": {"highway": "trunk", "lanes": "2", "maxspeed": "60", "name": "Narellan Road", "network": "AU:NSW", "old_network": "MR", "old_ref": "9", "oneway": "yes", "ref": "A9", "source:maxspeed": "bing", "surface": "paved"}}, {"type": "way", "id": 750085995, "nodes": [1837621326, 8887322044, 1834189114], "tags": {"highway": "trunk", "lanes": "3", "maxspeed": "60", "name": "Narellan Road", "network": "AU:NSW", "old_network": "MR", "old_ref": "9", "oneway": "yes", "ref": "A9", "source:maxspeed": "bing", "surface": "paved", "turn:lanes": "left|none|none"}}, {"type": "way", "id": 750086027, "nodes": [6071913669, 1834189188], "tags": {"cycleway": "shoulder", "highway": "trunk", "lanes": "2", "maxspeed": "60", "name": "The Northern Road", "network": "AU:NSW", "old_network": "MR", "old_ref": "9", "oneway": "yes", "ref": "A9", "shoulder": "both", "shoulder:surface": "paved", "shoulder:width": "1.7", "source": "survey", "surface": "paved", "turn:lanes": "none|none|right|right"}}, {"type": "way", "id": 750086028, "nodes": [1834189233, 1837621074, 1837621636, 1837621373, 1834189164, 1834189217], "tags": {"highway": "trunk", "lanes": "2", "maxspeed": "60", "name": "Narellan Road", "network": "AU:NSW", "old_network": "MR", "old_ref": "9", "oneway": "yes", "ref": "A9", "surface": "paved"}}, {"type": "way", "id": 750086029, "nodes": [7014024883, 1834189185, 3626066993, 8887275455, 1834189214], "tags": {"highway": "trunk", "lanes": "4", "maxspeed": "60", "name": "Narellan Road", "network": "AU:NSW", "old_network": "MR", "old_ref": "9", "oneway": "yes", "ref": "A9", "surface": "paved", "turn:lanes": "left|none|none|none"}}, {"type": "way", "id": 750312083, "nodes": [7015762159, 34632199, 34632198, 8887275452, 588380287, 34631825], "tags": {"highway": "trunk", "lanes": "6", "maxspeed": "60", "name": "Narellan Road", "network": "AU:NSW;AU:NSW:T", "old_network": "MR", "old_ref": "9", "oneway": "yes", "ref": "A9;12", "source:maxspeed": "bing", "surface": "paved", "turn:lanes": "left|none|none|none|right|right"}}, {"type": "way", "id": 781817709, "nodes": [7299438456, 3626067003], "tags": {"highway": "primary", "lanes": "4", "maxspeed": "60", "name": "Camden Valley Way", "network": "AU:NSW:T", "oneway": "yes", "ref": "12", "source:geometry": "LPI NSW Imagery", "surface": "paved", "turn:lanes": "left|none|none|right"}}, {"type": "way", "id": 781817713, "nodes": [1834189223, 1834189192, 3626066999], "tags": {"highway": "trunk", "lanes": "3", "maxspeed": "60", "name": "Narellan Road", "network": "AU:NSW;AU:NSW:T", "old_network": "MR", "old_ref": "9", "oneway": "yes", "ref": "A9;12", "surface": "paved"}}, {"type": "way", "id": 781817715, "nodes": [1834189215, 8887275456, 307346443], "tags": {"highway": "trunk", "lanes": "3", "maxspeed": "60", "name": "Narellan Road", "network": "AU:NSW", "old_network": "MR", "old_ref": "9", "oneway": "yes", "ref": "A9", "source:maxspeed": "bing", "surface": "paved"}}, {"type": "way", "id": 782032112, "nodes": [1834189114, 1837621525], "tags": {"highway": "trunk", "lanes": "2", "maxspeed": "60", "name": "The Northern Road", "network": "AU:NSW", "old_network": "MR", "old_ref": "9", "oneway": "yes", "ref": "A9", "source:maxspeed": "bing", "surface": "paved"}}, {"type": "way", "id": 782032113, "nodes": [1834189188, 8887322043, 7301485019], "tags": {"highway": "trunk", "lanes": "2", "maxspeed": "60", "name": "Narellan Road", "network": "AU:NSW", "old_network": "MR", "old_ref": "9", "oneway": "yes", "ref": "A9", "surface": "paved"}}]}