{"version": 0.6, "generator": "Overpass API 0.7.61.5 4133829e", "osm3s": {"timestamp_osm_base": "2023-12-06T09:54:04Z", "copyright": "The data included in this document is from www.openstreetmap.org. The data is made available under ODbL."}, "elements": [{"type": "node", "id": 15179252, "lat": -33.955171, "lon": 151.1584244}, {"type": "node", "id": 15179253, "lat": -33.9558054, "lon": 151.158089}, {"type": "node", "id": 15179254, "lat": -33.9562897, "lon": 151.1579731}, {"type": "node", "id": 15179256, "lat": -33.9580573, "lon": 151.1577338}, {"type": "node", "id": 15179260, "lat": -33.9609207, "lon": 151.1562531}, {"type": "node", "id": 15179261, "lat": -33.9644816, "lon": 151.1546996}, {"type": "node", "id": 28375053, "lat": -33.9592777, "lon": 151.1523937}, {"type": "node", "id": 32826052, "lat": -33.9600446, "lon": 151.1542271, "tags": {"highway": "traffic_signals", "ref": "933", "start_date": "1990-09-18"}}, {"type": "node", "id": 32826096, "lat": -33.957151, "lon": 151.1578643}, {"type": "node", "id": 32829460, "lat": -33.9587226, "lon": 151.1511132}, {"type": "node", "id": 32879066, "lat": -33.9622038, "lon": 151.1556932}, {"type": "node", "id": 34507031, "lat": -33.9582175, "lon": 151.1577311}, {"type": "node", "id": 34507033, "lat": -33.9580156, "lon": 151.1578672}, {"type": "node", "id": 34507036, "lat": -33.9577464, "lon": 151.1579211}, {"type": "node", "id": 34507037, "lat": -33.9572003, "lon": 151.1580013}, {"type": "node", "id": 34507038, "lat": -33.9563156, "lon": 151.1581083}, {"type": "node", "id": 34507040, "lat": -33.9575091, "lon": 151.1579529}, {"type": "node", "id": 34507049, "lat": -33.9561461, "lon": 151.1581363}, {"type": "node", "id": 34507051, "lat": -33.9557796, "lon": 151.1582256}, {"type": "node", "id": 34507056, "lat": -33.955298, "lon": 151.1585041}, {"type": "node", "id": 38768056, "lat": -33.9617762, "lon": 151.1558917}, {"type": "node", "id": 266741667, "lat": -33.9637385, "lon": 151.1550253}, {"type": "node", "id": 1080120578, "lat": -33.9559076, "lon": 151.1581845}, {"type": "node", "id": 1080120579, "lat": -33.9556117, "lon": 151.1581721}, {"type": "node", "id": 1080127342, "lat": -33.9600423, "lon": 151.1567061}, {"type": "node", "id": 1080127345, "lat": -33.9605404, "lon": 151.1564086}, {"type": "node", "id": 1080127358, "lat": -33.9598164, "lon": 151.156871}, {"type": "node", "id": 1080127362, "lat": -33.9604297, "lon": 151.1566149}, {"type": "node", "id": 1080127368, "lat": -33.9640252, "lon": 151.1550086}, {"type": "node", "id": 1080127369, "lat": -33.9645115, "lon": 151.1548052}, {"type": "node", "id": 1080127376, "lat": -33.9609626, "lon": 151.1563556}, {"type": "node", "id": 1080127380, "lat": -33.9610447, "lon": 151.1562108, "tags": {"highway": "traffic_signals", "traffic_signals": "signal", "traffic_signals:direction": "forward"}}, {"type": "node", "id": 1080127383, "lat": -33.960857, "lon": 151.156275}, {"type": "node", "id": 1121136670, "lat": -33.957746, "lon": 151.1488472, "tags": {"highway": "bus_stop"}}, {"type": "node", "id": 1685276585, "lat": -33.9606643, "lon": 151.1563528}, {"type": "node", "id": 1685276588, "lat": -33.9607344, "lon": 151.1558192}, {"type": "node", "id": 1827326738, "lat": -33.9560756, "lon": 151.1580075}, {"type": "node", "id": 1827327053, "lat": -33.9591075, "lon": 151.1520041}, {"type": "node", "id": 1827327083, "lat": -33.959141, "lon": 151.1572327}, {"type": "node", "id": 1827327099, "lat": -33.9543467, "lon": 151.1590072}, {"type": "node", "id": 1827327526, "lat": -33.9544088, "lon": 151.159133}, {"type": "node", "id": 1833823374, "lat": -33.957043, "lon": 151.1471364}, {"type": "node", "id": 1833823379, "lat": -33.9574439, "lon": 151.1481039}, {"type": "node", "id": 1836674213, "lat": -33.9578114, "lon": 151.1489974}, {"type": "node", "id": 1847502648, "lat": -33.9597087, "lon": 151.1534036}, {"type": "node", "id": 1847502649, "lat": -33.9601069, "lon": 151.1543777}, {"type": "node", "id": 1855149692, "lat": -33.9592409, "lon": 151.1523115, "tags": {"crossing": "traffic_signals", "crossing:island": "no", "crossing_ref": "toucan", "highway": "crossing"}}, {"type": "node", "id": 1880345820, "lat": -33.9593195, "lon": 151.1524929, "tags": {"crossing": "traffic_signals", "crossing:island": "no", "crossing_ref": "toucan", "highway": "crossing"}}, {"type": "node", "id": 3884405620, "lat": -33.9603879, "lon": 151.1550096}, {"type": "node", "id": 3884405624, "lat": -33.9606259, "lon": 151.1555588}, {"type": "node", "id": 3884405638, "lat": -33.9616022, "lon": 151.1559671}, {"type": "node", "id": 4787616346, "lat": -33.9618308, "lon": 151.1559592}, {"type": "node", "id": 7387433473, "lat": -33.9570852, "lon": 151.1472362}, {"type": "node", "id": 7728348783, "lat": -33.9604407, "lon": 151.1551344, "tags": {"crossing": "traffic_signals", "highway": "crossing", "ref": "2712", "start_date": "1990-09-18"}}, {"type": "node", "id": 9567500455, "lat": -33.960247, "lon": 151.1547022}, {"type": "node", "id": 9567500456, "lat": -33.9598599, "lon": 151.1537573}, {"type": "node", "id": 9567500457, "lat": -33.9599909, "lon": 151.1540844}, {"type": "node", "id": 9567500461, "lat": -33.9576121, "lon": 151.1485307}, {"type": "node", "id": 9567500695, "lat": -33.9600702, "lon": 151.1567929}, {"type": "node", "id": 9567500736, "lat": -33.959331, "lon": 151.1525199, "tags": {"highway": "traffic_signals", "traffic_signals": "signal", "traffic_signals:direction": "forward"}}, {"type": "node", "id": 9567500737, "lat": -33.9592283, "lon": 151.152281, "tags": {"highway": "traffic_signals", "traffic_signals": "signal", "traffic_signals:direction": "backward"}}, {"type": "node", "id": 9567500938, "lat": -33.9583498, "lon": 151.1576663}, {"type": "node", "id": 9567500973, "lat": -33.9548475, "lon": 151.1587831}, {"type": "node", "id": 9567500974, "lat": -33.9547875, "lon": 151.1586678}, {"type": "node", "id": 11245093934, "lat": -33.9570923, "lon": 151.1472534, "tags": {"crossing": "traffic_signals", "highway": "crossing"}}, {"type": "node", "id": 11245156540, "lat": -33.9571022, "lon": 151.1472773, "tags": {"highway": "traffic_signals", "traffic_signals": "signal", "traffic_signals:direction": "backward"}}, {"type": "node", "id": 11290567824, "lat": -33.9608606, "lon": 151.156403, "tags": {"highway": "traffic_signals", "traffic_signals": "signal", "traffic_signals:direction": "forward"}}, {"type": "node", "id": 11290567825, "lat": -33.960878, "lon": 151.1561536, "tags": {"highway": "traffic_signals", "traffic_signals": "signal", "traffic_signals:direction": "backward"}}, {"type": "node", "id": 11290567828, "lat": -33.9610181, "lon": 151.1562199, "tags": {"crossing": "traffic_signals", "highway": "crossing"}}, {"type": "node", "id": 11290567829, "lat": -33.961048, "lon": 151.1563166, "tags": {"crossing": "traffic_signals", "highway": "crossing"}}, {"type": "node", "id": 11290567833, "lat": -33.9608477, "lon": 151.1562788, "tags": {"crossing": "traffic_signals", "highway": "crossing"}}, {"type": "node", "id": 11290567834, "lat": -33.9608855, "lon": 151.1563915, "tags": {"crossing": "traffic_signals", "highway": "crossing"}}, {"type": "node", "id": 11290567838, "lat": -33.9608854, "lon": 151.1561709, "tags": {"crossing": "traffic_signals", "highway": "crossing"}}, {"type": "node", "id": 11290618598, "lat": -33.9623787, "lon": 151.1556171, "tags": {"crossing": "traffic_signals", "highway": "crossing"}}, {"type": "node", "id": 11290618599, "lat": -33.962412, "lon": 151.1557074, "tags": {"crossing": "traffic_signals", "highway": "crossing"}}, {"type": "node", "id": 11290618600, "lat": -33.9623326, "lon": 151.1557418, "tags": {"highway": "traffic_signals", "traffic_signals": "signal", "traffic_signals:direction": "forward"}}, {"type": "node", "id": 11290618601, "lat": -33.9624551, "lon": 151.1555838, "tags": {"highway": "traffic_signals", "traffic_signals": "signal", "traffic_signals:direction": "forward"}}, {"type": "node", "id": 11299580955, "lat": -33.9578785, "lon": 151.1578976}, {"type": "node", "id": 11299580956, "lat": -33.9581285, "lon": 151.1578076}, {"type": "node", "id": 11299580957, "lat": -33.9581386, "lon": 151.1577265}, {"type": "node", "id": 11299591708, "lat": -33.955922, "lon": 151.1580482}, {"type": "node", "id": 11299591709, "lat": -33.9561894, "lon": 151.1579862}, {"type": "way", "id": 4596967, "nodes": [3884405620, 9567500455, 1847502649, 32826052], "tags": {"cycleway:both": "no", "highway": "primary", "lanes": "5", "lanes:backward": "3", "lanes:forward": "2", "maxspeed": "40", "name": "Bay Street", "surface": "asphalt", "turn:lanes:forward": "none|right"}}, {"type": "way", "id": 34456651, "nodes": [32826052, 9567500457, 9567500456, 1847502648, 9567500736, 1880345820, 28375053], "tags": {"highway": "primary", "maxspeed": "40", "name": "Bay Street", "source:maxspeed": "sign", "surface": "asphalt"}}, {"type": "way", "id": 50875102, "nodes": [1827327053, 32829460], "tags": {"highway": "primary", "maxspeed": "60", "maxspeed:conditional": "40 @ (Mo-Fr 08:00-09:30,14:30-16:00; PH off; SH off)", "name": "Bay Street", "surface": "asphalt"}}, {"type": "way", "id": 93172865, "nodes": [3884405638, 1080127380, 11290567828, 15179260], "tags": {"highway": "trunk", "lanes": "3", "maxspeed": "60", "name": "The Grand Parade", "network": "AU:NSW", "old_network": "MR", "old_ref": "1", "oneway": "yes", "ref": "A1", "ref:start_date": "2013-08", "source": "nearmap", "surface": "asphalt"}}, {"type": "way", "id": 93172868, "nodes": [34507031, 11299580957, 15179256, 32826096, 15179254, 11299591709, 1827326738, 11299591708, 15179253, 1080120579, 15179252, 9567500974, 1827327099], "tags": {"highway": "trunk", "lanes": "3", "maxspeed": "60", "name": "General Holmes Drive", "network": "AU:NSW", "old_network": "MR", "old_ref": "1", "oneway": "yes", "ref": "A1", "ref:start_date": "2013-08", "surface": "asphalt"}}, {"type": "way", "id": 93172869, "nodes": [1080127368, 1080127369], "tags": {"highway": "trunk", "lanes": "3", "maxspeed": "60", "name": "The Grand Parade", "network": "AU:NSW", "old_network": "MR", "old_ref": "1", "oneway": "yes", "ref": "A1", "ref:start_date": "2013-08", "source": "nearmap", "surface": "asphalt"}}, {"type": "way", "id": 172476778, "nodes": [1833823379, 9567500461, 1121136670, 1836674213, 32829460], "tags": {"cycleway:both": "no", "highway": "primary", "lanes": "4", "maxspeed": "60", "name": "Bay Street", "surface": "asphalt"}}, {"type": "way", "id": 174864115, "nodes": [28375053, 1855149692, 9567500737, 1827327053], "tags": {"highway": "primary", "maxspeed": "60", "name": "Bay Street", "surface": "asphalt"}}, {"type": "way", "id": 205883111, "nodes": [1827327526, 9567500973, 34507056, 34507051, 1080120578, 34507049, 34507038, 34507037, 34507040, 34507036, 11299580955, 34507033, 11299580956, 34507031], "tags": {"highway": "trunk", "lanes": "3", "maxspeed": "60", "name": "General Holmes Drive", "network": "AU:NSW", "old_network": "MR", "old_ref": "1", "oneway": "yes", "ref": "A1", "ref:start_date": "2013-08", "source": "survey", "surface": "asphalt"}}, {"type": "way", "id": 364722609, "nodes": [1080127358, 1827327083, 9567500938, 34507031], "tags": {"highway": "trunk", "maxspeed": "60", "name": "The Grand Parade", "network": "AU:NSW", "old_network": "MR", "old_ref": "1", "ref": "A1", "ref:start_date": "2013-08", "source": "nearmap", "surface": "asphalt"}}, {"type": "way", "id": 385082451, "nodes": [1685276588, 3884405624], "tags": {"highway": "primary", "lanes": "4", "lanes:backward": "3", "lanes:forward": "1", "maxspeed": "40", "name": "Bay Street", "surface": "paved", "turn:lanes:backward": "left|left|right"}}, {"type": "way", "id": 385082453, "nodes": [3884405624, 7728348783, 3884405620], "tags": {"highway": "primary", "maxspeed": "40", "name": "Bay Street", "surface": "paved"}}, {"type": "way", "id": 385082454, "nodes": [1080127376, 15179260], "tags": {"highway": "primary", "maxspeed": "40", "name": "Bay Street", "surface": "asphalt"}}, {"type": "way", "id": 385082464, "nodes": [1080127358, 9567500695, 1080127362], "tags": {"highway": "trunk", "lanes": "4", "maxspeed": "60", "name": "The Grand Parade", "network": "AU:NSW", "old_network": "MR", "old_ref": "1", "oneway": "yes", "psv:lanes": "yes|no|no|no", "ref": "A1", "ref:start_date": "2013-08", "source": "nearmap", "surface": "asphalt", "turn:lanes": "none|none|none|right"}}, {"type": "way", "id": 577267293, "nodes": [15179260, 1080127383, 11290567833, 1685276585], "tags": {"highway": "trunk", "lanes": "3", "maxspeed": "60", "name": "The Grand Parade", "network": "AU:NSW", "old_network": "MR", "old_ref": "1", "oneway": "yes", "ref": "A1", "ref:start_date": "2013-08", "source": "nearmap", "surface": "asphalt"}}, {"type": "way", "id": 577267294, "nodes": [15179260, 11290567838, 11290567825, 1685276588], "tags": {"cycleway:both": "no", "highway": "primary", "maxspeed": "40", "name": "Bay Street", "surface": "asphalt"}}, {"type": "way", "id": 676949879, "nodes": [1080127342, 1080127358], "tags": {"highway": "trunk", "lanes": "3", "maxspeed": "60", "name": "The Grand Parade", "network": "AU:NSW", "old_network": "MR", "old_ref": "1", "oneway": "yes", "ref": "A1", "ref:start_date": "2013-08", "source": "nearmap", "surface": "asphalt"}}, {"type": "way", "id": 782519703, "nodes": [1685276585, 1080127345, 1080127342], "tags": {"highway": "trunk", "lanes": "3", "maxspeed": "60", "name": "The Grand Parade", "network": "AU:NSW", "old_network": "MR", "old_ref": "1", "oneway": "yes", "ref": "A1", "ref:start_date": "2013-08", "source": "nearmap", "surface": "asphalt"}}, {"type": "way", "id": 790206157, "nodes": [1833823374, 7387433473, 11245093934, 11245156540, 1833823379], "tags": {"cycleway:both": "no", "highway": "primary", "lanes": "5", "lanes:backward": "3", "lanes:forward": "2", "maxspeed": "50", "name": "Bay Street", "oneway": "no", "surface": "asphalt", "turn:lanes:backward": "||right"}}, {"type": "way", "id": 791428931, "nodes": [1080127362, 11290567824, 11290567834, 1080127376], "tags": {"highway": "trunk", "lanes": "4", "maxspeed": "60", "name": "The Grand Parade", "network": "AU:NSW", "old_network": "MR", "old_ref": "1", "oneway": "yes", "psv:lanes": "yes|no|no|no", "ref": "A1", "ref:start_date": "2013-08", "source": "nearmap", "surface": "asphalt", "turn:lanes": "none|none|none|right"}}, {"type": "way", "id": 791428932, "nodes": [1080127376, 11290567829, 4787616346], "tags": {"highway": "trunk", "lanes": "3", "maxspeed": "60", "name": "The Grand Parade", "network": "AU:NSW", "old_network": "MR", "old_ref": "1", "oneway": "yes", "ref": "A1", "ref:start_date": "2013-08", "source": "nearmap", "surface": "asphalt"}}, {"type": "way", "id": 791428933, "nodes": [4787616346, 11290618600, 11290618599, 1080127368], "tags": {"highway": "trunk", "lanes": "3", "maxspeed": "60", "name": "The Grand Parade", "network": "AU:NSW", "old_network": "MR", "old_ref": "1", "oneway": "yes", "ref": "A1", "ref:start_date": "2013-08", "source": "nearmap", "surface": "asphalt"}}, {"type": "way", "id": 791428934, "nodes": [15179261, 266741667, 11290618601, 11290618598, 32879066, 38768056, 3884405638], "tags": {"highway": "trunk", "lanes": "3", "maxspeed": "60", "name": "The Grand Parade", "network": "AU:NSW", "old_network": "MR", "old_ref": "1", "oneway": "yes", "ref": "A1", "ref:start_date": "2013-08", "source": "nearmap", "surface": "asphalt"}}]}