{"version": 0.6, "generator": "Overpass API 0.7.61.5 4133829e", "osm3s": {"timestamp_osm_base": "2023-12-06T11:14:47Z", "copyright": "The data included in this document is from www.openstreetmap.org. The data is made available under ODbL."}, "elements": [{"type": "node", "id": 133763977, "lat": -31.2661534, "lon": 149.2769111}, {"type": "node", "id": 133766712, "lat": -31.2767855, "lon": 149.2786219}, {"type": "node", "id": 422804842, "lat": -31.2694016, "lon": 149.2762061}, {"type": "node", "id": 423168276, "lat": -31.2734788, "lon": 149.2771214}, {"type": "node", "id": 423168277, "lat": -31.2733436, "lon": 149.2771923}, {"type": "node", "id": 423168278, "lat": -31.2734025, "lon": 149.2773379}, {"type": "node", "id": 423168281, "lat": -31.2735301, "lon": 149.2772765}, {"type": "node", "id": 1849560361, "lat": -31.2706878, "lon": 149.2761126}, {"type": "node", "id": 1849560485, "lat": -31.2702259, "lon": 149.2760698}, {"type": "node", "id": 1924557723, "lat": -31.2708507, "lon": 149.2761737, "tags": {"crossing:light": "no", "note": "has lights, but lights covered over at survey Jul 2014", "railway": "level_crossing"}}, {"type": "node", "id": 1941105202, "lat": -31.273445, "lon": 149.2771119}, {"type": "node", "id": 1941105203, "lat": -31.2734105, "lon": 149.2771164}, {"type": "node", "id": 1941105205, "lat": -31.2733826, "lon": 149.2771307}, {"type": "node", "id": 1941105207, "lat": -31.2733554, "lon": 149.277164}, {"type": "node", "id": 1941105210, "lat": -31.2733387, "lon": 149.2772325}, {"type": "node", "id": 1941105212, "lat": -31.2733459, "lon": 149.2772723}, {"type": "node", "id": 1941105213, "lat": -31.2733642, "lon": 149.2773069}, {"type": "node", "id": 1941105216, "lat": -31.2734366, "lon": 149.2773458}, {"type": "node", "id": 1941105217, "lat": -31.2734709, "lon": 149.2773396}, {"type": "node", "id": 1941105218, "lat": -31.2735014, "lon": 149.27732}, {"type": "node", "id": 1941105219, "lat": -31.2735386, "lon": 149.2772371}, {"type": "node", "id": 1941105220, "lat": -31.273535, "lon": 149.2771966}, {"type": "node", "id": 1941105226, "lat": -31.2735198, "lon": 149.27716}, {"type": "node", "id": 1941105227, "lat": -31.2734948, "lon": 149.2771317}, {"type": "node", "id": 1978847029, "lat": -31.2666327, "lon": 149.2767014}, {"type": "node", "id": 1978847031, "lat": -31.2669032, "lon": 149.2766458}, {"type": "node", "id": 1978847061, "lat": -31.2681233, "lon": 149.2764316}, {"type": "node", "id": 1978847064, "lat": -31.2693083, "lon": 149.2762228}, {"type": "node", "id": 2110405040, "lat": -31.2713807, "lon": 149.2763923}, {"type": "node", "id": 2110405041, "lat": -31.2718831, "lon": 149.2765996}, {"type": "node", "id": 2110405042, "lat": -31.2721015, "lon": 149.2767369}, {"type": "node", "id": 2110405043, "lat": -31.2721249, "lon": 149.276664}, {"type": "node", "id": 2110405044, "lat": -31.2722839, "lon": 149.2768182}, {"type": "node", "id": 2110405045, "lat": -31.272271, "lon": 149.2766995}, {"type": "node", "id": 2110405046, "lat": -31.2727414, "lon": 149.2770031}, {"type": "node", "id": 2110405047, "lat": -31.2728321, "lon": 149.2769378}, {"type": "node", "id": 2110405051, "lat": -31.2734497, "lon": 149.2773434}, {"type": "node", "id": 2110405052, "lat": -31.2735069, "lon": 149.2771453}, {"type": "node", "id": 2110405053, "lat": -31.2735072, "lon": 149.2773113}, {"type": "node", "id": 2110405054, "lat": -31.2735256, "lon": 149.2771739}, {"type": "node", "id": 2110405056, "lat": -31.2744109, "lon": 149.2776993}, {"type": "node", "id": 2110405057, "lat": -31.2744431, "lon": 149.2776023}, {"type": "node", "id": 2110405058, "lat": -31.2753946, "lon": 149.2781003}, {"type": "node", "id": 2110405059, "lat": -31.2754195, "lon": 149.2780005}, {"type": "node", "id": 2110405060, "lat": -31.2763793, "lon": 149.2785121}, {"type": "node", "id": 2110405061, "lat": -31.2764098, "lon": 149.278409}, {"type": "node", "id": 2110405062, "lat": -31.2766494, "lon": 149.2786253}, {"type": "node", "id": 2110405063, "lat": -31.2766766, "lon": 149.2785256}, {"type": "node", "id": 3006856371, "lat": -31.2675093, "lon": 149.2765388}, {"type": "node", "id": 4576684305, "lat": -31.2705535, "lon": 149.27608}, {"type": "node", "id": 4576684306, "lat": -31.2703779, "lon": 149.2760628}, {"type": "node", "id": 4576684307, "lat": -31.2664592, "lon": 149.2767498}, {"type": "node", "id": 4576684308, "lat": -31.2662953, "lon": 149.2768256}, {"type": "node", "id": 5836020533, "lat": -31.2722007, "lon": 149.2766843}, {"type": "node", "id": 6021550571, "lat": -31.2728054, "lon": 149.2770292}, {"type": "node", "id": 6021550572, "lat": -31.273327, "lon": 149.2771216}, {"type": "node", "id": 6021550573, "lat": -31.2732886, "lon": 149.277245}, {"type": "node", "id": 6021550574, "lat": -31.2732301, "lon": 149.2772021}, {"type": "node", "id": 6021550575, "lat": -31.2732617, "lon": 149.2771196}, {"type": "node", "id": 6021550576, "lat": -31.2727689, "lon": 149.2769108}, {"type": "node", "id": 6021550577, "lat": -31.2724319, "lon": 149.2768824}, {"type": "node", "id": 6021550578, "lat": -31.2724693, "lon": 149.2767838}, {"type": "node", "id": 6806956599, "lat": -31.2752842, "lon": 149.2779437, "tags": {"crossing": "uncontrolled", "crossing_ref": "zebra", "highway": "crossing"}}, {"type": "node", "id": 6806956600, "lat": -31.2752533, "lon": 149.2780457, "tags": {"crossing": "uncontrolled", "crossing_ref": "zebra", "highway": "crossing"}}, {"type": "node", "id": 6806956601, "lat": -31.2736703, "lon": 149.2772886}, {"type": "node", "id": 8282811834, "lat": -31.2673871, "lon": 149.2765605}, {"type": "node", "id": 9743618370, "lat": -31.2674804, "lon": 149.2765439}, {"type": "node", "id": 9871469770, "lat": -31.2732688, "lon": 149.2771198, "tags": {"highway": "crossing"}}, {"type": "node", "id": 9871469771, "lat": -31.2732458, "lon": 149.2772136, "tags": {"highway": "crossing"}}, {"type": "node", "id": 9871469772, "lat": -31.2736453, "lon": 149.2772688, "tags": {"highway": "crossing"}}, {"type": "node", "id": 9871469774, "lat": -31.2736207, "lon": 149.27736, "tags": {"highway": "crossing"}}, {"type": "node", "id": 9871470038, "lat": -31.2755126, "lon": 149.2781496, "tags": {"crossing": "unmarked", "highway": "crossing"}}, {"type": "node", "id": 9871470039, "lat": -31.2755438, "lon": 149.2780518, "tags": {"crossing": "unmarked", "highway": "crossing"}}, {"type": "node", "id": 9871470224, "lat": -31.2742289, "lon": 149.2775153, "tags": {"highway": "crossing"}}, {"type": "node", "id": 9871470225, "lat": -31.2742024, "lon": 149.2776098, "tags": {"highway": "crossing"}}, {"type": "node", "id": 9873562979, "lat": -31.2766322, "lon": 149.2785062}, {"type": "node", "id": 9873562993, "lat": -31.2766047, "lon": 149.2786066}, {"type": "way", "id": 36267580, "nodes": [2110405053, 423168281, 1941105219, 1941105220, 2110405054], "tags": {"highway": "trunk", "junction": "roundabout", "lanes": "1", "maxspeed": "50", "network": "AU:NSW", "ref": "A39", "surface": "asphalt"}}, {"type": "way", "id": 201083519, "nodes": [2110405056, 6806956600, 2110405058, 9871470038, 2110405060, 9873562993, 2110405062, 133766712], "tags": {"alt_name": "Newell Highway", "highway": "trunk", "lanes": "1", "maxspeed": "50", "maxwidth": "3", "name": "John Street", "network": "AU:NSW", "oneway": "yes", "ref": "A39", "source:alt_name": "LPI NSW Base Map", "surface": "asphalt"}}, {"type": "way", "id": 201083520, "nodes": [2110405059, 6806956599, 2110405057, 9871470224, 6806956601, 9871469772, 2110405054], "tags": {"alt_name": "Newell Highway", "highway": "trunk", "lanes": "1", "maxspeed": "50", "maxwidth": "3", "name": "John Street", "network": "AU:NSW", "oneway": "yes", "ref": "A39", "source": "survey;bing;AGRI;gps", "source:alt_name": "LPI NSW Base Map", "surface": "asphalt"}}, {"type": "way", "id": 201083521, "nodes": [2110405047, 6021550576, 6021550578, 2110405045, 5836020533, 2110405043, 2110405041], "tags": {"alt_name": "Newell Highway", "highway": "trunk", "lanes": "1", "maxspeed": "50", "name": "John Street", "network": "AU:NSW", "oneway": "yes", "ref": "A39", "source:alt_name": "LPI NSW Base Map", "source:geometry": "LPI NSW Imagery", "surface": "asphalt"}}, {"type": "way", "id": 201083522, "nodes": [2110405040, 2110405041], "tags": {"alt_name": "Newell Highway", "bridge": "yes", "bridge:name": "Mary Jane Cain Bridge", "highway": "trunk", "lanes": "2", "layer": "1", "maxspeed": "50", "name": "John Street", "network": "AU:NSW", "oneway": "no", "ref": "A39", "source": "survey", "source:name": "maps.six.nsw.gov.au", "surface": "asphalt", "wikidata": "Q27954391"}}, {"type": "way", "id": 296877947, "nodes": [2110405041, 2110405042, 2110405044, 6021550577, 2110405046, 6021550571, 6021550574, 9871469771, 6021550573, 1941105212], "tags": {"alt_name": "Newell Highway", "highway": "trunk", "lanes": "1", "maxspeed": "50", "name": "John Street", "network": "AU:NSW", "oneway": "yes", "ref": "A39", "source:alt_name": "LPI NSW Base Map", "source:geometry": "LPI NSW Imagery", "surface": "asphalt"}}, {"type": "way", "id": 296878059, "nodes": [133763977, 4576684308, 4576684307, 1978847029, 1978847031, 8282811834, 9743618370, 3006856371, 1978847061, 1978847064, 422804842, 1849560485, 4576684306, 4576684305, 1849560361, 1924557723, 2110405040], "tags": {"alt_name": "Newell Highway", "highway": "trunk", "lanes": "2", "maxspeed": "50", "name": "Chappell Avenue", "network": "AU:NSW", "oneway": "no", "ref": "A39", "source": "survey", "source:name": "NSW LPI Base Map", "source:name:date": "2016-03", "surface": "asphalt"}}, {"type": "way", "id": 721958211, "nodes": [2110405052, 1941105227, 423168276, 1941105202], "tags": {"highway": "trunk", "junction": "roundabout", "lanes": "1", "maxspeed": "50", "network": "AU:NSW", "ref": "A39", "surface": "asphalt"}}, {"type": "way", "id": 721958212, "nodes": [2110405054, 1941105226, 2110405052], "tags": {"highway": "trunk", "junction": "roundabout", "lanes": "1", "maxspeed": "50", "network": "AU:NSW", "ref": "A39", "surface": "asphalt"}}, {"type": "way", "id": 721958213, "nodes": [2110405053, 9871469774, 9871470225, 2110405056], "tags": {"alt_name": "Newell Highway", "highway": "trunk", "lanes": "1", "maxspeed": "50", "maxwidth": "3", "name": "John Street", "network": "AU:NSW", "oneway": "yes", "ref": "A39", "source:alt_name": "LPI NSW Base Map", "surface": "asphalt"}}, {"type": "way", "id": 721958214, "nodes": [2110405051, 1941105217, 1941105218, 2110405053], "tags": {"highway": "trunk", "junction": "roundabout", "lanes": "1", "maxspeed": "50", "network": "AU:NSW", "ref": "A39", "surface": "asphalt"}}, {"type": "way", "id": 721958215, "nodes": [1941105205, 1941105207, 423168277, 1941105210, 1941105212], "tags": {"highway": "trunk", "junction": "roundabout", "lanes": "1", "maxspeed": "50", "network": "AU:NSW", "ref": "A39", "surface": "asphalt"}}, {"type": "way", "id": 721958216, "nodes": [1941105202, 1941105203, 1941105205], "tags": {"highway": "trunk", "junction": "roundabout", "lanes": "1", "maxspeed": "50", "network": "AU:NSW", "ref": "A39", "surface": "asphalt"}}, {"type": "way", "id": 721958217, "nodes": [1941105205, 6021550572, 9871469770, 6021550575, 2110405047], "tags": {"alt_name": "Newell Highway", "highway": "trunk", "lanes": "1", "maxspeed": "50", "name": "John Street", "network": "AU:NSW", "oneway": "yes", "ref": "A39", "source:alt_name": "LPI NSW Base Map", "source:geometry": "LPI NSW Imagery", "surface": "asphalt"}}, {"type": "way", "id": 770722118, "nodes": [133766712, 2110405063, 9873562979, 2110405061, 9871470039, 2110405059], "tags": {"alt_name": "Newell Highway", "highway": "trunk", "lanes": "1", "maxspeed": "50", "maxwidth": "3", "name": "John Street", "network": "AU:NSW", "oneway": "yes", "ref": "A39", "source": "survey;bing;AGRI;gps", "source:alt_name": "LPI NSW Base Map", "surface": "asphalt"}}, {"type": "way", "id": 789972710, "nodes": [1941105213, 423168278, 1941105216, 2110405051], "tags": {"highway": "trunk", "junction": "roundabout", "lanes": "1", "maxspeed": "50", "network": "AU:NSW", "ref": "A39", "surface": "asphalt"}}, {"type": "way", "id": 789972711, "nodes": [1941105212, 1941105213], "tags": {"highway": "trunk", "junction": "roundabout", "lanes": "1", "maxspeed": "50", "network": "AU:NSW", "ref": "A39", "surface": "asphalt"}}]}