{"version": 0.6, "generator": "Overpass API 0.7.61.5 4133829e", "osm3s": {"timestamp_osm_base": "2023-12-06T11:31:06Z", "copyright": "The data included in this document is from www.openstreetmap.org. The data is made available under ODbL."}, "elements": [{"type": "node", "id": 7987186, "lat": -35.2662176, "lon": 149.1314212}, {"type": "node", "id": 14166530, "lat": -35.2604834, "lon": 149.1323523, "tags": {"highway": "traffic_signals", "traffic_signals": "traffic_lights", "traffic_signals:direction": "forward"}}, {"type": "node", "id": 14169938, "lat": -35.2661799, "lon": 149.1310252}, {"type": "node", "id": 14170401, "lat": -35.2604402, "lon": 149.1319442, "tags": {"highway": "traffic_signals", "traffic_signals": "traffic_lights", "traffic_signals:direction": "forward"}}, {"type": "node", "id": 26733798, "lat": -35.2689294, "lon": 149.1305782}, {"type": "node", "id": 26733844, "lat": -35.2703032, "lon": 149.1303574}, {"type": "node", "id": 644639979, "lat": -35.2549702, "lon": 149.1332375}, {"type": "node", "id": 644640055, "lat": -35.2560189, "lon": 149.1330691}, {"type": "node", "id": 659543336, "lat": -35.2608529, "lon": 149.1318784}, {"type": "node", "id": 659543339, "lat": -35.2609238, "lon": 149.1322816}, {"type": "node", "id": 659543340, "lat": -35.2602395, "lon": 149.1323914, "tags": {"highway": "motorway_junction", "noref": "yes"}}, {"type": "node", "id": 659543342, "lat": -35.2601055, "lon": 149.1319991}, {"type": "node", "id": 898998588, "lat": -35.2661283, "lon": 149.1310352}, {"type": "node", "id": 1201446627, "lat": -35.2589735, "lon": 149.1325947}, {"type": "node", "id": 1201446678, "lat": -35.2585282, "lon": 149.1326662}, {"type": "node", "id": 1832274616, "lat": -35.2605331, "lon": 149.1319305, "tags": {"highway": "traffic_signals", "source": "Bing", "traffic_signals": "traffic_lights", "traffic_signals:direction": "forward"}}, {"type": "node", "id": 1832274648, "lat": -35.265874, "lon": 149.1314761, "tags": {"highway": "motorway_junction", "noref": "yes"}}, {"type": "node", "id": 1832274699, "lat": -35.2666034, "lon": 149.1313596}, {"type": "node", "id": 1832274715, "lat": -35.2660156, "lon": 149.1310532}, {"type": "node", "id": 1832274726, "lat": -35.2665644, "lon": 149.1309671}, {"type": "node", "id": 1832274896, "lat": -35.2605762, "lon": 149.1323374, "tags": {"highway": "traffic_signals", "source": "Bing", "traffic_signals": "traffic_lights", "traffic_signals:direction": "forward"}}, {"type": "node", "id": 3423231602, "lat": -35.2544554, "lon": 149.1329255}, {"type": "node", "id": 3909017269, "lat": -35.2649133, "lon": 149.1312294}, {"type": "node", "id": 3909017273, "lat": -35.2614229, "lon": 149.1317873}, {"type": "node", "id": 4159927698, "lat": -35.2649162, "lon": 149.1316405}, {"type": "node", "id": 5188277986, "lat": -35.2615047, "lon": 149.1321883, "tags": {"bus": "yes", "gtfs_id": "4557", "name": "Northbourne Avenue after Macarthur Avenue", "network": "Transport Canberra", "public_transport": "stop_position", "ref": "4557"}}, {"type": "node", "id": 5188280021, "lat": -35.2613941, "lon": 149.1317919, "tags": {"bus": "yes", "gtfs_id": "4558", "name": "Northbourne Avenue before Macarthur Avenue", "network": "Transport Canberra", "public_transport": "stop_position", "ref": "4558"}}, {"type": "node", "id": 5188280049, "lat": -35.2680441, "lon": 149.1311292, "tags": {"bus": "yes", "gtfs_id": "4561", "name": "Northbourne Avenue Northbourne Flats", "network": "Transport Canberra", "public_transport": "stop_position", "ref": "4561"}}, {"type": "node", "id": 5188280057, "lat": -35.2576708, "lon": 149.1328039, "tags": {"bus": "yes", "gtfs_id": "4555", "name": "Northbourne Avenue The Pavilion", "network": "Transport Canberra", "public_transport": "stop_position", "ref": "4555"}}, {"type": "node", "id": 5188280083, "lat": -35.267669, "lon": 149.1307841, "tags": {"bus": "yes", "gtfs_id": "4562", "name": "Northbourne Avenue after Greenway Street", "network": "Transport Canberra", "public_transport": "stop_position", "ref": "4562"}}, {"type": "node", "id": 5188280090, "lat": -35.2577148, "lon": 149.1323911, "tags": {"bus": "yes", "gtfs_id": "4556", "name": "Northbourne Avenue Owen Flats", "network": "Transport Canberra", "public_transport": "stop_position", "ref": "4556"}}, {"type": "node", "id": 5188281089, "lat": -35.2552133, "lon": 149.1331984, "tags": {"bus": "yes", "gtfs_id": "4567", "name": "Northbourne Avenue after Morphett Street", "network": "Transport Canberra", "public_transport": "stop_position", "ref": "4567"}}, {"type": "node", "id": 5188282063, "lat": -35.265489, "lon": 149.1315398, "tags": {"bus": "yes", "gtfs_id": "4559", "name": "Northbourne Avenue Fenner Hall", "network": "Transport Canberra", "public_transport": "stop_position", "ref": "4559"}}, {"type": "node", "id": 5188282095, "lat": -35.2645733, "lon": 149.1312803, "tags": {"bus": "yes", "gtfs_id": "4560", "name": "Northbourne Avenue Condamine Court", "network": "Transport Canberra", "public_transport": "stop_position", "ref": "4560"}}, {"type": "node", "id": 6207152012, "lat": -35.2604583, "lon": 149.1321152, "tags": {"crossing:barrier": "no", "railway": "level_crossing"}}, {"type": "node", "id": 6207152019, "lat": -35.2607909, "lon": 149.1318885}, {"type": "node", "id": 6257780055, "lat": -35.2613527, "lon": 149.1317975}, {"type": "node", "id": 6257780056, "lat": -35.2597, "lon": 149.132478}, {"type": "node", "id": 6257780057, "lat": -35.2594336, "lon": 149.1325208}, {"type": "node", "id": 6257780058, "lat": -35.254341, "lon": 149.1329443}, {"type": "node", "id": 6259514578, "lat": -35.2662753, "lon": 149.131224, "tags": {"crossing:barrier": "no", "railway": "level_crossing"}}, {"type": "node", "id": 6259514584, "lat": -35.2662959, "lon": 149.1314109}, {"type": "node", "id": 6259515585, "lat": -35.2662521, "lon": 149.1310127}, {"type": "node", "id": 6259796350, "lat": -35.2699831, "lon": 149.1308138}, {"type": "node", "id": 6259796373, "lat": -35.2669544, "lon": 149.1309065}, {"type": "node", "id": 6280928964, "lat": -35.2654491, "lon": 149.1311437}, {"type": "node", "id": 6305033657, "lat": -35.2603917, "lon": 149.132367, "tags": {"button_operated": "yes", "crossing": "traffic_signals", "highway": "crossing", "tactile_paving": "yes", "traffic_signals:sound": "yes"}}, {"type": "node", "id": 6305033664, "lat": -35.2660049, "lon": 149.1310549}, {"type": "node", "id": 6335309199, "lat": -35.2603565, "lon": 149.1319579}, {"type": "node", "id": 6741494103, "lat": -35.2662, "lon": 149.1312361, "tags": {"crossing:barrier": "no", "railway": "level_crossing"}}, {"type": "node", "id": 6741494109, "lat": -35.2605546, "lon": 149.1321332, "tags": {"crossing:barrier": "no", "railway": "level_crossing"}}, {"type": "node", "id": 6741494111, "lat": -35.2604618, "lon": 149.1321483, "tags": {"crossing:barrier": "no", "railway": "level_crossing"}}, {"type": "node", "id": 6741494122, "lat": -35.2605512, "lon": 149.1321012, "tags": {"crossing:barrier": "no", "railway": "level_crossing"}}, {"type": "node", "id": 6741494124, "lat": -35.266196, "lon": 149.1311946, "tags": {"crossing:barrier": "no", "railway": "level_crossing"}}, {"type": "node", "id": 6741494127, "lat": -35.2662709, "lon": 149.1311835, "tags": {"crossing:barrier": "no", "railway": "level_crossing"}}, {"type": "node", "id": 7074268896, "lat": -35.2606641, "lon": 149.1319092, "tags": {"button_operated": "yes", "crossing": "traffic_signals", "highway": "crossing", "tactile_paving": "yes", "traffic_signals:sound": "yes", "traffic_signals:vibration": "yes"}}, {"type": "node", "id": 7074268898, "lat": -35.2606733, "lon": 149.1323218, "tags": {"button_operated": "yes", "crossing": "traffic_signals", "highway": "crossing", "tactile_paving": "yes", "traffic_signals:sound": "yes", "traffic_signals:vibration": "yes"}}, {"type": "node", "id": 7074268918, "lat": -35.263027, "lon": 149.1319438}, {"type": "node", "id": 7074268922, "lat": -35.2635602, "lon": 149.1318582}, {"type": "node", "id": 7074268928, "lat": -35.2612749, "lon": 149.1322252}, {"type": "node", "id": 7147682939, "lat": -35.2638702, "lon": 149.1313935, "tags": {"crossing": "unmarked", "highway": "crossing", "tactile_paving": "yes"}}, {"type": "node", "id": 7147682942, "lat": -35.263913, "lon": 149.1318016, "tags": {"crossing": "unmarked", "highway": "crossing", "tactile_paving": "yes"}}, {"type": "node", "id": 7176157460, "lat": -35.2701554, "lon": 149.130382, "tags": {"button_operated": "yes", "crossing": "traffic_signals", "highway": "crossing", "tactile_paving": "yes", "traffic_signals:sound": "yes", "traffic_signals:vibration": "yes"}}, {"type": "node", "id": 7176230766, "lat": -35.2687504, "lon": 149.1306112, "tags": {"crossing": "unmarked", "highway": "crossing", "tactile_paving": "no"}}, {"type": "node", "id": 7176230769, "lat": -35.2687951, "lon": 149.1310054, "tags": {"crossing": "unmarked", "highway": "crossing", "tactile_paving": "no"}}, {"type": "node", "id": 7176230779, "lat": -35.2677407, "lon": 149.1307723, "tags": {"crossing": "unmarked", "highway": "crossing", "tactile_paving": "no"}}, {"type": "node", "id": 7176230782, "lat": -35.267783, "lon": 149.1311706, "tags": {"crossing": "unmarked", "highway": "crossing", "tactile_paving": "yes"}}, {"type": "node", "id": 7176255506, "lat": -35.2663475, "lon": 149.1309961, "tags": {"button_operated": "yes", "crossing": "traffic_signals", "highway": "traffic_signals", "tactile_paving": "yes", "traffic_signals:sound": "yes"}}, {"type": "node", "id": 7176255507, "lat": -35.2660552, "lon": 149.1310469, "tags": {"button_operated": "yes", "crossing": "traffic_signals", "highway": "crossing", "tactile_paving": "yes", "traffic_signals:sound": "yes"}}, {"type": "node", "id": 7176255514, "lat": -35.2663619, "lon": 149.1313996, "tags": {"button_operated": "yes", "crossing": "traffic_signals", "highway": "crossing", "tactile_paving": "yes", "traffic_signals:sound": "yes"}}, {"type": "node", "id": 7176255515, "lat": -35.2661336, "lon": 149.1314342, "tags": {"button_operated": "yes", "crossing": "traffic_signals", "highway": "traffic_signals", "tactile_paving": "yes", "traffic_signals:sound": "yes"}}, {"type": "node", "id": 7176333651, "lat": -35.2622364, "lon": 149.1316564}, {"type": "node", "id": 7176333654, "lat": -35.2618421, "lon": 149.1317198}, {"type": "node", "id": 7176338586, "lat": -35.2603658, "lon": 149.1319564, "tags": {"button_operated": "yes", "crossing": "traffic_signals", "highway": "crossing", "tactile_paving": "yes", "traffic_signals:sound": "yes"}}, {"type": "node", "id": 7176338591, "lat": -35.2604303, "lon": 149.1323608, "tags": {"button_operated": "yes", "crossing": "traffic_signals", "highway": "crossing", "tactile_paving": "yes", "traffic_signals:sound": "yes", "traffic_signals:vibration": "yes"}}, {"type": "node", "id": 7176366204, "lat": -35.2582945, "lon": 149.1322961, "tags": {"crossing": "unmarked", "highway": "crossing"}}, {"type": "node", "id": 7176366207, "lat": -35.2583435, "lon": 149.1326959, "tags": {"crossing": "unmarked", "highway": "crossing"}}, {"type": "node", "id": 7176366218, "lat": -35.2564091, "lon": 149.1326052, "tags": {"crossing": "unmarked", "highway": "crossing"}}, {"type": "node", "id": 7176366221, "lat": -35.2564501, "lon": 149.1329999, "tags": {"crossing": "unmarked", "highway": "crossing"}}, {"type": "node", "id": 7176366232, "lat": -35.2549449, "lon": 149.1328452, "tags": {"crossing": "unmarked", "highway": "crossing"}}, {"type": "node", "id": 7176366235, "lat": -35.2549901, "lon": 149.1332343, "tags": {"crossing": "unmarked", "highway": "crossing"}}, {"type": "node", "id": 7371188282, "lat": -35.2595461, "lon": 149.1320908}, {"type": "node", "id": 7954323347, "lat": -35.2701215, "lon": 149.1303869}, {"type": "node", "id": 9374757979, "lat": -35.2637353, "lon": 149.1318301}, {"type": "node", "id": 9374757984, "lat": -35.2639749, "lon": 149.1317917}, {"type": "node", "id": 9936524195, "lat": -35.2628402, "lon": 149.1319738}, {"type": "node", "id": 9936524200, "lat": -35.2624396, "lon": 149.1320382}, {"type": "node", "id": 10042479127, "lat": -35.25878, "lon": 149.1322165}, {"type": "node", "id": 10042479130, "lat": -35.2580331, "lon": 149.1323389}, {"type": "node", "id": 10595421578, "lat": -35.2548623, "lon": 149.1332548}, {"type": "way", "id": 172311754, "nodes": [1832274896, 6741494109], "tags": {"foot": "no", "highway": "trunk", "lanes": "2", "lit": "yes", "maxspeed": "60", "name": "Macarthur Avenue", "oneway": "yes", "shoulder": "no", "sidewalk": "no", "source": "Bing", "surface": "asphalt"}}, {"type": "way", "id": 489193374, "nodes": [7987186, 6259514584], "tags": {"cycleway:left": "lane", "highway": "trunk", "lanes": "4", "maxspeed": "60", "name": "Northbourne Avenue", "network": "AU:ACT", "oneway": "yes", "rcn": "yes", "ref": "A23", "surface": "paved", "wikidata": "Q14935661"}}, {"type": "way", "id": 489703895, "nodes": [1832274726, 7176255506, 6259515585], "tags": {"cycleway:left": "lane", "foot": "no", "highway": "trunk", "lanes": "4", "lit": "yes", "maxspeed": "60", "name": "Northbourne Avenue", "network": "AU:ACT", "oneway": "yes", "rcn": "yes", "ref": "A23", "source:lanes": "ACTmapi Imagery 2018", "surface": "asphalt", "wikidata": "Q14935661"}}, {"type": "way", "id": 668235178, "nodes": [14170401, 6207152012], "tags": {"foot": "yes", "highway": "trunk", "lanes": "2", "lit": "yes", "maxspeed": "60", "name": "Macarthur Avenue", "oneway": "yes", "shoulder": "no", "sidewalk": "no", "surface": "asphalt"}}, {"type": "way", "id": 668243016, "nodes": [6207152019, 7074268896, 1832274616], "tags": {"cycleway:left": "lane", "foot": "no", "highway": "trunk", "lanes": "4", "lit": "yes", "maxspeed": "60", "name": "Northbourne Avenue", "network": "AU:ACT", "oneway": "yes", "rcn": "yes", "ref": "A23", "source:lanes": "ACTmapi Imagery 2018", "surface": "asphalt", "wikidata": "Q14935661"}}, {"type": "way", "id": 668243017, "nodes": [7371188282, 10042479127, 7176366204, 10042479130, 5188280090, 7176366218, 7176366232, 3423231602, 6257780058], "tags": {"cycleway:left": "lane", "foot": "no", "highway": "trunk", "lanes": "3", "lit": "yes", "maxspeed": "60", "name": "Northbourne Avenue", "network": "AU:ACT", "oneway": "yes", "rcn": "yes", "ref": "A23", "source:lanes": "ACTmapi Imagery 2018", "surface": "paved", "wikidata": "Q14935661"}}, {"type": "way", "id": 668243018, "nodes": [6257780055, 659543336], "tags": {"cycleway:left": "lane", "foot": "no", "highway": "trunk", "lanes": "4", "lit": "yes", "maxspeed": "60", "name": "Northbourne Avenue", "network": "AU:ACT", "oneway": "yes", "rcn": "yes", "ref": "A23", "source:lanes": "ACTmapi Imagery 2018", "surface": "paved", "turn:lanes": "|||right", "wikidata": "Q14935661"}}, {"type": "way", "id": 668243019, "nodes": [6257780056, 659543340], "tags": {"cycleway:left": "lane", "highway": "trunk", "lanes": "4", "lit": "yes", "maxspeed": "60", "name": "Northbourne Avenue", "network": "AU:ACT", "oneway": "yes", "rcn": "yes", "ref": "A23", "surface": "asphalt", "turn:lanes": "left|||right", "wikidata": "Q14935661"}}, {"type": "way", "id": 668243020, "nodes": [6257780057, 6257780056], "tags": {"cycleway:left": "lane", "highway": "trunk", "lanes": "3", "lit": "yes", "maxspeed": "60", "name": "Northbourne Avenue", "network": "AU:ACT", "oneway": "yes", "rcn": "yes", "ref": "A23", "surface": "paved", "turn:lanes": "||right", "wikidata": "Q14935661"}}, {"type": "way", "id": 668426935, "nodes": [14169938, 6741494124, 6741494103, 7987186], "tags": {"highway": "trunk", "lanes": "2", "maxspeed": "60", "name": "Ipima Street", "oneway": "yes", "source:geometry": "ACTmapi Imagery 2018", "source:lanes": "ACTmapi Imagery 2018", "source:maxspeed": "Mapillary", "source:oneway": "ACTmapi Imagery 2018", "surface": "paved"}}, {"type": "way", "id": 668426939, "nodes": [5188282063, 1832274648], "tags": {"cycleway:left": "lane", "highway": "trunk", "lanes": "4", "lit": "yes", "maxspeed": "60", "name": "Northbourne Avenue", "network": "AU:ACT", "oneway": "yes", "rcn": "yes", "ref": "A23", "source:lanes": "ACT mapi Imagery 2018", "surface": "paved", "turn:lanes": "|||right", "wikidata": "Q14935661"}}, {"type": "way", "id": 668426940, "nodes": [659543340, 6305033657, 7176338591], "tags": {"cycleway:left": "lane", "highway": "trunk", "lanes": "4", "lit": "yes", "maxspeed": "60", "name": "Northbourne Avenue", "network": "AU:ACT", "oneway": "yes", "rcn": "yes", "ref": "A23", "source:geometry": "ACT Imagery 2018", "surface": "asphalt", "wikidata": "Q14935661"}}, {"type": "way", "id": 668453297, "nodes": [6259796373, 1832274726], "tags": {"cycleway:left": "lane", "foot": "no", "highway": "trunk", "lanes": "4", "lit": "yes", "maxspeed": "60", "name": "Northbourne Avenue", "network": "AU:ACT", "oneway": "yes", "rcn": "yes", "ref": "A23", "source:lanes": "ACTmapi Imagery 2018", "surface": "paved", "turn:lanes": "|||right", "wikidata": "Q14935661"}}, {"type": "way", "id": 668453302, "nodes": [26733844, 7176157460, 7954323347, 26733798, 7176230766, 7176230779, 5188280083, 6259796373], "tags": {"cycleway:left": "lane", "foot": "no", "highway": "trunk", "lanes": "3", "lit": "yes", "maxspeed": "60", "name": "Northbourne Avenue", "network": "AU:ACT", "oneway": "yes", "rcn": "yes", "ref": "A23", "source:lanes": "ACTmapi Imagery 2018", "surface": "paved", "wikidata": "Q14935661"}}, {"type": "way", "id": 723508132, "nodes": [1832274616, 14170401], "tags": {"cycleway:left": "lane", "foot": "no", "highway": "trunk", "lanes": "4", "lit": "yes", "maxspeed": "60", "name": "Northbourne Avenue", "network": "AU:ACT", "oneway": "yes", "rcn": "yes", "ref": "A23", "source:lanes": "ACTmapi Imagery 2018", "surface": "paved", "wikidata": "Q14935661"}}, {"type": "way", "id": 737985431, "nodes": [1832274648, 7176255515], "tags": {"cycleway:left": "lane", "highway": "trunk", "lanes": "4", "maxspeed": "60", "name": "Northbourne Avenue", "network": "AU:ACT", "oneway": "yes", "rcn": "yes", "ref": "A23", "source:lanes": "ACT mapi Imagery 2018", "surface": "paved", "turn:lanes": "|||right", "wikidata": "Q14935661"}}, {"type": "way", "id": 788421802, "nodes": [7074268928, 5188277986, 9936524200, 9936524195, 7074268918, 7074268922, 9374757979, 7147682942, 9374757984, 4159927698, 5188282063], "tags": {"cycleway:left": "lane", "highway": "trunk", "lanes": "3", "lit": "yes", "maxspeed": "60", "name": "Northbourne Avenue", "network": "AU:ACT", "oneway": "yes", "rcn": "yes", "ref": "A23", "surface": "asphalt", "wikidata": "Q14935661"}}, {"type": "way", "id": 788421803, "nodes": [659543339, 7074268928], "tags": {"cycleway:left": "lane", "foot": "no", "highway": "trunk", "lanes": "3", "lit": "yes", "maxspeed": "60", "name": "Northbourne Avenue", "network": "AU:ACT", "oneway": "yes", "rcn": "yes", "ref": "A23", "sidewalk": "no", "surface": "paved", "wikidata": "Q14935661"}}, {"type": "way", "id": 788421805, "nodes": [659543342, 7371188282], "tags": {"cycleway:left": "lane", "foot": "no", "highway": "trunk", "lanes": "3", "lit": "yes", "maxspeed": "60", "name": "Northbourne Avenue", "network": "AU:ACT", "oneway": "yes", "rcn": "yes", "ref": "A23", "source:lanes": "ACTmapi Imagery 2018", "surface": "asphalt", "wikidata": "Q14935661"}}, {"type": "way", "id": 788421806, "nodes": [14170401, 7176338586, 6335309199, 659543342], "tags": {"cycleway:left": "lane", "foot": "no", "highway": "trunk", "lanes": "3", "lit": "yes", "maxspeed": "60", "name": "Northbourne Avenue", "network": "AU:ACT", "oneway": "yes", "rcn": "yes", "ref": "A23", "source:lanes": "ACTmapi Imagery 2018", "surface": "asphalt", "wikidata": "Q14935661"}}, {"type": "way", "id": 788424584, "nodes": [659543336, 6207152019], "tags": {"cycleway:left": "lane", "foot": "no", "highway": "trunk", "lanes": "4", "lit": "yes", "maxspeed": "60", "name": "Northbourne Avenue", "network": "AU:ACT", "oneway": "yes", "rcn": "yes", "ref": "A23", "source:lanes": "ACTmapi Imagery 2018", "surface": "paved", "turn:lanes": "|||right", "wikidata": "Q14935661"}}, {"type": "way", "id": 788425274, "nodes": [10595421578, 644639979, 7176366235, 5188281089, 644640055, 7176366221, 5188280057, 7176366207, 1201446678, 1201446627, 6257780057], "tags": {"cycleway:left": "lane", "highway": "trunk", "lanes": "3", "lit": "yes", "maxspeed": "60", "name": "Northbourne Avenue", "network": "AU:ACT", "oneway": "yes", "rcn": "yes", "ref": "A23", "surface": "paved", "wikidata": "Q14935661"}}, {"type": "way", "id": 1092780437, "nodes": [6259515585, 14169938], "tags": {"cycleway:left": "lane", "foot": "no", "highway": "trunk", "lanes": "4", "lit": "yes", "maxspeed": "60", "name": "Northbourne Avenue", "network": "AU:ACT", "oneway": "yes", "rcn": "yes", "ref": "A23", "source:lanes": "ACTmapi Imagery 2018", "surface": "asphalt", "wikidata": "Q14935661"}}, {"type": "way", "id": 1092780438, "nodes": [6259514584, 6259514578, 6741494127, 6259515585], "tags": {"highway": "trunk", "lanes": "2", "lit": "yes", "maxspeed": "60", "name": "Ipima Street", "oneway": "yes", "source:geometry": "ACTmapi Imagery 2018", "source:lanes": "ACTmapi Imagery 2018", "source:maxspeed": "Mapillary", "source:oneway": "ACTmapi Imagery 2018", "surface": "paved", "turn:lanes": "through;right|right"}}, {"type": "way", "id": 1092780442, "nodes": [14169938, 898998588, 7176255507, 1832274715, 6305033664, 6280928964, 3909017269, 5188282095, 7147682939, 7176333651, 7176333654, 3909017273, 5188280021, 6257780055], "tags": {"cycleway:left": "lane", "foot": "no", "highway": "trunk", "lanes": "3", "lit": "yes", "maxspeed": "60", "name": "Northbourne Avenue", "network": "AU:ACT", "oneway": "yes", "rcn": "yes", "ref": "A23", "source:lanes": "ACTmapi Imagery 2018", "surface": "asphalt", "wikidata": "Q14935661"}}, {"type": "way", "id": 1092780443, "nodes": [6259514584, 7176255514, 1832274699, 7176230782, 5188280049, 7176230769, 6259796350], "tags": {"cycleway:left": "lane", "highway": "trunk", "lanes": "3", "lit": "yes", "maxspeed": "60", "name": "Northbourne Avenue", "network": "AU:ACT", "oneway": "yes", "rcn": "yes", "ref": "A23", "surface": "paved", "wikidata": "Q14935661"}}, {"type": "way", "id": 1185639486, "nodes": [6207152012, 6741494111, 14166530], "tags": {"foot": "yes", "highway": "trunk", "lanes": "2", "lit": "yes", "maxspeed": "60", "name": "Macarthur Avenue", "oneway": "yes", "shoulder": "no", "sidewalk": "no", "surface": "asphalt"}}, {"type": "way", "id": 1185639487, "nodes": [14166530, 1832274896], "tags": {"cycleway:left": "lane", "highway": "trunk", "lanes": "4", "lit": "yes", "maxspeed": "60", "name": "Northbourne Avenue", "network": "AU:ACT", "oneway": "yes", "rcn": "yes", "ref": "A23", "source:geometry": "ACT Imagery 2018", "surface": "asphalt", "wikidata": "Q14935661"}}, {"type": "way", "id": 1185639488, "nodes": [6741494109, 6741494122, 1832274616], "tags": {"foot": "no", "highway": "trunk", "lanes": "2", "lit": "yes", "maxspeed": "60", "name": "Macarthur Avenue", "oneway": "yes", "shoulder": "no", "sidewalk": "no", "source": "Bing", "surface": "asphalt"}}, {"type": "way", "id": 1185639489, "nodes": [1832274896, 7074268898, 659543339], "tags": {"cycleway:left": "lane", "highway": "trunk", "lanes": "3", "lit": "yes", "maxspeed": "60", "name": "Northbourne Avenue", "network": "AU:ACT", "oneway": "yes", "rcn": "yes", "ref": "A23", "source:geometry": "ACT Imagery 2018", "surface": "asphalt", "wikidata": "Q14935661"}}, {"type": "way", "id": 1185639490, "nodes": [7176338591, 14166530], "tags": {"cycleway:left": "lane", "highway": "trunk", "lanes": "4", "lit": "yes", "maxspeed": "60", "name": "Northbourne Avenue", "network": "AU:ACT", "oneway": "yes", "rcn": "yes", "ref": "A23", "source:geometry": "ACT Imagery 2018", "surface": "asphalt", "wikidata": "Q14935661"}}, {"type": "way", "id": 1185849220, "nodes": [7176255515, 7987186], "tags": {"cycleway:left": "lane", "highway": "trunk", "lanes": "4", "maxspeed": "60", "name": "Northbourne Avenue", "network": "AU:ACT", "oneway": "yes", "rcn": "yes", "ref": "A23", "source:lanes": "ACT mapi Imagery 2018", "surface": "paved", "turn:lanes": "|||right", "wikidata": "Q14935661"}}]}