{"version": 0.6, "generator": "Overpass API 0.7.61.5 4133829e", "osm3s": {"timestamp_osm_base": "2023-12-08T07:41:05Z", "copyright": "The data included in this document is from www.openstreetmap.org. The data is made available under ODbL."}, "elements": [{"type": "node", "id": 25647180, "lat": -32.0371196, "lon": 115.7570716}, {"type": "node", "id": 25647182, "lat": -32.0377071, "lon": 115.7576438}, {"type": "node", "id": 25647193, "lat": -32.0372866, "lon": 115.7570275}, {"type": "node", "id": 25647195, "lat": -32.0377042, "lon": 115.7575239}, {"type": "node", "id": 25647227, "lat": -32.0390991, "lon": 115.7591963}, {"type": "node", "id": 25647232, "lat": -32.0410182, "lon": 115.761597, "tags": {"highway": "traffic_signals", "traffic_signals:direction": "forward"}}, {"type": "node", "id": 25647243, "lat": -32.0415635, "lon": 115.7601601}, {"type": "node", "id": 25647247, "lat": -32.0419061, "lon": 115.762624}, {"type": "node", "id": 31128157, "lat": -32.0409053, "lon": 115.7683637}, {"type": "node", "id": 31128158, "lat": -32.0407693, "lon": 115.7688938}, {"type": "node", "id": 60333675, "lat": -32.0425562, "lon": 115.7556978}, {"type": "node", "id": 106276523, "lat": -32.0409683, "lon": 115.7641895}, {"type": "node", "id": 304230238, "lat": -32.0419576, "lon": 115.7625481}, {"type": "node", "id": 304230240, "lat": -32.0424168, "lon": 115.7629849}, {"type": "node", "id": 304231358, "lat": -32.0410256, "lon": 115.761979}, {"type": "node", "id": 304231523, "lat": -32.0411272, "lon": 115.7621416}, {"type": "node", "id": 304231529, "lat": -32.0413913, "lon": 115.7620725}, {"type": "node", "id": 354074903, "lat": -32.04092, "lon": 115.768227}, {"type": "node", "id": 354075012, "lat": -32.040946, "lon": 115.7659385}, {"type": "node", "id": 354075803, "lat": -32.0409423, "lon": 115.7662833}, {"type": "node", "id": 354075808, "lat": -32.0409536, "lon": 115.7652866}, {"type": "node", "id": 354076012, "lat": -32.0419003, "lon": 115.7591104}, {"type": "node", "id": 354076469, "lat": -32.0409789, "lon": 115.7632425}, {"type": "node", "id": 354076564, "lat": -32.0424376, "lon": 115.7574499}, {"type": "node", "id": 354076639, "lat": -32.0426062, "lon": 115.7560916}, {"type": "node", "id": 357127213, "lat": -32.042289, "lon": 115.7628761}, {"type": "node", "id": 357127217, "lat": -32.0422904, "lon": 115.7629827}, {"type": "node", "id": 357127220, "lat": -32.0424191, "lon": 115.7630935}, {"type": "node", "id": 603703919, "lat": -32.040988, "lon": 115.7622402}, {"type": "node", "id": 617186676, "lat": -32.0414476, "lon": 115.7603107}, {"type": "node", "id": 687148768, "lat": -32.0430867, "lon": 115.7635196}, {"type": "node", "id": 687148769, "lat": -32.0437843, "lon": 115.7638365}, {"type": "node", "id": 687148770, "lat": -32.0441945, "lon": 115.7639627}, {"type": "node", "id": 687148771, "lat": -32.0450216, "lon": 115.7641195}, {"type": "node", "id": 687148772, "lat": -32.0456059, "lon": 115.7641731}, {"type": "node", "id": 687148805, "lat": -32.0459188, "lon": 115.7640701}, {"type": "node", "id": 687148806, "lat": -32.045157, "lon": 115.7640156}, {"type": "node", "id": 687148807, "lat": -32.0442563, "lon": 115.7638737}, {"type": "node", "id": 687148808, "lat": -32.0432816, "lon": 115.7635243}, {"type": "node", "id": 687148809, "lat": -32.0427421, "lon": 115.7632286}, {"type": "node", "id": 687148830, "lat": -32.0424909, "lon": 115.7565115}, {"type": "node", "id": 687148831, "lat": -32.0424019, "lon": 115.7572846}, {"type": "node", "id": 710599488, "lat": -32.0413063, "lon": 115.7617922, "tags": {"highway": "traffic_signals", "traffic_signals:direction": "forward"}}, {"type": "node", "id": 1836836980, "lat": -32.0410011, "lon": 115.7627614}, {"type": "node", "id": 1836844379, "lat": -32.0408539, "lon": 115.7613781}, {"type": "node", "id": 1836844395, "lat": -32.0410559, "lon": 115.7624646}, {"type": "node", "id": 1836844401, "lat": -32.0412119, "lon": 115.7612586}, {"type": "node", "id": 1836844404, "lat": -32.041332, "lon": 115.7611889}, {"type": "node", "id": 1836844405, "lat": -32.0415353, "lon": 115.7599802}, {"type": "node", "id": 1836844406, "lat": -32.0416396, "lon": 115.7596202}, {"type": "node", "id": 1836844408, "lat": -32.0417225, "lon": 115.7593717}, {"type": "node", "id": 1836844410, "lat": -32.0420082, "lon": 115.758555}, {"type": "node", "id": 1836844413, "lat": -32.0423126, "lon": 115.7576408}, {"type": "node", "id": 1836844414, "lat": -32.0424284, "lon": 115.7571365}, {"type": "node", "id": 1836844416, "lat": -32.0424545, "lon": 115.7569166}, {"type": "node", "id": 1836844418, "lat": -32.0424562, "lon": 115.7573638}, {"type": "node", "id": 1836844420, "lat": -32.0424926, "lon": 115.7571452}, {"type": "node", "id": 1836844422, "lat": -32.0425608, "lon": 115.7564807}, {"type": "node", "id": 1836844434, "lat": -32.0425776, "lon": 115.7555181}, {"type": "node", "id": 1838692770, "lat": -32.040931, "lon": 115.7672567}, {"type": "node", "id": 1838692771, "lat": -32.0409316, "lon": 115.767203}, {"type": "node", "id": 1838693127, "lat": -32.0409748, "lon": 115.7624369}, {"type": "node", "id": 2507983367, "lat": -32.0378303, "lon": 115.7576751}, {"type": "node", "id": 2583206845, "lat": -32.0414959, "lon": 115.7601288}, {"type": "node", "id": 2955389412, "lat": -32.0410597, "lon": 115.7618388}, {"type": "node", "id": 2955389413, "lat": -32.0411688, "lon": 115.7619592, "tags": {"highway": "traffic_signals", "traffic_signals:direction": "forward"}}, {"type": "node", "id": 2955389416, "lat": -32.0409126, "lon": 115.7613236}, {"type": "node", "id": 2955389417, "lat": -32.0412681, "lon": 115.7614927}, {"type": "node", "id": 2955389419, "lat": -32.0410738, "lon": 115.7615166}, {"type": "node", "id": 2955389421, "lat": -32.0412618, "lon": 115.7619154}, {"type": "node", "id": 2956934060, "lat": -32.046169, "lon": 115.7641994}, {"type": "node", "id": 2956934073, "lat": -32.0469609, "lon": 115.7640878}, {"type": "node", "id": 3022414624, "lat": -32.0361247, "lon": 115.7559675}, {"type": "node", "id": 3022417542, "lat": -32.0366266, "lon": 115.7565564}, {"type": "node", "id": 3022417552, "lat": -32.0379588, "lon": 115.7579319}, {"type": "node", "id": 3022417553, "lat": -32.0380033, "lon": 115.7578795}, {"type": "node", "id": 3022417557, "lat": -32.0406761, "lon": 115.7611581}, {"type": "node", "id": 3022417558, "lat": -32.0407275, "lon": 115.7610976}, {"type": "node", "id": 3022417559, "lat": -32.0410964, "lon": 115.7617005}, {"type": "node", "id": 3022417560, "lat": -32.0411283, "lon": 115.7615786}, {"type": "node", "id": 3022417561, "lat": -32.0411563, "lon": 115.7614666, "tags": {"highway": "traffic_signals", "traffic_signals:direction": "forward"}}, {"type": "node", "id": 3022417562, "lat": -32.0411495, "lon": 115.7614916, "tags": {"crossing": "traffic_signals", "highway": "crossing"}}, {"type": "node", "id": 3022417564, "lat": -32.0411937, "lon": 115.7618272}, {"type": "node", "id": 3022417565, "lat": -32.0412195, "lon": 115.7616903}, {"type": "node", "id": 3022417567, "lat": -32.0412466, "lon": 115.7615882, "tags": {"crossing": "traffic_signals", "highway": "crossing"}}, {"type": "node", "id": 3291643467, "lat": -32.0417115, "lon": 115.759659}, {"type": "node", "id": 4974320010, "lat": -32.0409647, "lon": 115.7642922}, {"type": "node", "id": 5221089547, "lat": -32.0413425, "lon": 115.7607484, "tags": {"bus": "yes", "public_transport": "stop_position"}}, {"type": "node", "id": 6244361370, "lat": -32.0422365, "lon": 115.7581084}, {"type": "node", "id": 6244361371, "lat": -32.0421607, "lon": 115.7581095}, {"type": "node", "id": 6244361382, "lat": -32.0421915, "lon": 115.7580165}, {"type": "node", "id": 6244361383, "lat": -32.0422663, "lon": 115.7580185}, {"type": "node", "id": 6246149458, "lat": -32.0409678, "lon": 115.764109}, {"type": "node", "id": 6278419551, "lat": -32.0406811, "lon": 115.7691991}, {"type": "node", "id": 6285580943, "lat": -32.0416152, "lon": 115.7621593}, {"type": "node", "id": 6285601381, "lat": -32.0407427, "lon": 115.7612354}, {"type": "node", "id": 6285601382, "lat": -32.0405174, "lon": 115.7609697}, {"type": "node", "id": 6285633910, "lat": -32.0422591, "lon": 115.7578078, "tags": {"bus": "yes", "public_transport": "stop_position"}}, {"type": "node", "id": 6300804083, "lat": -32.040967, "lon": 115.7640076, "tags": {"highway": "traffic_signals", "traffic_signals:direction": "backward"}}, {"type": "node", "id": 6300804084, "lat": -32.0409636, "lon": 115.7643114, "tags": {"highway": "traffic_signals", "traffic_signals:direction": "forward"}}, {"type": "node", "id": 6310789990, "lat": -32.0418228, "lon": 115.759085}, {"type": "node", "id": 6451446647, "lat": -32.041033, "lon": 115.7616162}, {"type": "node", "id": 7077553356, "lat": -32.0437649, "lon": 115.763723}, {"type": "node", "id": 7077553357, "lat": -32.0429976, "lon": 115.7633793}, {"type": "node", "id": 7077553360, "lat": -32.0428819, "lon": 115.7634021}, {"type": "node", "id": 7456193654, "lat": -32.0409953, "lon": 115.7629448}, {"type": "node", "id": 7458901073, "lat": -32.0421065, "lon": 115.762705}, {"type": "node", "id": 9635256629, "lat": -32.037455, "lon": 115.7573826}, {"type": "node", "id": 9774460528, "lat": -32.0423707, "lon": 115.7574235}, {"type": "node", "id": 10897762716, "lat": -32.0414005, "lon": 115.7608868, "tags": {"bus": "yes", "public_transport": "stop_position"}}, {"type": "node", "id": 10897762717, "lat": -32.0424072, "lon": 115.7575641, "tags": {"bus": "yes", "public_transport": "stop_position"}}, {"type": "node", "id": 10897762719, "lat": -32.042381, "lon": 115.7576625}, {"type": "node", "id": 10897838493, "lat": -32.0425209, "lon": 115.7631689}, {"type": "node", "id": 10897838495, "lat": -32.0425643, "lon": 115.7631014}, {"type": "node", "id": 10897838496, "lat": -32.0427044, "lon": 115.7632999}, {"type": "node", "id": 10897838497, "lat": -32.0426093, "lon": 115.7632343}, {"type": "node", "id": 10897838498, "lat": -32.0420905, "lon": 115.7628022}, {"type": "node", "id": 10897838500, "lat": -32.0426597, "lon": 115.7631714}, {"type": "node", "id": 11103547126, "lat": -32.0409791, "lon": 115.762338}, {"type": "node", "id": 11103547127, "lat": -32.0409714, "lon": 115.7626016}, {"type": "node", "id": 11103547128, "lat": -32.041041, "lon": 115.7625949}, {"type": "node", "id": 11103547134, "lat": -32.0410845, "lon": 115.762321}, {"type": "way", "id": 8067053, "nodes": [3022417553, 2507983367, 25647195, 25647193], "tags": {"highway": "trunk", "lanes": "2", "maxspeed": "60", "name": "Stirling Highway", "network": "AU:WA:S", "oneway": "yes", "ref": "5", "surface": "paved"}}, {"type": "way", "id": 31889384, "nodes": [357127217, 357127220], "tags": {"bridge": "yes", "highway": "trunk", "lanes": "2", "layer": "1", "maxspeed": "60", "name": "Stirling Highway", "network": "AU:WA:S", "oneway": "yes", "ref": "5", "surface": "paved"}}, {"type": "way", "id": 31889386, "nodes": [304230240, 357127213], "tags": {"bridge": "yes", "highway": "trunk", "lanes": "2", "layer": "1", "maxspeed": "60", "name": "Stirling Highway", "network": "AU:WA:S", "oneway": "yes", "ref": "5", "surface": "paved"}}, {"type": "way", "id": 54580979, "nodes": [357127220, 10897838493, 10897838497, 10897838496, 7077553360, 687148768, 687148769, 687148770, 687148771, 687148772, 2956934060], "tags": {"highway": "trunk", "lanes": "2", "maxspeed": "60", "name": "Stirling Highway", "network": "AU:WA:S", "oneway": "yes", "ref": "5", "surface": "asphalt"}}, {"type": "way", "id": 172835594, "nodes": [1836836980, 11103547128, 1836844395, 11103547134, 304231523], "tags": {"highway": "trunk", "lanes": "3", "maxspeed": "60", "name": "Canning Highway", "network": "AU:WA:S", "oneway": "yes", "ref": "6", "surface": "paved", "turn:lanes": "|through|"}}, {"type": "way", "id": 292026239, "nodes": [3022417558, 25647227, 3022417553], "tags": {"bridge": "yes", "highway": "trunk", "lanes": "2", "layer": "1", "maxspeed": "60", "name": "Stirling Highway", "network": "AU:WA:S", "oneway": "yes", "ref": "5", "surface": "paved"}}, {"type": "way", "id": 292026240, "nodes": [357127213, 7458901073, 304230238, 6285580943], "tags": {"highway": "trunk", "lanes": "2", "maxspeed": "60", "name": "Stirling Highway", "network": "AU:WA:S", "oneway": "yes", "ref": "5", "surface": "paved"}}, {"type": "way", "id": 298328297, "nodes": [354076564, 1836844418, 1836844420, 1836844422, 354076639], "tags": {"highway": "primary", "lanes": "2", "maxspeed": "60", "name": "Canning Highway", "network": "AU:WA:S", "oneway": "yes", "ref": "6", "surface": "asphalt"}}, {"type": "way", "id": 298328301, "nodes": [3022417564, 3022417565], "tags": {"highway": "trunk", "lanes": "3", "maxspeed": "60", "name": "Canning Highway", "network": "AU:WA:S", "oneway": "yes", "ref": "6", "surface": "paved", "turn:lanes": "|through|"}}, {"type": "way", "id": 298328303, "nodes": [3022417560, 3022417559], "tags": {"highway": "trunk", "lanes": "3", "maxspeed": "60", "name": "Canning Highway", "network": "AU:WA:S", "oneway": "yes", "ref": "6", "surface": "paved", "turn:lanes": "||right"}}, {"type": "way", "id": 298328305, "nodes": [3022417559, 2955389412, 304231358], "tags": {"highway": "trunk", "lanes": "1", "maxspeed": "60", "name": "Canning Highway", "network": "AU:WA:S", "oneway": "yes", "ref": "6", "surface": "paved"}}, {"type": "way", "id": 298328323, "nodes": [3022417565, 3022417560], "tags": {"highway": "trunk", "lanes": "3", "maxspeed": "60", "name": "Stirling Highway", "network": "AU:WA:S", "oneway": "yes", "ref": "5", "surface": "paved", "turn:lanes": "|through|right"}}, {"type": "way", "id": 298328325, "nodes": [3022417552, 6285601382], "tags": {"bridge": "yes", "highway": "trunk", "lanes": "2", "layer": "1", "maxspeed": "60", "name": "Stirling Highway", "network": "AU:WA:S", "oneway": "yes", "ref": "5", "surface": "paved"}}, {"type": "way", "id": 298328327, "nodes": [3022417559, 3022417564], "tags": {"highway": "trunk", "lanes": "2", "maxspeed": "60", "name": "Stirling Highway", "network": "AU:WA:S", "oneway": "yes", "ref": "5", "surface": "paved", "turn:lanes": "|through"}}, {"type": "way", "id": 298328330, "nodes": [3022417560, 2955389419, 2955389416], "tags": {"highway": "trunk", "lanes": "2", "maxspeed": "60", "name": "Stirling Highway", "network": "AU:WA:S", "oneway": "yes", "ref": "5", "surface": "paved"}}, {"type": "way", "id": 298328332, "nodes": [3022417564, 2955389421, 304231529], "tags": {"highway": "trunk", "lanes": "2", "maxspeed": "60", "name": "Stirling Highway", "network": "AU:WA:S", "oneway": "yes", "ref": "5", "surface": "paved"}}, {"type": "way", "id": 298328334, "nodes": [3022417557, 6285601381], "tags": {"highway": "trunk", "lanes": "2", "maxspeed": "60", "name": "Stirling Highway", "network": "AU:WA:S", "oneway": "yes", "ref": "5", "surface": "paved", "turn:lanes": "|through"}}, {"type": "way", "id": 298328336, "nodes": [3022414624, 3022417542, 25647180, 9635256629, 25647182, 3022417552], "tags": {"highway": "trunk", "lanes": "2", "maxspeed": "60", "name": "Stirling Highway", "network": "AU:WA:S", "oneway": "yes", "ref": "5", "surface": "paved"}}, {"type": "way", "id": 298337153, "nodes": [1836844434, 60333675, 687148830, 1836844416, 1836844414, 687148831, 9774460528, 1836844413, 6285633910], "tags": {"highway": "primary", "lanes": "2", "maxspeed": "60", "name": "Canning Highway", "network": "AU:WA:S", "oneway": "yes", "ref": "6", "surface": "paved"}}, {"type": "way", "id": 298579715, "nodes": [2956934073, 687148805, 687148806, 687148807, 7077553356, 687148808, 7077553357, 687148809, 10897838500, 10897838495, 304230240], "tags": {"highway": "trunk", "lanes": "2", "maxspeed": "60", "name": "Stirling Highway", "network": "AU:WA:S", "oneway": "yes", "ref": "5", "surface": "asphalt"}}, {"type": "way", "id": 319289816, "nodes": [2955389413, 3022417564], "tags": {"highway": "trunk", "lanes": "3", "maxspeed": "60", "name": "Canning Highway", "network": "AU:WA:S", "oneway": "yes", "ref": "6", "surface": "paved", "turn:lanes": "|through|"}}, {"type": "way", "id": 319289817, "nodes": [1836844401, 3022417561, 3022417562, 3022417560], "tags": {"destination": "Perth City;Rockingham", "destination:ref": "6", "highway": "primary", "lanes": "3", "maxspeed": "60", "name": "Canning Highway", "network": "AU:WA:S", "oneway": "yes", "ref": "6", "surface": "paved", "turn:lanes": "||right"}}, {"type": "way", "id": 319289818, "nodes": [603703919, 11103547126, 1838693127, 11103547127, 1836836980], "tags": {"highway": "trunk", "lanes": "2", "maxspeed": "60", "name": "Canning Highway", "network": "AU:WA:S", "oneway": "yes", "ref": "6", "surface": "paved"}}, {"type": "way", "id": 319289841, "nodes": [6285580943, 710599488, 3022417565], "tags": {"highway": "trunk", "lanes": "4", "maxspeed": "60", "name": "Stirling Highway", "network": "AU:WA:S", "oneway": "yes", "ref": "5", "surface": "paved", "turn:lanes": "left||through|right"}}, {"type": "way", "id": 319289843, "nodes": [1836844379, 25647232, 6451446647, 3022417559], "tags": {"highway": "trunk", "lanes": "2", "maxspeed": "60", "name": "Stirling Highway", "network": "AU:WA:S", "oneway": "yes", "ref": "5", "surface": "paved", "turn:lanes": "|through"}}, {"type": "way", "id": 319289848, "nodes": [304231529, 25647247], "tags": {"highway": "trunk", "lanes": "2", "maxspeed": "60", "name": "Stirling Highway", "network": "AU:WA:S", "oneway": "yes", "ref": "5", "surface": "paved"}}, {"type": "way", "id": 539589147, "nodes": [354076469, 7456193654, 1836836980], "tags": {"highway": "trunk", "lanes": "4", "lanes:backward": "2", "lanes:forward": "2", "maxspeed": "60", "name": "Canning Highway", "network": "AU:WA:S", "ref": "6", "surface": "paved", "traffic_signals:direction": "backward"}}, {"type": "way", "id": 568347622, "nodes": [1838692770, 1838692771], "tags": {"highway": "trunk", "lanes": "4", "lanes:backward": "2", "lanes:forward": "2", "maxspeed": "60", "name": "Canning Highway", "network": "AU:WA:S", "ref": "6", "surface": "paved"}}, {"type": "way", "id": 568347623, "nodes": [1838692771, 354075803, 354075012, 354075808, 6300804084, 4974320010, 106276523], "tags": {"highway": "trunk", "lanes": "4", "lanes:backward": "2", "lanes:forward": "2", "maxspeed": "60", "name": "Canning Highway", "network": "AU:WA:S", "ref": "6", "surface": "paved"}}, {"type": "way", "id": 569105055, "nodes": [6278419551, 31128158, 31128157, 354074903, 1838692770], "tags": {"highway": "trunk", "lanes": "4", "lanes:backward": "2", "lanes:forward": "2", "maxspeed": "60", "name": "Canning Highway", "network": "AU:WA:S", "ref": "6", "surface": "paved"}}, {"type": "way", "id": 671210349, "nodes": [6285601381, 1836844379], "tags": {"highway": "trunk", "lanes": "3", "maxspeed": "60", "name": "Stirling Highway", "network": "AU:WA:S", "oneway": "yes", "placement": "right_of:2", "ref": "5", "surface": "paved", "turn:lanes": "left||through"}}, {"type": "way", "id": 671210354, "nodes": [6285601382, 3022417557], "tags": {"bridge": "yes", "highway": "trunk", "lanes": "2", "layer": "1", "maxspeed": "60", "name": "Stirling Highway", "network": "AU:WA:S", "oneway": "yes", "ref": "5", "surface": "paved", "turn:lanes": "|through"}}, {"type": "way", "id": 671213283, "nodes": [304231523, 2955389413], "tags": {"highway": "trunk", "lanes": "3", "maxspeed": "60", "name": "Canning Highway", "network": "AU:WA:S", "oneway": "yes", "ref": "6", "surface": "paved", "turn:lanes": "|through|"}}, {"type": "way", "id": 671213286, "nodes": [6285633910, 6244361382], "tags": {"highway": "primary", "lanes": "3", "maxspeed": "60", "name": "Canning Highway", "network": "AU:WA:S", "oneway": "yes", "ref": "6", "surface": "paved"}}, {"type": "way", "id": 671213287, "nodes": [2583206845, 617186676, 5221089547, 1836844401], "tags": {"highway": "primary", "lanes": "2", "maxspeed": "60", "name": "Canning Highway", "network": "AU:WA:S", "oneway": "yes", "ref": "6", "surface": "paved"}}, {"type": "way", "id": 769429327, "nodes": [6244361382, 6244361371], "tags": {"highway": "primary", "lanes": "2", "maxspeed": "60", "name": "Canning Highway", "network": "AU:WA:S", "oneway": "yes", "ref": "6", "surface": "paved"}}, {"type": "way", "id": 775366916, "nodes": [2955389416, 3022417558], "tags": {"highway": "trunk", "lanes": "2", "maxspeed": "60", "name": "Stirling Highway", "network": "AU:WA:S", "oneway": "yes", "ref": "5", "surface": "paved"}}, {"type": "way", "id": 788368910, "nodes": [25647247, 10897838498, 357127217], "tags": {"highway": "trunk", "lanes": "2", "maxspeed": "60", "name": "Stirling Highway", "network": "AU:WA:S", "oneway": "yes", "ref": "5", "surface": "paved"}}, {"type": "way", "id": 788368911, "nodes": [6310789990, 1836844408, 1836844406, 1836844405, 2583206845], "tags": {"highway": "primary", "lanes": "2", "maxspeed": "60", "name": "Canning Highway", "network": "AU:WA:S", "oneway": "yes", "ref": "6", "surface": "paved"}}, {"type": "way", "id": 788373782, "nodes": [304231358, 603703919], "tags": {"highway": "trunk", "lanes": "2", "maxspeed": "60", "name": "Canning Highway", "network": "AU:WA:S", "oneway": "yes", "ref": "6", "surface": "paved"}}, {"type": "way", "id": 795143044, "nodes": [6244361371, 1836844410, 6310789990], "tags": {"highway": "primary", "lanes": "2", "maxspeed": "60", "name": "Canning Highway", "network": "AU:WA:S", "oneway": "yes", "ref": "6", "surface": "paved"}}, {"type": "way", "id": 797248188, "nodes": [106276523, 6246149458, 6300804083, 354076469], "tags": {"highway": "trunk", "lanes": "4", "lanes:backward": "2", "lanes:forward": "2", "maxspeed": "60", "name": "Canning Highway", "network": "AU:WA:S", "ref": "6", "surface": "paved", "traffic_signals:direction": "backward"}}, {"type": "way", "id": 797526094, "nodes": [3022417565, 3022417567, 2955389417, 1836844404], "tags": {"highway": "primary", "lanes": "2", "maxspeed": "60", "name": "Canning Highway", "network": "AU:WA:S", "oneway": "yes", "ref": "6", "surface": "asphalt"}}, {"type": "way", "id": 797901214, "nodes": [1836844404, 10897762716, 25647243, 3291643467, 354076012, 6244361370, 6244361383, 10897762719, 10897762717, 354076564], "tags": {"highway": "primary", "lanes": "2", "maxspeed": "60", "name": "Canning Highway", "network": "AU:WA:S", "oneway": "yes", "ref": "6", "surface": "asphalt"}}]}