{"version": 0.6, "generator": "Overpass API 0.7.61.5 4133829e", "osm3s": {"timestamp_osm_base": "2023-12-06T15:22:29Z", "copyright": "The data included in this document is from www.openstreetmap.org. The data is made available under ODbL."}, "elements": [{"type": "node", "id": 249338781, "lat": -33.4937674, "lon": 138.6024589}, {"type": "node", "id": 249338782, "lat": -33.4990334, "lon": 138.6076397}, {"type": "node", "id": 249338816, "lat": -33.503829, "lon": 138.6133263}, {"type": "node", "id": 271551127, "lat": -33.4925919, "lon": 138.6019979}, {"type": "node", "id": 271551135, "lat": -33.4946859, "lon": 138.602999}, {"type": "node", "id": 271551258, "lat": -33.4962439, "lon": 138.6047105}, {"type": "node", "id": 271551314, "lat": -33.4942223, "lon": 138.6026549}, {"type": "node", "id": 271551320, "lat": -33.4950444, "lon": 138.6033634}, {"type": "node", "id": 271551369, "lat": -33.4983653, "lon": 138.6069277}, {"type": "node", "id": 868419564, "lat": -33.5041079, "lon": 138.6138733}, {"type": "node", "id": 868419584, "lat": -33.503918, "lon": 138.6135557}, {"type": "node", "id": 1847925434, "lat": -33.50881, "lon": 138.60261}, {"type": "node", "id": 1847925450, "lat": -33.50925, "lon": 138.60241}, {"type": "node", "id": 1847925463, "lat": -33.509745, "lon": 138.6023284}, {"type": "node", "id": 1847925475, "lat": -33.5100886, "lon": 138.6022799}, {"type": "node", "id": 1847925579, "lat": -33.50595, "lon": 138.60425}, {"type": "node", "id": 1872283026, "lat": -33.5001682, "lon": 138.6070451}, {"type": "node", "id": 1872283030, "lat": -33.5016908, "lon": 138.60804}, {"type": "node", "id": 1872283032, "lat": -33.5021627, "lon": 138.6089994}, {"type": "node", "id": 1872283033, "lat": -33.5025652, "lon": 138.6099229}, {"type": "node", "id": 2157266745, "lat": -33.509461, "lon": 138.6023691}, {"type": "node", "id": 2162235871, "lat": -33.5023364, "lon": 138.6093038}, {"type": "node", "id": 2172679150, "lat": -33.4976576, "lon": 138.6062322}, {"type": "node", "id": 2172679203, "lat": -33.5031057, "lon": 138.611407}, {"type": "node", "id": 2172679257, "lat": -33.5011442, "lon": 138.6065483}, {"type": "node", "id": 2172679270, "lat": -33.4971345, "lon": 138.6056413}, {"type": "node", "id": 2172679271, "lat": -33.5027754, "lon": 138.6105065}, {"type": "node", "id": 5063657700, "lat": -33.5013699, "lon": 138.6064402}, {"type": "node", "id": 5063657701, "lat": -33.5012389, "lon": 138.6065057}, {"type": "node", "id": 5063657702, "lat": -33.5011682, "lon": 138.6066271, "tags": {"direction": "backward", "highway": "give_way"}}, {"type": "node", "id": 5063663542, "lat": -33.5019839, "lon": 138.6061032}, {"type": "node", "id": 5121833084, "lat": -33.4988869, "lon": 138.6074888}, {"type": "node", "id": 5294644307, "lat": -33.5039984, "lon": 138.6137078}, {"type": "node", "id": 6044096905, "lat": -33.5020226, "lon": 138.6087674}, {"type": "node", "id": 6044096906, "lat": -33.5018459, "lon": 138.60842}, {"type": "node", "id": 6609010738, "lat": -33.5093235, "lon": 138.6023958}, {"type": "node", "id": 9667091680, "lat": -33.5011247, "lon": 138.6065582}, {"type": "node", "id": 9667091683, "lat": -33.5001053, "lon": 138.6070781}, {"type": "node", "id": 9667091691, "lat": -33.4996282, "lon": 138.607328}, {"type": "node", "id": 9667091694, "lat": -33.4994341, "lon": 138.6074297}, {"type": "node", "id": 9667091713, "lat": -33.4981662, "lon": 138.6067407}, {"type": "way", "id": 23097848, "nodes": [2172679257, 5063657702, 1872283030, 6044096906, 6044096905, 1872283032, 2162235871], "tags": {"highway": "primary", "maxspeed": "50", "name": "Davies Terrace", "network": "AU:SA", "ref": "B64", "source": "survey", "source:geometry": "DigitalGlobe Standard Imagery", "source:name": "data.sa.gov.au", "surface": "asphalt"}}, {"type": "way", "id": 174041194, "nodes": [2172679257, 5063657701], "tags": {"highway": "primary", "maxspeed": "50", "name": "RM Williams Way", "network": "AU:SA", "ref": "B80", "source": "Bing", "surface": "asphalt"}}, {"type": "way", "id": 206220611, "nodes": [2162235871, 1872283033], "tags": {"bridge": "yes", "highway": "primary", "layer": "1", "maxspeed": "50", "name": "Davies Terrace", "network": "AU:SA", "ref": "B64", "source": "survey", "source:name": "data.sa.gov.au", "surface": "asphalt"}}, {"type": "way", "id": 519260877, "nodes": [249338782, 9667091694, 9667091691, 9667091683, 1872283026, 9667091680, 2172679257], "tags": {"highway": "primary", "maxspeed": "50", "name": "RM Williams Way", "network": "AU:SA;AU:SA", "ref": "B80;B64", "source": "survey", "surface": "asphalt"}}, {"type": "way", "id": 519261634, "nodes": [5063657700, 5063663542], "tags": {"highway": "primary", "maxspeed": "50", "name": "RM Williams Way", "network": "AU:SA", "ref": "B80", "source": "Bing", "surface": "asphalt"}}, {"type": "way", "id": 519261635, "nodes": [5063657701, 5063657700], "tags": {"bridge": "yes", "highway": "primary", "layer": "1", "maxspeed": "50", "name": "RM Williams Way", "network": "AU:SA", "ref": "B80", "source": "Bing", "surface": "asphalt"}}, {"type": "way", "id": 519261931, "nodes": [5063663542, 1847925579, 1847925434, 1847925450, 6609010738, 2157266745, 1847925463, 1847925475], "tags": {"highway": "primary", "maxspeed": "100", "name": "RM Williams Way", "network": "AU:SA", "ref": "B80", "source": "Bing", "surface": "asphalt"}}, {"type": "way", "id": 519268103, "nodes": [271551258, 2172679270, 2172679150, 9667091713, 271551369, 5121833084, 249338782], "tags": {"highway": "primary", "maxspeed": "50", "name": "RM Williams Way", "network": "AU:SA;AU:SA", "ref": "B80;B64", "source": "survey", "surface": "asphalt"}}, {"type": "way", "id": 519268104, "nodes": [271551127, 249338781, 271551314, 271551135, 271551320, 271551258], "tags": {"highway": "primary", "maxspeed": "80", "name": "RM Williams Way", "network": "AU:SA;AU:SA", "ref": "B80;B64", "source": "survey", "surface": "asphalt"}}, {"type": "way", "id": 641885157, "nodes": [2172679203, 249338816, 868419584, 5294644307, 868419564], "tags": {"highway": "primary", "maxspeed": "80", "name": "Davies Terrace", "network": "AU:SA", "ref": "B64", "source": "survey", "source:name": "data.sa.gov.au", "surface": "asphalt"}}, {"type": "way", "id": 798463672, "nodes": [1872283033, 2172679271, 2172679203], "tags": {"highway": "primary", "maxspeed": "50", "name": "Davies Terrace", "network": "AU:SA", "ref": "B64", "source": "survey", "source:name": "data.sa.gov.au", "surface": "asphalt"}}]}