{"version": 0.6, "generator": "Overpass API 0.7.61.5 4133829e", "osm3s": {"timestamp_osm_base": "2023-12-06T10:07:30Z", "copyright": "The data included in this document is from www.openstreetmap.org. The data is made available under ODbL."}, "elements": [{"type": "node", "id": 29754981, "lat": -33.8931091, "lon": 150.8905641}, {"type": "node", "id": 33037391, "lat": -33.8949277, "lon": 150.8911307}, {"type": "node", "id": 47787087, "lat": -33.8961646, "lon": 150.8925663, "tags": {"highway": "traffic_signals", "ref": "3278", "start_date": "1996-12-12"}}, {"type": "node", "id": 245562216, "lat": -33.8931479, "lon": 150.8890374}, {"type": "node", "id": 245562220, "lat": -33.8930149, "lon": 150.8899099}, {"type": "node", "id": 1836850012, "lat": -33.8941398, "lon": 150.8902052}, {"type": "node", "id": 1838192436, "lat": -33.8955373, "lon": 150.8918372}, {"type": "node", "id": 1838192438, "lat": -33.8968338, "lon": 150.8933592}, {"type": "node", "id": 1838192440, "lat": -33.8975508, "lon": 150.8940133}, {"type": "node", "id": 1838231218, "lat": -33.8940508, "lon": 150.897431, "tags": {"highway": "traffic_signals"}}, {"type": "node", "id": 1844369279, "lat": -33.892316, "lon": 150.8878141}, {"type": "node", "id": 1844369299, "lat": -33.8933, "lon": 150.8919452, "tags": {"highway": "traffic_signals", "ref": "2910", "start_date": "1994-01-28"}}, {"type": "node", "id": 1859270919, "lat": -33.8938559, "lon": 150.8959902}, {"type": "node", "id": 1976210479, "lat": -33.8929562, "lon": 150.8895491}, {"type": "node", "id": 1976210480, "lat": -33.8930182, "lon": 150.8891988, "tags": {"button_operated": "yes", "crossing": "traffic_signals", "highway": "crossing", "tactile_paving": "no", "traffic_signals:sound": "yes", "traffic_signals:vibration": "yes"}}, {"type": "node", "id": 1976210481, "lat": -33.8929557, "lon": 150.8894232}, {"type": "node", "id": 1977121201, "lat": -33.8932003, "lon": 150.8912252}, {"type": "node", "id": 1977121208, "lat": -33.8971692, "lon": 150.8936743}, {"type": "node", "id": 2330381288, "lat": -33.897706, "lon": 150.8941399}, {"type": "node", "id": 2409493038, "lat": -33.8929787, "lon": 150.8893115}, {"type": "node", "id": 2409493084, "lat": -33.892861, "lon": 150.8886689}, {"type": "node", "id": 2409493103, "lat": -33.8929545, "lon": 150.8887898}, {"type": "node", "id": 2409493252, "lat": -33.8927176, "lon": 150.8884653}, {"type": "node", "id": 2409493430, "lat": -33.8935259, "lon": 150.8894733}, {"type": "node", "id": 3761074994, "lat": -33.8943226, "lon": 150.8994483}, {"type": "node", "id": 4391058539, "lat": -33.8936358, "lon": 150.8943836}, {"type": "node", "id": 5532108198, "lat": -33.8929243, "lon": 150.8889167}, {"type": "node", "id": 5532108199, "lat": -33.8910105, "lon": 150.8857718}, {"type": "node", "id": 5532108200, "lat": -33.8911029, "lon": 150.8859769}, {"type": "node", "id": 5532108201, "lat": -33.892557, "lon": 150.888331}, {"type": "node", "id": 5532177427, "lat": -33.8922937, "lon": 150.8879089}, {"type": "node", "id": 5532177428, "lat": -33.8924013, "lon": 150.8880948}, {"type": "node", "id": 5830958064, "lat": -33.8933756, "lon": 150.8924847}, {"type": "node", "id": 5830958074, "lat": -33.893478, "lon": 150.8932319}, {"type": "node", "id": 6636514222, "lat": -33.893114, "lon": 150.8889909, "tags": {"button_operated": "yes", "crossing": "traffic_signals", "highway": "crossing", "tactile_paving": "no", "traffic_signals": "signal", "traffic_signals:sound": "yes", "traffic_signals:vibration": "yes"}}, {"type": "node", "id": 6636514223, "lat": -33.8932722, "lon": 150.8891756, "tags": {"button_operated": "yes", "crossing": "traffic_signals", "highway": "traffic_signals", "tactile_paving": "no", "traffic_signals": "signal", "traffic_signals:direction": "forward", "traffic_signals:sound": "yes", "traffic_signals:vibration": "yes"}}, {"type": "node", "id": 6745214462, "lat": -33.8926073, "lon": 150.8882873}, {"type": "node", "id": 6745214464, "lat": -33.8911637, "lon": 150.8858869}, {"type": "node", "id": 7543370635, "lat": -33.8940639, "lon": 150.8975425, "tags": {"button_operated": "yes", "crossing": "traffic_signals", "crossing:island": "no", "crossing:markings": "dashes", "highway": "crossing", "tactile_paving": "no", "traffic_signals:sound": "no", "traffic_signals:vibration": "yes"}}, {"type": "node", "id": 9969278054, "lat": -33.8966523, "lon": 150.8931183}, {"type": "node", "id": 9969278055, "lat": -33.8958481, "lon": 150.8922024}, {"type": "node", "id": 9969278056, "lat": -33.8933791, "lon": 150.8894802}, {"type": "node", "id": 9969278057, "lat": -33.89274, "lon": 150.8886351}, {"type": "node", "id": 9969278063, "lat": -33.8930327, "lon": 150.88906, "tags": {"button_operated": "yes", "crossing": "traffic_signals", "highway": "crossing", "tactile_paving": "no", "traffic_signals:sound": "yes", "traffic_signals:vibration": "yes"}}, {"type": "node", "id": 9969278064, "lat": -33.8930689, "lon": 150.889118}, {"type": "node", "id": 9969278065, "lat": -33.8931803, "lon": 150.8892471, "tags": {"button_operated": "yes", "crossing": "traffic_signals", "highway": "crossing", "kerb": "lowered", "tactile_paving": "no", "traffic_signals:sound": "yes", "traffic_signals:vibration": "yes"}}, {"type": "node", "id": 9969278066, "lat": -33.8936106, "lon": 150.8897433}, {"type": "node", "id": 9969278067, "lat": -33.8938331, "lon": 150.8900158}, {"type": "node", "id": 9969278068, "lat": -33.8940681, "lon": 150.8903051}, {"type": "node", "id": 9969278069, "lat": -33.894533, "lon": 150.8908484}, {"type": "node", "id": 9969278070, "lat": -33.894843, "lon": 150.8912156}, {"type": "node", "id": 9969278071, "lat": -33.8952308, "lon": 150.8916677}, {"type": "node", "id": 9969278072, "lat": -33.8957772, "lon": 150.8923039}, {"type": "node", "id": 9969278073, "lat": -33.8960842, "lon": 150.8926578}, {"type": "node", "id": 9969278074, "lat": -33.8963699, "lon": 150.8929772}, {"type": "node", "id": 9969278075, "lat": -33.8964727, "lon": 150.8930798}, {"type": "node", "id": 9969278076, "lat": -33.8966291, "lon": 150.8932249}, {"type": "node", "id": 9969278077, "lat": -33.8960891, "lon": 150.8926633, "tags": {"highway": "traffic_signals", "traffic_signals": "signal"}}, {"type": "node", "id": 9969278078, "lat": -33.891844, "lon": 150.8871793}, {"type": "node", "id": 9969278079, "lat": -33.8918831, "lon": 150.8870912}, {"type": "node", "id": 9969278086, "lat": -33.8933153, "lon": 150.8920637, "tags": {"button_operated": "yes", "crossing": "traffic_signals", "crossing:island": "no", "highway": "crossing", "tactile_paving": "no", "traffic_signals:sound": "yes", "traffic_signals:vibration": "yes"}}, {"type": "node", "id": 9969278096, "lat": -33.8930215, "lon": 150.8895682}, {"type": "node", "id": 9969278097, "lat": -33.893054, "lon": 150.8894036}, {"type": "node", "id": 9969278098, "lat": -33.8930782, "lon": 150.8893212}, {"type": "node", "id": 9969278099, "lat": -33.8930961, "lon": 150.8892618, "tags": {"button_operated": "yes", "crossing": "traffic_signals", "highway": "traffic_signals", "kerb": "lowered", "tactile_paving": "no", "traffic_signals:sound": "yes", "traffic_signals:vibration": "yes"}}, {"type": "node", "id": 9969278100, "lat": -33.8931151, "lon": 150.8891963}, {"type": "node", "id": 9969278101, "lat": -33.8931243, "lon": 150.8891823}, {"type": "node", "id": 9969278102, "lat": -33.8931958, "lon": 150.889092}, {"type": "node", "id": 10031487393, "lat": -33.8960748, "lon": 150.892463}, {"type": "node", "id": 10184832930, "lat": -33.8924895, "lon": 150.888098}, {"type": "node", "id": 10184832934, "lat": -33.8930149, "lon": 150.8890315, "tags": {"button_operated": "no", "crossing": "traffic_signals", "highway": "traffic_signals", "tactile_paving": "no", "traffic_signals": "traffic_lights", "traffic_signals:direction": "forward", "traffic_signals:sound": "yes", "traffic_signals:vibration": "yes"}}, {"type": "node", "id": 10689771054, "lat": -33.8930872, "lon": 150.8892915, "tags": {"highway": "traffic_signals", "traffic_signals": "signal", "traffic_signals:direction": "forward"}}, {"type": "node", "id": 10689771055, "lat": -33.8932514, "lon": 150.8891513, "tags": {"button_operated": "yes", "crossing": "traffic_signals", "highway": "crossing", "tactile_paving": "no", "traffic_signals:sound": "yes", "traffic_signals:vibration": "yes"}}, {"type": "node", "id": 10900992202, "lat": -33.8940342, "lon": 150.8973083, "tags": {"button_operated": "yes", "crossing": "traffic_signals", "crossing:island": "no", "highway": "crossing", "tactile_paving": "no", "traffic_signals:sound": "yes", "traffic_signals:vibration": "yes"}}, {"type": "way", "id": 22821887, "nodes": [9969278064, 1976210480, 2409493038, 1976210481, 1976210479, 245562220], "tags": {"cycleway:both": "no", "highway": "primary", "lanes": "1", "maxspeed": "60", "name": "Cabramatta Road West", "oneway": "yes", "surface": "asphalt"}}, {"type": "way", "id": 317768645, "nodes": [245562220, 29754981, 1977121201, 1844369299, 9969278086, 5830958064, 5830958074, 4391058539, 1859270919], "tags": {"cycleway:both": "no", "highway": "primary", "lanes": "4", "maxspeed": "60", "name": "Cabramatta Road", "shoulder": "no", "surface": "asphalt"}}, {"type": "way", "id": 317768649, "nodes": [245562216, 6636514222, 2409493103, 2409493084, 2409493252], "tags": {"cycleway:left": "lane", "highway": "primary", "lanes": "2", "maxspeed": "60", "name": "Elizabeth Drive", "oneway": "yes", "surface": "asphalt"}}, {"type": "way", "id": 333915606, "nodes": [33037391, 1836850012, 2409493430], "tags": {"cycleway:left": "lane", "highway": "primary", "lanes": "4", "maxspeed": "60", "name": "Elizabeth Drive", "oneway": "yes", "surface": "asphalt"}}, {"type": "way", "id": 372542941, "nodes": [1838192438, 9969278054, 47787087], "tags": {"highway": "primary", "lanes": "4", "maxheight": "5.3", "maxspeed": "60", "maxspeed:type": "sign", "name": "Elizabeth Drive", "oneway": "yes", "surface": "asphalt"}}, {"type": "way", "id": 569452514, "nodes": [1859270919, 10900992202, 1838231218], "tags": {"highway": "primary", "maxspeed": "60", "name": "Cabramatta Road", "surface": "paved"}}, {"type": "way", "id": 571088927, "nodes": [2409493252, 6745214462, 10184832930, 1844369279], "tags": {"cycleway:left": "lane", "highway": "primary", "lanes": "2", "lit": "yes", "maxspeed": "60", "name": "Elizabeth Drive", "oneway": "yes", "shoulder": "no", "surface": "asphalt"}}, {"type": "way", "id": 576906496, "nodes": [9969278079, 6745214464, 5532108199], "tags": {"cycleway:left": "lane", "highway": "primary", "lanes": "2", "maxspeed": "70", "name": "Elizabeth Drive", "oneway": "yes", "shoulder": "no", "surface": "asphalt"}}, {"type": "way", "id": 576906497, "nodes": [9969278101, 9969278065, 9969278056, 9969278066, 9969278067, 9969278068, 9969278069, 9969278070, 9969278071, 9969278072, 9969278073, 9969278077], "tags": {"cycleway:left": "no", "highway": "primary", "lanes": "2", "maxheight": "5.3", "maxspeed": "60", "name": "Elizabeth Drive", "oneway": "yes", "shoulder": "no", "surface": "asphalt"}}, {"type": "way", "id": 806674752, "nodes": [7543370635, 3761074994], "tags": {"cycleway:left": "separate", "cycleway:right": "no", "highway": "primary", "lanes": "4", "lit": "yes", "maxspeed": "60", "name": "Cabramatta Road", "shoulder": "no", "surface": "asphalt"}}, {"type": "way", "id": 806674754, "nodes": [1838231218, 7543370635], "tags": {"cycleway:both": "separate", "highway": "primary", "lanes": "4", "lit": "yes", "maxspeed": "60", "name": "Cabramatta Road", "shoulder": "no", "surface": "asphalt"}}, {"type": "way", "id": 1088076044, "nodes": [2330381288, 1838192440, 1977121208, 1838192438], "tags": {"highway": "primary", "lanes": "4", "maxheight": "5.3", "maxspeed": "60", "maxspeed:type": "sign", "name": "Elizabeth Drive", "oneway": "no", "surface": "asphalt"}}, {"type": "way", "id": 1088076045, "nodes": [9969278077, 9969278074, 9969278075, 9969278076, 1838192438], "tags": {"cycleway:left": "no", "highway": "primary", "lanes": "2", "maxspeed": "60", "name": "Elizabeth Drive", "oneway": "yes", "surface": "asphalt"}}, {"type": "way", "id": 1088076047, "nodes": [10031487393, 9969278055, 1838192436, 33037391], "tags": {"cycleway:left": "lane", "highway": "primary", "lanes": "4", "maxheight": "5.3", "maxspeed": "60", "maxspeed:type": "sign", "name": "Elizabeth Drive", "oneway": "yes", "surface": "asphalt"}}, {"type": "way", "id": 1088076048, "nodes": [5532108199, 5532108200, 9969278078], "tags": {"cycleway:left": "lane", "highway": "primary", "lanes": "2", "maxspeed": "70", "name": "Elizabeth Drive", "oneway": "yes", "shoulder": "no", "surface": "asphalt"}}, {"type": "way", "id": 1088076049, "nodes": [1844369279, 9969278079], "tags": {"cycleway:left": "lane", "highway": "primary", "lanes": "2", "maxspeed": "60", "name": "Elizabeth Drive", "oneway": "yes", "shoulder": "no", "surface": "asphalt"}}, {"type": "way", "id": 1088076062, "nodes": [245562220, 9969278096, 9969278097, 9969278098, 10689771054, 9969278099, 9969278100, 9969278101], "tags": {"highway": "primary", "lanes": "2", "maxspeed": "60", "maxspeed:type": "sign", "name": "Cabramatta Road West", "oneway": "yes", "surface": "asphalt"}}, {"type": "way", "id": 1095375806, "nodes": [9969278078, 5532177427, 5532177428, 5532108201, 9969278057], "tags": {"cycleway:left": "lane", "highway": "primary", "lanes": "2", "maxheight": "5.3", "maxspeed": "60", "name": "Elizabeth Drive", "oneway": "yes", "shoulder": "no", "surface": "asphalt"}}, {"type": "way", "id": 1095375807, "nodes": [47787087, 10031487393], "tags": {"highway": "primary", "lanes": "4", "maxheight": "5.3", "maxspeed": "60", "maxspeed:type": "sign", "name": "Elizabeth Drive", "oneway": "yes", "surface": "asphalt"}}, {"type": "way", "id": 1097460476, "nodes": [9969278101, 9969278102], "tags": {"highway": "primary", "lanes": "1", "name": "Cabramatta Road West", "oneway": "yes", "surface": "asphalt"}}, {"type": "way", "id": 1097460477, "nodes": [245562216, 9969278064], "tags": {"cycleway:both": "no", "highway": "primary", "lanes": "1", "maxspeed": "60", "name": "Cabramatta Road West", "oneway": "yes", "surface": "asphalt"}}, {"type": "way", "id": 1097460478, "nodes": [9969278064, 9969278101], "tags": {"cycleway:left": "no", "highway": "primary", "lanes": "2", "maxheight": "5.3", "maxspeed": "60", "name": "Elizabeth Drive", "oneway": "yes", "shoulder": "no", "surface": "asphalt"}}, {"type": "way", "id": 1097460479, "nodes": [9969278057, 5532108198, 10184832934, 9969278063, 9969278064], "tags": {"cycleway:left": "no", "highway": "primary", "lanes": "2", "maxheight": "5.3", "maxspeed": "60", "name": "Elizabeth Drive", "oneway": "yes", "shoulder": "no", "surface": "asphalt"}}, {"type": "way", "id": 1097460480, "nodes": [9969278102, 245562216], "tags": {"cycleway:left": "lane", "highway": "primary", "lanes": "2", "maxspeed": "60", "name": "Elizabeth Drive", "oneway": "yes", "surface": "asphalt"}}, {"type": "way", "id": 1097460481, "nodes": [2409493430, 6636514223, 10689771055, 9969278102], "tags": {"cycleway:left": "lane", "highway": "primary", "lanes": "2", "maxspeed": "60", "name": "Elizabeth Drive", "oneway": "yes", "surface": "asphalt"}}]}