{"version": 0.6, "generator": "Overpass API 0.7.61.5 4133829e", "osm3s": {"timestamp_osm_base": "2023-12-06T09:21:30Z", "copyright": "The data included in this document is from www.openstreetmap.org. The data is made available under ODbL."}, "elements": [{"type": "node", "id": 15181783, "lat": -33.952997, "lon": 151.1357149}, {"type": "node", "id": 15181787, "lat": -33.9527642, "lon": 151.135758, "tags": {"highway": "traffic_signals"}}, {"type": "node", "id": 26638125, "lat": -33.9482016, "lon": 151.1278563, "tags": {"highway": "traffic_signals", "ref": "0145", "start_date": "1957-05-13"}}, {"type": "node", "id": 29058770, "lat": -33.9528875, "lon": 151.1375406, "tags": {"highway": "traffic_signals"}}, {"type": "node", "id": 31444202, "lat": -33.9549373, "lon": 151.1423903}, {"type": "node", "id": 32664493, "lat": -33.949164, "lon": 151.128706}, {"type": "node", "id": 120726946, "lat": -33.9526695, "lon": 151.1356726}, {"type": "node", "id": 243973349, "lat": -33.9485893, "lon": 151.1282135}, {"type": "node", "id": 250783173, "lat": -33.9525464, "lon": 151.1353682}, {"type": "node", "id": 607281934, "lat": -33.9528321, "lon": 151.1357629, "tags": {"crossing": "traffic_signals", "highway": "crossing", "source": "survey"}}, {"type": "node", "id": 651272667, "lat": -33.9519179, "lon": 151.1337085, "tags": {"highway": "crossing"}}, {"type": "node", "id": 683212101, "lat": -33.9483509, "lon": 151.1280004, "tags": {"highway": "traffic_signals", "traffic_signals": "signal", "traffic_signals:direction": "backward"}}, {"type": "node", "id": 961085924, "lat": -33.9528843, "lon": 151.1357596}, {"type": "node", "id": 1055956351, "lat": -33.9568216, "lon": 151.137837}, {"type": "node", "id": 1150801708, "lat": -33.9526465, "lon": 151.1356294}, {"type": "node", "id": 1150801739, "lat": -33.9530836, "lon": 151.135694}, {"type": "node", "id": 1685276578, "lat": -33.9492386, "lon": 151.1394777}, {"type": "node", "id": 1685281551, "lat": -33.9453551, "lon": 151.1416021}, {"type": "node", "id": 1685281554, "lat": -33.9463142, "lon": 151.1410933}, {"type": "node", "id": 1685281557, "lat": -33.9476217, "lon": 151.1404054}, {"type": "node", "id": 1685281559, "lat": -33.9480464, "lon": 151.140195}, {"type": "node", "id": 1685281560, "lat": -33.9484171, "lon": 151.140005, "tags": {"highway": "traffic_signals"}}, {"type": "node", "id": 1685281561, "lat": -33.9487953, "lon": 151.1398112}, {"type": "node", "id": 1685281562, "lat": -33.9493696, "lon": 151.1395029}, {"type": "node", "id": 1685281564, "lat": -33.9494781, "lon": 151.1394446}, {"type": "node", "id": 1685281565, "lat": -33.9503512, "lon": 151.1389915}, {"type": "node", "id": 1685281566, "lat": -33.9510482, "lon": 151.1386061}, {"type": "node", "id": 1685281567, "lat": -33.951553, "lon": 151.1383143, "tags": {"highway": "traffic_signals", "ref": "971", "start_date": "1973-07-02"}}, {"type": "node", "id": 1685281569, "lat": -33.952144, "lon": 151.1379985, "tags": {"crossing": "yes", "highway": "traffic_signals"}}, {"type": "node", "id": 1685281570, "lat": -33.9523449, "lon": 151.1379003}, {"type": "node", "id": 1685281571, "lat": -33.9527818, "lon": 151.1376697, "tags": {"highway": "crossing"}}, {"type": "node", "id": 1685281572, "lat": -33.952894, "lon": 151.1376368, "tags": {"highway": "traffic_signals"}}, {"type": "node", "id": 1685281573, "lat": -33.9529928, "lon": 151.1376113, "tags": {"highway": "traffic_signals"}}, {"type": "node", "id": 1685281575, "lat": -33.9530754, "lon": 151.1375954, "tags": {"highway": "crossing"}}, {"type": "node", "id": 1685281577, "lat": -33.9532724, "lon": 151.1375694}, {"type": "node", "id": 1685281579, "lat": -33.954028, "lon": 151.1376173}, {"type": "node", "id": 1685281581, "lat": -33.9552079, "lon": 151.1377146, "tags": {"highway": "traffic_signals"}}, {"type": "node", "id": 1685281585, "lat": -33.9570646, "lon": 151.1378631}, {"type": "node", "id": 1685281913, "lat": -33.945471, "lon": 151.1414536}, {"type": "node", "id": 1685281914, "lat": -33.9461406, "lon": 151.1410861}, {"type": "node", "id": 1685281917, "lat": -33.9481503, "lon": 151.140044}, {"type": "node", "id": 1685281918, "lat": -33.9488079, "lon": 151.1396963}, {"type": "node", "id": 1685281919, "lat": -33.9498148, "lon": 151.1391834}, {"type": "node", "id": 1685281921, "lat": -33.951522, "lon": 151.1382309, "tags": {"highway": "traffic_signals", "ref": "971", "start_date": "1973-07-02"}}, {"type": "node", "id": 1685281922, "lat": -33.9521135, "lon": 151.137918, "tags": {"crossing": "yes", "highway": "traffic_signals"}}, {"type": "node", "id": 1685281923, "lat": -33.9526359, "lon": 151.1376439}, {"type": "node", "id": 1685281924, "lat": -33.9532042, "lon": 151.1374746}, {"type": "node", "id": 1685281926, "lat": -33.9552165, "lon": 151.1376125, "tags": {"highway": "traffic_signals"}}, {"type": "node", "id": 1685290124, "lat": -33.9529807, "lon": 151.1375108, "tags": {"highway": "traffic_signals"}}, {"type": "node", "id": 1685290125, "lat": -33.9533627, "lon": 151.1374685}, {"type": "node", "id": 1685290127, "lat": -33.9570706, "lon": 151.1377639}, {"type": "node", "id": 1827327215, "lat": -33.9518722, "lon": 151.1335746, "tags": {"highway": "traffic_signals", "traffic_signals": "signal"}}, {"type": "node", "id": 1827905452, "lat": -33.9536331, "lon": 151.1393724}, {"type": "node", "id": 1827905463, "lat": -33.9546723, "lon": 151.1417746}, {"type": "node", "id": 1827905467, "lat": -33.9558745, "lon": 151.1444907}, {"type": "node", "id": 1833823333, "lat": -33.9553741, "lon": 151.1433986}, {"type": "node", "id": 1833823334, "lat": -33.9532644, "lon": 151.1357519}, {"type": "node", "id": 1833823337, "lat": -33.9531495, "lon": 151.1382575}, {"type": "node", "id": 1833823338, "lat": -33.9529468, "lon": 151.1378474}, {"type": "node", "id": 1833823342, "lat": -33.9533029, "lon": 151.1357859}, {"type": "node", "id": 1833823346, "lat": -33.9530452, "lon": 151.1380735}, {"type": "node", "id": 1833823353, "lat": -33.9552646, "lon": 151.1431485}, {"type": "node", "id": 1833823368, "lat": -33.9531709, "lon": 151.1369481}, {"type": "node", "id": 1833823369, "lat": -33.953025, "lon": 151.1369686}, {"type": "node", "id": 1833823370, "lat": -33.9535122, "lon": 151.1363185}, {"type": "node", "id": 1833823372, "lat": -33.9533432, "lon": 151.1367913}, {"type": "node", "id": 1833823376, "lat": -33.9529326, "lon": 151.1371405}, {"type": "node", "id": 1833823380, "lat": -33.9535153, "lon": 151.1364498}, {"type": "node", "id": 1833823381, "lat": -33.9528895, "lon": 151.1373546, "tags": {"highway": "crossing"}}, {"type": "node", "id": 1833823390, "lat": -33.9529795, "lon": 151.1373815, "tags": {"highway": "crossing"}}, {"type": "node", "id": 1833823392, "lat": -33.9534567, "lon": 151.1366264}, {"type": "node", "id": 1833823395, "lat": -33.9534993, "lon": 151.1362606}, {"type": "node", "id": 1833823401, "lat": -33.9530585, "lon": 151.1371044}, {"type": "node", "id": 1833823420, "lat": -33.9531301, "lon": 151.1356966}, {"type": "node", "id": 1833823425, "lat": -33.9533511, "lon": 151.1367113}, {"type": "node", "id": 1833823429, "lat": -33.9531293, "lon": 151.1368691}, {"type": "node", "id": 1833823430, "lat": -33.9530166, "lon": 151.1377194, "tags": {"highway": "crossing"}}, {"type": "node", "id": 1833823431, "lat": -33.9532616, "lon": 151.1368611}, {"type": "node", "id": 1833823434, "lat": -33.9563, "lon": 151.1454604}, {"type": "node", "id": 1833823440, "lat": -33.9536818, "lon": 151.1394823, "tags": {"highway": "traffic_signals", "ref": "3014", "start_date": "1997-09-03"}}, {"type": "node", "id": 1838598554, "lat": -33.9528234, "lon": 151.1318651, "tags": {"highway": "traffic_signals", "traffic_signals": "signal"}}, {"type": "node", "id": 1847442761, "lat": -33.9501778, "lon": 151.1295781}, {"type": "node", "id": 1847442810, "lat": -33.9512053, "lon": 151.1304621}, {"type": "node", "id": 1847442913, "lat": -33.9522938, "lon": 151.1313984}, {"type": "node", "id": 1847442915, "lat": -33.9522656, "lon": 151.1328705}, {"type": "node", "id": 1847442918, "lat": -33.9523546, "lon": 151.1348678}, {"type": "node", "id": 1847460404, "lat": -33.9502782, "lon": 151.1296645}, {"type": "node", "id": 1847460415, "lat": -33.9507195, "lon": 151.1300441}, {"type": "node", "id": 1847460441, "lat": -33.9517708, "lon": 151.1309485}, {"type": "node", "id": 1847460449, "lat": -33.9519237, "lon": 151.1334806, "tags": {"highway": "traffic_signals", "traffic_signals": "signal"}}, {"type": "node", "id": 1847494501, "lat": -33.9529961, "lon": 151.137975}, {"type": "node", "id": 1847494586, "lat": -33.9549698, "lon": 151.1375962}, {"type": "node", "id": 1847494599, "lat": -33.9558395, "lon": 151.1444171}, {"type": "node", "id": 1847494600, "lat": -33.9559173, "lon": 151.1376659}, {"type": "node", "id": 1989365313, "lat": -33.953096, "lon": 151.1380387}, {"type": "node", "id": 1996137680, "lat": -33.9533882, "lon": 151.135921}, {"type": "node", "id": 1999731225, "lat": -33.9473989, "lon": 151.1404183}, {"type": "node", "id": 2000504790, "lat": -33.9469257, "lon": 151.1406711}, {"type": "node", "id": 2000504793, "lat": -33.9448341, "lon": 151.1417771}, {"type": "node", "id": 2008054913, "lat": -33.9483913, "lon": 151.1399166, "tags": {"highway": "traffic_signals"}}, {"type": "node", "id": 2310711942, "lat": -33.948281, "lon": 151.1399765}, {"type": "node", "id": 2397914035, "lat": -33.9507394, "lon": 151.1387754, "tags": {"highway": "traffic_signals", "ref": "970", "start_date": "1973-06-23"}}, {"type": "node", "id": 2455454503, "lat": -33.9522047, "lon": 151.1378687, "tags": {"crossing": "traffic_signals", "highway": "crossing"}}, {"type": "node", "id": 4013727210, "lat": -33.956991, "lon": 151.1378517, "tags": {"highway": "traffic_signals", "traffic_signals:direction": "forward"}}, {"type": "node", "id": 5404621103, "lat": -33.9514712, "lon": 151.1383609}, {"type": "node", "id": 5460611655, "lat": -33.94971, "lon": 151.1392279}, {"type": "node", "id": 5521296957, "lat": -33.9518332, "lon": 151.1381633}, {"type": "node", "id": 5521296958, "lat": -33.9518189, "lon": 151.1380759}, {"type": "node", "id": 5521310424, "lat": -33.955912, "lon": 151.1377693}, {"type": "node", "id": 5802938315, "lat": -33.9507042, "lon": 151.1386678, "tags": {"highway": "traffic_signals", "ref": "970", "start_date": "1973-06-23"}}, {"type": "node", "id": 5826201436, "lat": -33.9527294, "lon": 151.1357376}, {"type": "node", "id": 5826367276, "lat": -33.9531796, "lon": 151.1357103}, {"type": "node", "id": 5826367346, "lat": -33.9530673, "lon": 151.136921}, {"type": "node", "id": 5826367347, "lat": -33.9529636, "lon": 151.1370648}, {"type": "node", "id": 5826367349, "lat": -33.9530201, "lon": 151.137194}, {"type": "node", "id": 5826367350, "lat": -33.9531023, "lon": 151.1370306}, {"type": "node", "id": 5826367351, "lat": -33.953381, "lon": 151.1367468}, {"type": "node", "id": 5826367354, "lat": -33.9531245, "lon": 151.1374845}, {"type": "node", "id": 5826367355, "lat": -33.9531807, "lon": 151.1375749}, {"type": "node", "id": 6207580411, "lat": -33.9469382, "lon": 151.1407617}, {"type": "node", "id": 6207812406, "lat": -33.9492749, "lon": 151.1395537}, {"type": "node", "id": 6207812407, "lat": -33.9497266, "lon": 151.1393156}, {"type": "node", "id": 6339054724, "lat": -33.9474133, "lon": 151.1405116}, {"type": "node", "id": 9156707540, "lat": -33.9513668, "lon": 151.1384203}, {"type": "node", "id": 9156707550, "lat": -33.9529078, "lon": 151.1372422}, {"type": "node", "id": 9156707551, "lat": -33.9529935, "lon": 151.1372895}, {"type": "node", "id": 9156707552, "lat": -33.9533796, "lon": 151.1375721}, {"type": "node", "id": 9156707553, "lat": -33.9529159, "lon": 151.1377476, "tags": {"highway": "crossing"}}, {"type": "node", "id": 9156707555, "lat": -33.9529776, "lon": 151.1374507}, {"type": "node", "id": 9156707556, "lat": -33.9528853, "lon": 151.1374443}, {"type": "node", "id": 9156707571, "lat": -33.9530549, "lon": 151.1374973, "tags": {"highway": "crossing"}}, {"type": "node", "id": 9156707576, "lat": -33.9522361, "lon": 151.1379535, "tags": {"crossing": "traffic_signals", "highway": "crossing"}}, {"type": "node", "id": 9156707580, "lat": -33.9527538, "lon": 151.1375884, "tags": {"highway": "crossing"}}, {"type": "node", "id": 9156735261, "lat": -33.9526967, "lon": 151.13571}, {"type": "node", "id": 9156735262, "lat": -33.9527998, "lon": 151.1357635}, {"type": "node", "id": 9156735263, "lat": -33.9529315, "lon": 151.1357476}, {"type": "node", "id": 9156735264, "lat": -33.9530399, "lon": 151.1357002}, {"type": "node", "id": 9156735265, "lat": -33.9532207, "lon": 151.135726}, {"type": "node", "id": 9156735266, "lat": -33.9533392, "lon": 151.1358292}, {"type": "node", "id": 9156735267, "lat": -33.9533622, "lon": 151.135868}, {"type": "node", "id": 9156735268, "lat": -33.9535181, "lon": 151.1363812}, {"type": "node", "id": 9156735269, "lat": -33.9535032, "lon": 151.1365076}, {"type": "node", "id": 9156735270, "lat": -33.9534849, "lon": 151.1365703}, {"type": "node", "id": 9156735299, "lat": -33.9514415, "lon": 151.138274}, {"type": "node", "id": 9567500462, "lat": -33.9559839, "lon": 151.1447304}, {"type": "node", "id": 9567500463, "lat": -33.9560795, "lon": 151.1449476}, {"type": "node", "id": 9802855669, "lat": -33.9534166, "lon": 151.1366951}, {"type": "node", "id": 10685815203, "lat": -33.9486045, "lon": 151.1282265}, {"type": "node", "id": 11237291990, "lat": -33.9483177, "lon": 151.1279718, "tags": {"crossing": "traffic_signals", "highway": "crossing"}}, {"type": "way", "id": 3170877, "nodes": [15181787, 5826201436, 9156735261, 120726946, 1150801708, 250783173, 1847442918, 651272667, 1827327215], "tags": {"highway": "primary", "maxspeed": "60", "name": "Frederick Street", "source": "nearmap", "surface": "paved"}}, {"type": "way", "id": 48571866, "nodes": [1833823434, 9567500463, 9567500462, 1827905467, 1847494599, 1833823333, 1833823353, 31444202, 1827905463, 1833823440, 1827905452, 1833823337], "tags": {"highway": "primary", "maxspeed": "60", "name": "Bay Street", "source:name": "2006 survey", "surface": "paved"}}, {"type": "way", "id": 110391636, "nodes": [29058770, 1685281572], "tags": {"cycleway:left": "no", "highway": "primary", "maxspeed": "60", "noname": "yes", "oneway": "yes", "surface": "asphalt"}}, {"type": "way", "id": 156269127, "nodes": [2008054913, 2310711942, 1685281917], "tags": {"highway": "trunk", "lanes": "3", "lit": "yes", "maxspeed": "60", "name": "Princes Highway", "network": "AU:NSW", "note": "This is only a primary road, as it is not a metroad.", "oneway": "yes", "ref": "A36", "ref:start_date": "2013-06", "sidewalk": "left", "surface": "paved"}}, {"type": "way", "id": 172476779, "nodes": [1685281572, 9156707553, 1833823338, 1847494501, 1833823346, 1833823337], "tags": {"cycleway:left": "no", "highway": "primary", "maxspeed": "60", "name": "Bay Street", "oneway": "yes", "surface": "asphalt"}}, {"type": "way", "id": 172476784, "nodes": [1685281573, 1685290124], "tags": {"cycleway:left": "no", "highway": "primary", "maxspeed": "60", "noname": "yes", "oneway": "yes", "surface": "asphalt"}}, {"type": "way", "id": 172476786, "nodes": [1833823395, 1833823370, 9156735268, 1833823380, 9156735269, 9156735270, 1833823392], "tags": {"highway": "primary", "lanes": "4", "maxspeed": "60", "name": "The Seven Ways", "source": "Bing", "source:name": "2006 survey", "surface": "paved"}}, {"type": "way", "id": 172476788, "nodes": [1833823401, 5826367350, 1833823368, 1833823431, 1833823372], "tags": {"highway": "primary", "lanes": "2", "maxspeed": "60", "name": "The Seven Ways", "oneway": "yes", "source": "Bing", "source:name": "2006 survey", "surface": "paved"}}, {"type": "way", "id": 172476789, "nodes": [1833823337, 1989365313, 1833823430, 1685281573], "tags": {"cycleway:left": "no", "highway": "primary", "maxspeed": "60", "name": "Bay Street", "oneway": "yes", "surface": "asphalt"}}, {"type": "way", "id": 172476790, "nodes": [15181787, 9156735262, 607281934], "tags": {"highway": "primary", "maxspeed": "60", "name": "The Seven Ways", "source": "Bing", "source:name": "2006 survey", "surface": "paved"}}, {"type": "way", "id": 172476793, "nodes": [1996137680, 1833823395], "tags": {"bridge": "yes", "highway": "primary", "lanes": "4", "lanes:backward": "2", "lanes:forward": "2", "layer": "1", "maxspeed": "60", "name": "The Seven Ways", "source": "Bing", "source:name": "2006 survey", "surface": "paved", "turn:lanes:backward": "left|none"}}, {"type": "way", "id": 172476798, "nodes": [1833823425, 1833823429, 5826367346, 1833823369, 5826367347, 1833823376, 9156707550, 1833823381], "tags": {"cycleway:left": "no", "highway": "primary", "maxspeed": "60", "name": "The Seven Ways", "oneway": "yes", "source": "Bing", "source:name": "2006 survey", "surface": "asphalt"}}, {"type": "way", "id": 187641573, "nodes": [26638125, 11237291990, 683212101, 243973349, 10685815203, 32664493, 1847442761, 1847460404, 1847460415, 1847442810, 1847460441, 1847442913], "tags": {"foot": "designated", "highway": "primary", "lanes": "2", "maxspeed": "60", "motor_vehicle": "designated", "name": "Harrow Road", "oneway": "no", "source:location": "bing", "surface": "asphalt"}}, {"type": "way", "id": 187642360, "nodes": [1827327215, 1847460449, 1847442915, 1838598554], "tags": {"highway": "primary", "maxspeed": "60", "name": "Watkin Street", "source": "nearmap", "surface": "paved"}}, {"type": "way", "id": 188979115, "nodes": [607281934, 961085924, 9156735263, 15181783, 9156735264, 1150801739, 1833823420], "tags": {"highway": "primary", "lanes": "3", "lanes:backward": "2", "lanes:forward": "1", "maxspeed": "60", "name": "The Seven Ways", "source": "Bing", "source:name": "2006 survey", "surface": "paved", "turn:lanes:backward": "none|right"}}, {"type": "way", "id": 252450827, "nodes": [1685281573, 1685281575, 5826367355, 1685281577, 9156707552, 1685281579, 1685281581], "tags": {"highway": "trunk", "lanes": "3", "lit": "yes", "maxspeed": "60", "name": "Princes Highway", "network": "AU:NSW", "oneway": "yes", "ref": "A36", "ref:start_date": "2013-06", "sidewalk": "left", "surface": "paved"}}, {"type": "way", "id": 293399921, "nodes": [1685290127, 1847494600], "tags": {"foot": "yes", "highway": "trunk", "lanes": "3", "lit": "yes", "maxspeed": "60", "name": "Princes Highway", "network": "AU:NSW", "note": "This is only a primary road, as it is not a metroad.", "oneway": "yes", "ref": "A36", "ref:start_date": "2013-06", "sidewalk": "left", "surface": "paved"}}, {"type": "way", "id": 340108762, "nodes": [1833823420, 5826367276, 9156735265, 1833823334, 1833823342, 9156735266, 9156735267, 1996137680], "tags": {"highway": "primary", "maxspeed": "60", "name": "The Seven Ways", "source": "Bing", "source:name": "2006 survey", "surface": "paved"}}, {"type": "way", "id": 575380924, "nodes": [1685281560, 1685281561], "tags": {"highway": "trunk", "lanes": "3", "lit": "yes", "maxspeed": "60", "name": "Princes Highway", "network": "AU:NSW", "oneway": "yes", "ref": "A36", "ref:start_date": "2013-06", "sidewalk": "left", "surface": "paved"}}, {"type": "way", "id": 575380925, "nodes": [1685281918, 2008054913], "tags": {"highway": "trunk", "lanes": "3", "lit": "yes", "maxspeed": "60", "name": "Princes Highway", "network": "AU:NSW", "note": "This is only a primary road, as it is not a metroad.", "oneway": "yes", "ref": "A36", "ref:start_date": "2013-06", "sidewalk": "left", "surface": "paved"}}, {"type": "way", "id": 575380927, "nodes": [1685281551, 1685281554, 6207580411, 6339054724, 1685281557, 1685281559, 1685281560], "tags": {"highway": "trunk", "lanes": "3", "lit": "yes", "maxspeed": "60", "name": "Princes Highway", "network": "AU:NSW", "oneway": "yes", "ref": "A36", "ref:start_date": "2013-06", "sidewalk": "left", "surface": "paved"}}, {"type": "way", "id": 575380928, "nodes": [1685281921, 9156735299, 5802938315, 1685281919, 5460611655, 1685276578, 1685281918], "tags": {"highway": "trunk", "lanes": "3", "lit": "yes", "maxspeed": "60", "name": "Princes Highway", "network": "AU:NSW", "note": "This is only a primary road, as it is not a metroad.", "oneway": "yes", "ref": "A36", "ref:start_date": "2013-06", "sidewalk": "left", "surface": "paved"}}, {"type": "way", "id": 575381174, "nodes": [5521296958, 1685281921], "tags": {"highway": "trunk", "lanes": "3", "lit": "yes", "maxspeed": "60", "name": "Princes Highway", "network": "AU:NSW", "note": "This is only a primary road, as it is not a metroad.", "oneway": "yes", "ref": "A36", "ref:start_date": "2013-06", "sidewalk": "left", "surface": "paved"}}, {"type": "way", "id": 575381175, "nodes": [5521296957, 1685281569], "tags": {"highway": "trunk", "lanes": "3", "lit": "yes", "maxspeed": "60", "name": "Princes Highway", "network": "AU:NSW", "oneway": "yes", "ref": "A36", "ref:start_date": "2013-06", "sidewalk": "left", "surface": "paved"}}, {"type": "way", "id": 575381177, "nodes": [1685281567, 5521296957], "tags": {"highway": "trunk", "lanes": "3", "lit": "yes", "maxspeed": "60", "name": "Princes Highway", "network": "AU:NSW", "oneway": "yes", "ref": "A36", "ref:start_date": "2013-06", "sidewalk": "left", "surface": "paved"}}, {"type": "way", "id": 575381178, "nodes": [1685281561, 6207812406, 1685281562, 1685281564, 6207812407, 1685281565, 2397914035, 1685281566, 9156707540, 5404621103, 1685281567], "tags": {"highway": "trunk", "lanes": "3", "lit": "yes", "maxspeed": "60", "name": "Princes Highway", "network": "AU:NSW", "oneway": "yes", "ref": "A36", "ref:start_date": "2013-06", "sidewalk": "left", "surface": "paved"}}, {"type": "way", "id": 575381179, "nodes": [1685281922, 5521296958], "tags": {"highway": "trunk", "lanes": "3", "lit": "yes", "maxspeed": "60", "name": "Princes Highway", "network": "AU:NSW", "note": "This is only a primary road, as it is not a metroad.", "oneway": "yes", "ref": "A36", "ref:start_date": "2013-06", "sidewalk": "left", "surface": "paved"}}, {"type": "way", "id": 575381678, "nodes": [1685290125, 1685281924, 5826367354, 9156707571, 1685290124], "tags": {"foot": "yes", "highway": "trunk", "lanes": "3", "lit": "yes", "maxspeed": "60", "name": "Princes Highway", "network": "AU:NSW", "note": "This is only a primary road, as it is not a metroad.", "oneway": "yes", "ref": "A36", "ref:start_date": "2013-06", "sidewalk": "left", "surface": "paved"}}, {"type": "way", "id": 575381679, "nodes": [1685281572, 1685281573], "tags": {"highway": "trunk", "lanes": "3", "lit": "yes", "maxspeed": "60", "name": "Princes Highway", "network": "AU:NSW", "oneway": "yes", "ref": "A36", "ref:start_date": "2013-06", "sidewalk": "left", "surface": "paved"}}, {"type": "way", "id": 575381680, "nodes": [2455454503, 1685281922], "tags": {"foot": "yes", "highway": "trunk", "lanes": "3", "lit": "yes", "maxspeed": "60", "name": "Princes Highway", "network": "AU:NSW", "note": "This is only a primary road, as it is not a metroad.", "oneway": "yes", "ref": "A36", "ref:start_date": "2013-06", "sidewalk": "left", "surface": "paved"}}, {"type": "way", "id": 575381681, "nodes": [1685290124, 29058770], "tags": {"foot": "yes", "highway": "trunk", "lanes": "3", "lit": "yes", "maxspeed": "60", "name": "Princes Highway", "network": "AU:NSW", "note": "This is only a primary road, as it is not a metroad.", "oneway": "yes", "ref": "A36", "ref:start_date": "2013-06", "sidewalk": "left", "surface": "paved"}}, {"type": "way", "id": 575381682, "nodes": [29058770, 9156707580, 1685281923, 2455454503], "tags": {"foot": "yes", "highway": "trunk", "lanes": "3", "lit": "yes", "maxspeed": "60", "name": "Princes Highway", "network": "AU:NSW", "note": "This is only a primary road, as it is not a metroad.", "oneway": "yes", "ref": "A36", "ref:start_date": "2013-06", "sidewalk": "left", "surface": "paved"}}, {"type": "way", "id": 575381683, "nodes": [1685281569, 9156707576, 1685281570, 1685281571, 1685281572], "tags": {"highway": "trunk", "lanes": "3", "lit": "yes", "maxspeed": "60", "name": "Princes Highway", "network": "AU:NSW", "oneway": "yes", "ref": "A36", "ref:start_date": "2013-06", "sidewalk": "left", "surface": "paved"}}, {"type": "way", "id": 575382131, "nodes": [1833823381, 9156707556, 29058770], "tags": {"cycleway:left": "no", "highway": "primary", "maxspeed": "60", "name": "The Seven Ways", "oneway": "yes", "source": "Bing", "source:name": "2006 survey", "surface": "asphalt"}}, {"type": "way", "id": 575382132, "nodes": [1833823372, 5826367351, 9802855669, 1833823392], "tags": {"highway": "primary", "lanes": "2", "maxspeed": "60", "name": "The Seven Ways", "oneway": "yes", "source": "Bing", "source:name": "2006 survey", "surface": "paved"}}, {"type": "way", "id": 575382133, "nodes": [1833823392, 1833823425], "tags": {"highway": "primary", "maxspeed": "60", "name": "The Seven Ways", "oneway": "yes", "source": "Bing", "source:name": "2006 survey", "surface": "paved"}}, {"type": "way", "id": 575382321, "nodes": [1685281581, 5521310424], "tags": {"highway": "trunk", "lanes": "3", "lit": "yes", "maxspeed": "60", "name": "Princes Highway", "network": "AU:NSW", "oneway": "yes", "ref": "A36", "ref:start_date": "2013-06", "sidewalk": "left", "surface": "paved"}}, {"type": "way", "id": 575382322, "nodes": [1847494600, 1685281926], "tags": {"foot": "yes", "highway": "trunk", "lanes": "3", "lit": "yes", "maxspeed": "60", "name": "Princes Highway", "network": "AU:NSW", "note": "This is only a primary road, as it is not a metroad.", "oneway": "yes", "ref": "A36", "ref:start_date": "2013-06", "sidewalk": "left", "surface": "paved"}}, {"type": "way", "id": 575382323, "nodes": [1055956351, 4013727210, 1685281585], "tags": {"highway": "trunk", "lanes": "3", "lit": "yes", "maxspeed": "60", "name": "Princes Highway", "network": "AU:NSW", "oneway": "yes", "ref": "A36", "ref:start_date": "2013-06", "sidewalk": "left", "surface": "paved"}}, {"type": "way", "id": 575382325, "nodes": [1685281926, 1847494586, 1685290125], "tags": {"foot": "yes", "highway": "trunk", "lanes": "3", "lit": "yes", "maxspeed": "60", "name": "Princes Highway", "network": "AU:NSW", "note": "This is only a primary road, as it is not a metroad.", "oneway": "yes", "ref": "A36", "ref:start_date": "2013-06", "sidewalk": "left", "surface": "paved"}}, {"type": "way", "id": 702876660, "nodes": [1847442913, 1838598554], "tags": {"foot": "designated", "highway": "primary", "lanes": "2", "maxspeed": "60", "motor_vehicle": "designated", "name": "Harrow Road", "oneway": "no", "source:location": "bing", "surface": "asphalt"}}, {"type": "way", "id": 757433290, "nodes": [5521310424, 1055956351], "tags": {"highway": "trunk", "lanes": "3", "lit": "yes", "maxspeed": "60", "name": "Princes Highway", "network": "AU:NSW", "oneway": "yes", "ref": "A36", "ref:start_date": "2013-06", "sidewalk": "left", "surface": "paved"}}, {"type": "way", "id": 775115543, "nodes": [1685290124, 9156707555, 1833823390, 9156707551, 5826367349, 1833823401], "tags": {"cycleway:left": "no", "highway": "primary", "lanes": "2", "maxspeed": "60", "name": "The Seven Ways", "oneway": "yes", "source": "Bing", "source:name": "2006 survey", "surface": "asphalt"}}, {"type": "way", "id": 786360451, "nodes": [1685281917, 1999731225, 2000504790, 1685281914, 1685281913, 2000504793], "tags": {"highway": "trunk", "lanes": "3", "lit": "yes", "maxspeed": "60", "name": "Princes Highway", "network": "AU:NSW", "note": "This is only a primary road, as it is not a metroad.", "oneway": "yes", "ref": "A36", "ref:start_date": "2013-06", "sidewalk": "left", "surface": "paved"}}]}