{"version": 0.6, "generator": "Overpass API 0.7.61.5 4133829e", "osm3s": {"timestamp_osm_base": "2023-12-06T13:21:00Z", "copyright": "The data included in this document is from www.openstreetmap.org. The data is made available under ODbL."}, "elements": [{"type": "node", "id": 111429932, "lat": -26.9922599, "lon": 152.8045072}, {"type": "node", "id": 111429933, "lat": -26.9904135, "lon": 152.8020382}, {"type": "node", "id": 194977087, "lat": -26.9926638, "lon": 152.8101148}, {"type": "node", "id": 194977088, "lat": -26.9930133, "lon": 152.8073998}, {"type": "node", "id": 194977090, "lat": -26.9926677, "lon": 152.8055162}, {"type": "node", "id": 298692710, "lat": -26.9864505, "lon": 152.7971097}, {"type": "node", "id": 416262305, "lat": -26.9927154, "lon": 152.8114129}, {"type": "node", "id": 416262309, "lat": -26.9928371, "lon": 152.8061403}, {"type": "node", "id": 416262311, "lat": -26.9929388, "lon": 152.8067309}, {"type": "node", "id": 416262317, "lat": -26.9929557, "lon": 152.8085718}, {"type": "node", "id": 416262319, "lat": -26.9924495, "lon": 152.8049134}, {"type": "node", "id": 416262327, "lat": -26.99122, "lon": 152.8030195}, {"type": "node", "id": 469071657, "lat": -26.9929132, "lon": 152.8089245}, {"type": "node", "id": 699536636, "lat": -26.9892905, "lon": 152.8004998}, {"type": "node", "id": 699588281, "lat": -26.9896917, "lon": 152.8011169}, {"type": "node", "id": 699588282, "lat": -26.9900208, "lon": 152.8015537}, {"type": "node", "id": 699588287, "lat": -26.9918183, "lon": 152.8037511}, {"type": "node", "id": 699588288, "lat": -26.9929992, "lon": 152.8080132}, {"type": "node", "id": 699588290, "lat": -26.9926398, "lon": 152.8105554}, {"type": "node", "id": 699588291, "lat": -26.9927241, "lon": 152.8097424}, {"type": "node", "id": 705926661, "lat": -26.9885963, "lon": 152.7995169}, {"type": "node", "id": 716354618, "lat": -26.9906263, "lon": 152.8022911}, {"type": "node", "id": 716354620, "lat": -26.9887792, "lon": 152.7997282}, {"type": "node", "id": 1723599678, "lat": -26.9879499, "lon": 152.7969054}, {"type": "node", "id": 1723599896, "lat": -26.9874503, "lon": 152.7975492}, {"type": "node", "id": 1723599897, "lat": -26.9871897, "lon": 152.7979023}, {"type": "node", "id": 1919721011, "lat": -26.9870705, "lon": 152.7977668}, {"type": "node", "id": 1919721012, "lat": -26.9871188, "lon": 152.797822}, {"type": "node", "id": 1919721016, "lat": -26.9872027, "lon": 152.7977317}, {"type": "node", "id": 1919721017, "lat": -26.9872172, "lon": 152.7978656}, {"type": "node", "id": 1919721018, "lat": -26.9873118, "lon": 152.7980435}, {"type": "node", "id": 1919721019, "lat": -26.9874118, "lon": 152.7975016}, {"type": "node", "id": 1919721020, "lat": -26.9876199, "lon": 152.7972589}, {"type": "node", "id": 1919721022, "lat": -26.987656, "lon": 152.7972973}, {"type": "node", "id": 6483273551, "lat": -26.9901927, "lon": 152.8017679}, {"type": "node", "id": 6483273554, "lat": -26.9914825, "lon": 152.8033158}, {"type": "node", "id": 6483273555, "lat": -26.9926533, "lon": 152.8109171}, {"type": "node", "id": 6483273556, "lat": -26.992723, "lon": 152.8117127}, {"type": "node", "id": 7650759169, "lat": -26.986733, "lon": 152.7974008}, {"type": "node", "id": 7650782887, "lat": -26.988968, "lon": 152.8000028}, {"type": "node", "id": 7650782890, "lat": -26.9878556, "lon": 152.7986668}, {"type": "node", "id": 7650782893, "lat": -26.9898447, "lon": 152.8013217}, {"type": "node", "id": 9331874842, "lat": -26.9888702, "lon": 152.7998669}, {"type": "node", "id": 9331874843, "lat": -26.9882159, "lon": 152.7990803}, {"type": "node", "id": 9331874844, "lat": -26.9875694, "lon": 152.7983388}, {"type": "node", "id": 9331874848, "lat": -26.9890948, "lon": 152.8001889}, {"type": "node", "id": 9331874849, "lat": -26.990905, "lon": 152.802633}, {"type": "node", "id": 9331874850, "lat": -26.991664, "lon": 152.8035363}, {"type": "node", "id": 9331874851, "lat": -26.9920478, "lon": 152.804118}, {"type": "way", "id": 181560332, "nodes": [1723599678, 1919721020, 1919721019, 1919721016, 1919721012], "tags": {"highway": "primary", "maxspeed": "60", "name": "Mount Mee Road", "network": "AU:QLD:S;AU:QLD:T", "oneway": "yes", "ref": "58;29", "surface": "paved"}}, {"type": "way", "id": 571448686, "nodes": [1723599897, 1919721017, 1723599896, 1919721022, 1723599678], "tags": {"highway": "primary", "maxspeed": "60", "name": "Mount Mee Road", "network": "AU:QLD:S;AU:QLD:T", "oneway": "yes", "ref": "58;29", "surface": "paved"}}, {"type": "way", "id": 851950241, "nodes": [298692710, 7650759169, 1919721011, 1919721012], "tags": {"highway": "trunk", "lanes": "3", "lanes:backward": "1", "lanes:forward": "2", "maxspeed": "60", "name": "D'Aguilar Highway", "network": "AU:QLD:S;AU:QLD:T", "oneway": "no", "ref": "85;29", "surface": "asphalt"}}, {"type": "way", "id": 1011433683, "nodes": [9331874844, 7650782890, 9331874843], "tags": {"highway": "trunk", "maxspeed": "60", "name": "D'Aguilar Highway", "network": "AU:QLD:S", "oneway": "no", "ref": "85", "surface": "asphalt"}}, {"type": "way", "id": 1011433684, "nodes": [705926661, 716354620, 9331874842], "tags": {"highway": "trunk", "lanes": "3", "lanes:backward": "2", "lanes:forward": "1", "maxspeed": "60", "name": "D'Aguilar Highway", "network": "AU:QLD:S", "oneway": "no", "ref": "85", "surface": "asphalt"}}, {"type": "way", "id": 1011433685, "nodes": [9331874843, 705926661], "tags": {"highway": "trunk", "lanes": "3", "lanes:backward": "1", "lanes:forward": "2", "maxspeed": "60", "name": "D'Aguilar Highway", "network": "AU:QLD:S", "oneway": "no", "ref": "85", "surface": "asphalt"}}, {"type": "way", "id": 1011433687, "nodes": [1919721018, 9331874844], "tags": {"highway": "trunk", "lanes": "4", "lanes:backward": "2", "lanes:forward": "2", "maxspeed": "60", "name": "D'Aguilar Highway", "network": "AU:QLD:S", "oneway": "no", "ref": "85", "surface": "asphalt"}}, {"type": "way", "id": 1011433688, "nodes": [1723599897, 1919721018], "tags": {"highway": "trunk", "lanes": "3", "lanes:backward": "2", "lanes:forward": "1", "maxspeed": "60", "name": "D'Aguilar Highway", "network": "AU:QLD:S", "oneway": "no", "ref": "85", "surface": "asphalt"}}, {"type": "way", "id": 1011433689, "nodes": [1919721012, 1723599897], "tags": {"highway": "trunk", "lanes": "3", "lanes:backward": "1", "lanes:forward": "2", "maxspeed": "60", "name": "D'Aguilar Highway", "network": "AU:QLD:S;AU:QLD:T", "oneway": "no", "ref": "85;29", "surface": "asphalt"}}, {"type": "way", "id": 1011433690, "nodes": [9331874842, 7650782887, 9331874848], "tags": {"highway": "trunk", "maxspeed": "60", "name": "D'Aguilar Highway", "network": "AU:QLD:S", "oneway": "no", "ref": "85", "surface": "asphalt"}}, {"type": "way", "id": 1011433691, "nodes": [9331874848, 699536636], "tags": {"highway": "trunk", "lanes": "3", "lanes:backward": "1", "lanes:forward": "2", "maxspeed": "60", "name": "D'Aguilar Highway", "network": "AU:QLD:S", "oneway": "no", "ref": "85", "surface": "asphalt"}}, {"type": "way", "id": 1011433692, "nodes": [699536636, 699588281], "tags": {"highway": "trunk", "lanes": "3", "lanes:backward": "2", "lanes:forward": "1", "maxspeed": "60", "name": "D'Aguilar Highway", "network": "AU:QLD:S", "oneway": "no", "ref": "85", "surface": "asphalt"}}, {"type": "way", "id": 1011433693, "nodes": [699588281, 7650782893, 699588282, 6483273551, 111429933], "tags": {"highway": "trunk", "maxspeed": "60", "name": "D'Aguilar Highway", "network": "AU:QLD:S", "oneway": "no", "ref": "85", "surface": "asphalt"}}, {"type": "way", "id": 1011433694, "nodes": [111429933, 716354618], "tags": {"highway": "trunk", "lanes": "3", "lanes:backward": "1", "lanes:forward": "2", "maxspeed": "60", "name": "D'Aguilar Highway", "network": "AU:QLD:S", "oneway": "no", "ref": "85", "surface": "asphalt"}}, {"type": "way", "id": 1011433695, "nodes": [716354618, 9331874849], "tags": {"highway": "trunk", "maxspeed": "60", "name": "D'Aguilar Highway", "network": "AU:QLD:S", "oneway": "no", "ref": "85", "surface": "asphalt"}}, {"type": "way", "id": 1011433696, "nodes": [9331874849, 416262327], "tags": {"highway": "trunk", "lanes": "3", "lanes:backward": "1", "lanes:forward": "2", "maxspeed": "60", "name": "D'Aguilar Highway", "network": "AU:QLD:S", "oneway": "no", "ref": "85", "surface": "asphalt"}}, {"type": "way", "id": 1011433697, "nodes": [416262327, 6483273554], "tags": {"highway": "trunk", "lanes": "3", "lanes:backward": "2", "lanes:forward": "1", "maxspeed": "60", "name": "D'Aguilar Highway", "network": "AU:QLD:S", "oneway": "no", "ref": "85", "surface": "asphalt"}}, {"type": "way", "id": 1011433698, "nodes": [6483273554, 9331874850, 699588287, 9331874851], "tags": {"highway": "trunk", "maxspeed": "60", "name": "D'Aguilar Highway", "network": "AU:QLD:S", "oneway": "no", "ref": "85", "surface": "asphalt"}}, {"type": "way", "id": 1011433704, "nodes": [9331874851, 111429932, 416262319, 194977090, 416262309, 416262311, 194977088, 699588288, 416262317, 469071657, 699588291, 194977087, 699588290, 6483273555, 416262305, 6483273556], "tags": {"highway": "trunk", "maxspeed": "90", "name": "D'Aguilar Highway", "network": "AU:QLD:S", "oneway": "no", "ref": "85", "surface": "asphalt"}}]}