{"version": 0.6, "generator": "Overpass API 0.7.61.5 4133829e", "osm3s": {"timestamp_osm_base": "2023-12-06T13:40:15Z", "copyright": "The data included in this document is from www.openstreetmap.org. The data is made available under ODbL."}, "elements": [{"type": "node", "id": 246024028, "lat": -26.4072857, "lon": 146.2416516}, {"type": "node", "id": 246024055, "lat": -26.4178646, "lon": 146.2501221}, {"type": "node", "id": 296862857, "lat": -26.4060523, "lon": 146.2436156}, {"type": "node", "id": 296871487, "lat": -26.404016, "lon": 146.2467663}, {"type": "node", "id": 528862890, "lat": -26.403501, "lon": 146.2386096}, {"type": "node", "id": 528862893, "lat": -26.4025232, "lon": 146.237837}, {"type": "node", "id": 528862907, "lat": -26.4090203, "lon": 146.243015}, {"type": "node", "id": 528862908, "lat": -26.4099921, "lon": 146.243792}, {"type": "node", "id": 528862912, "lat": -26.4099155, "lon": 146.2437242}, {"type": "node", "id": 528862913, "lat": -26.4063401, "lon": 146.2409067}, {"type": "node", "id": 528862915, "lat": -26.4080181, "lon": 146.2422248}, {"type": "node", "id": 528862917, "lat": -26.408273, "lon": 146.2424233}, {"type": "node", "id": 528862920, "lat": -26.4109042, "lon": 146.2445192}, {"type": "node", "id": 528862931, "lat": -26.4044406, "lon": 146.2393845}, {"type": "node", "id": 528862942, "lat": -26.4048867, "lon": 146.2454191}, {"type": "node", "id": 1429602985, "lat": -26.412194, "lon": 146.2455765}, {"type": "node", "id": 1429603011, "lat": -26.4144929, "lon": 146.2474492}, {"type": "node", "id": 1831562423, "lat": -26.4003347, "lon": 146.2361326}, {"type": "node", "id": 1831562437, "lat": -26.4058526, "lon": 146.2405207}, {"type": "node", "id": 1831562439, "lat": -26.401158, "lon": 146.2367897}, {"type": "node", "id": 1831562443, "lat": -26.4017811, "lon": 146.2372809}, {"type": "node", "id": 1831562445, "lat": -26.4052022, "lon": 146.2400063}, {"type": "node", "id": 1838453462, "lat": -26.4135059, "lon": 146.2466228}, {"type": "node", "id": 1846921500, "lat": -26.4095318, "lon": 146.2434144}, {"type": "node", "id": 1846921506, "lat": -26.4118724, "lon": 146.2453209}, {"type": "node", "id": 1846921513, "lat": -26.415521, "lon": 146.2482539}, {"type": "node", "id": 1846921517, "lat": -26.415881, "lon": 146.2485394}, {"type": "node", "id": 2034241071, "lat": -26.4077409, "lon": 146.2419976, "tags": {"railway": "level_crossing"}}, {"type": "node", "id": 2950263262, "lat": -26.4188254, "lon": 146.2508464}, {"type": "node", "id": 5907622761, "lat": -26.4061622, "lon": 146.2433454}, {"type": "node", "id": 5907622762, "lat": -26.4071423, "lon": 146.2417978}, {"type": "node", "id": 5907622763, "lat": -26.4062173, "lon": 146.2434527}, {"type": "node", "id": 5907622764, "lat": -26.4072402, "lon": 146.2418614}, {"type": "node", "id": 5907622778, "lat": -26.4061149, "lon": 146.2435158}, {"type": "node", "id": 8953027583, "lat": -26.4010816, "lon": 146.2367287}, {"type": "node", "id": 9810286434, "lat": -26.4163884, "lon": 146.2489443}, {"type": "node", "id": 11197003279, "lat": -26.4007751, "lon": 146.2364841}, {"type": "node", "id": 11197332580, "lat": -26.4060923, "lon": 146.2435518}, {"type": "node", "id": 11197332583, "lat": -26.4056436, "lon": 146.244248}, {"type": "way", "id": 75530220, "nodes": [2950263262, 246024055, 9810286434, 1846921517, 1846921513, 1429603011, 1838453462, 1429602985, 1846921506, 528862920, 528862908, 528862912, 1846921500, 528862907, 528862917, 528862915, 2034241071, 246024028], "tags": {"alt_name": "Mitchell Highway", "highway": "trunk", "maxspeed": "60", "name": "Sturt Street", "network": "AU:QLD", "ref": "A71", "source": "GPS traces", "source:name": "street sign", "surface": "asphalt"}}, {"type": "way", "id": 75530223, "nodes": [296871487, 528862942, 11197332583, 296862857, 11197332580, 5907622778], "tags": {"foot": "yes", "highway": "trunk", "maxspeed": "50", "name": "Warrego Highway", "network": "AU:QLD:ALT", "oneway": "no", "ref": "A2", "source": "survey", "surface": "asphalt"}}, {"type": "way", "id": 172230625, "nodes": [1831562423, 11197003279, 8953027583, 1831562439], "tags": {"highway": "trunk", "maxspeed": "60", "name": "Mitchell Highway", "network": "AU:QLD:ALT", "ref": "A2", "source": "Bing", "surface": "asphalt"}}, {"type": "way", "id": 172230627, "nodes": [1831562439, 1831562443], "tags": {"bridge": "yes", "highway": "trunk", "layer": "1", "maxspeed": "60", "name": "Mitchell Highway", "network": "AU:QLD:ALT", "ref": "A2", "source": "Bing", "surface": "asphalt"}}, {"type": "way", "id": 172230628, "nodes": [528862893, 528862890, 528862931, 1831562445], "tags": {"highway": "trunk", "maxspeed": "60", "name": "Sturt Street", "network": "AU:QLD:ALT", "oneway": "no", "ref": "A2", "surface": "asphalt"}}, {"type": "way", "id": 372003394, "nodes": [1831562445, 1831562437], "tags": {"bridge": "yes", "highway": "trunk", "layer": "1", "maxspeed": "60", "name": "Sturt Street", "network": "AU:QLD:ALT", "oneway": "no", "ref": "A2", "surface": "asphalt"}}, {"type": "way", "id": 372003395, "nodes": [1831562437, 528862913, 246024028], "tags": {"highway": "trunk", "maxspeed": "60", "name": "Sturt Street", "network": "AU:QLD:ALT", "oneway": "no", "ref": "A2", "surface": "asphalt"}}, {"type": "way", "id": 625705545, "nodes": [246024028, 5907622762, 5907622761, 5907622778], "tags": {"foot": "yes", "highway": "trunk", "maxspeed": "50", "name": "Warrego Highway", "network": "AU:QLD:ALT", "oneway": "yes", "ref": "A2", "source": "survey", "surface": "asphalt"}}, {"type": "way", "id": 625705546, "nodes": [5907622778, 5907622763, 5907622764, 246024028], "tags": {"foot": "yes", "highway": "trunk", "maxspeed": "50", "name": "Warrego Highway", "network": "AU:QLD:ALT", "oneway": "yes", "ref": "A2", "source": "survey", "surface": "asphalt"}}, {"type": "way", "id": 762921803, "nodes": [1831562443, 528862893], "tags": {"highway": "trunk", "maxspeed": "60", "name": "Sturt Street", "network": "AU:QLD:ALT", "oneway": "no", "ref": "A2", "surface": "asphalt"}}]}