{"version": 0.6, "generator": "Overpass API 0.7.61.5 4133829e", "osm3s": {"timestamp_osm_base": "2023-12-06T11:30:01Z", "copyright": "The data included in this document is from www.openstreetmap.org. The data is made available under ODbL."}, "elements": [{"type": "node", "id": 21294082, "lat": -35.3739691, "lon": 149.0570692}, {"type": "node", "id": 21294085, "lat": -35.3739324, "lon": 149.0568327}, {"type": "node", "id": 21294110, "lat": -35.377255, "lon": 149.0565367}, {"type": "node", "id": 21294120, "lat": -35.3724145, "lon": 149.0571284}, {"type": "node", "id": 21294155, "lat": -35.3766312, "lon": 149.0566162}, {"type": "node", "id": 21294157, "lat": -35.3718783, "lon": 149.0573258}, {"type": "node", "id": 21294203, "lat": -35.3716124, "lon": 149.0574204}, {"type": "node", "id": 21437052, "lat": -35.3793118, "lon": 149.0562446}, {"type": "node", "id": 21437066, "lat": -35.379863, "lon": 149.0563082}, {"type": "node", "id": 21437080, "lat": -35.3809209, "lon": 149.0565524}, {"type": "node", "id": 21437093, "lat": -35.3818412, "lon": 149.0568844}, {"type": "node", "id": 21437134, "lat": -35.3816816, "lon": 149.0572896}, {"type": "node", "id": 21437146, "lat": -35.3824809, "lon": 149.0576964}, {"type": "node", "id": 21437174, "lat": -35.3826445, "lon": 149.0572838}, {"type": "node", "id": 21437234, "lat": -35.3835009, "lon": 149.0578658}, {"type": "node", "id": 21437260, "lat": -35.3843541, "lon": 149.0586395}, {"type": "node", "id": 36394752, "lat": -35.3792073, "lon": 149.0562313}, {"type": "node", "id": 277675873, "lat": -35.3792595, "lon": 149.0565916}, {"type": "node", "id": 597051849, "lat": -35.3833059, "lon": 149.058247}, {"type": "node", "id": 658995222, "lat": -35.3726828, "lon": 149.0570523}, {"type": "node", "id": 678846771, "lat": -35.3794027, "lon": 149.0562561, "tags": {"button_operated": "yes", "crossing": "traffic_signals", "highway": "crossing", "tactile_paving": "no", "traffic_signals:sound": "yes"}}, {"type": "node", "id": 678846774, "lat": -35.3791551, "lon": 149.0565783}, {"type": "node", "id": 678846775, "lat": -35.3766506, "lon": 149.056363}, {"type": "node", "id": 678846776, "lat": -35.3740257, "lon": 149.0568161, "tags": {"highway": "traffic_signals", "traffic_signals": "traffic_lights", "traffic_signals:direction": "forward"}}, {"type": "node", "id": 678846779, "lat": -35.3737772, "lon": 149.0571022, "tags": {"button_operated": "yes", "crossing": "traffic_signals", "highway": "crossing", "tactile_paving": "no", "traffic_signals:sound": "yes"}}, {"type": "node", "id": 895497775, "lat": -35.3729577, "lon": 149.0569932}, {"type": "node", "id": 895497776, "lat": -35.372147, "lon": 149.0572234}, {"type": "node", "id": 938966326, "lat": -35.381191, "lon": 149.0570854}, {"type": "node", "id": 938966327, "lat": -35.3812862, "lon": 149.0566681}, {"type": "node", "id": 938966328, "lat": -35.3813235, "lon": 149.0566812}, {"type": "node", "id": 938966336, "lat": -35.3812323, "lon": 149.0571012}, {"type": "node", "id": 1548665513, "lat": -35.3731843, "lon": 149.0572089, "tags": {"highway": "motorway_junction", "noref": "yes"}}, {"type": "node", "id": 1548665516, "lat": -35.3734378, "lon": 149.0569206}, {"type": "node", "id": 1548665525, "lat": -35.3737441, "lon": 149.0568662, "tags": {"button_operated": "yes", "crossing": "traffic_signals", "highway": "crossing", "tactile_paving": "no", "traffic_signals:sound": "yes"}}, {"type": "node", "id": 1548665529, "lat": -35.3738269, "lon": 149.0568514}, {"type": "node", "id": 1548665532, "lat": -35.3738636, "lon": 149.057088}, {"type": "node", "id": 1548665544, "lat": -35.374365, "lon": 149.0569988}, {"type": "node", "id": 1548665545, "lat": -35.3746836, "lon": 149.0567034}, {"type": "node", "id": 1584457093, "lat": -35.3839472, "lon": 149.0587926}, {"type": "node", "id": 1610611636, "lat": -35.3739978, "lon": 149.0568211, "tags": {"button_operated": "yes", "crossing": "traffic_signals", "highway": "crossing", "tactile_paving": "no", "traffic_signals:sound": "yes"}}, {"type": "node", "id": 1610611639, "lat": -35.374031, "lon": 149.0570582, "tags": {"button_operated": "yes", "crossing": "traffic_signals", "highway": "crossing", "tactile_paving": "no", "traffic_signals:sound": "yes"}}, {"type": "node", "id": 1831965989, "lat": -35.3776817, "lon": 149.0562179}, {"type": "node", "id": 1832025252, "lat": -35.3781285, "lon": 149.0565065}, {"type": "node", "id": 1832025255, "lat": -35.3785061, "lon": 149.0565206}, {"type": "node", "id": 1832025258, "lat": -35.3790059, "lon": 149.0565594, "tags": {"highway": "traffic_signals", "traffic_signals": "traffic_lights", "traffic_signals:direction": "forward"}}, {"type": "node", "id": 1832031775, "lat": -35.3786521, "lon": 149.0561835}, {"type": "node", "id": 1832031798, "lat": -35.3796198, "lon": 149.0566375}, {"type": "node", "id": 2012156364, "lat": -35.3831187, "lon": 149.0575835}, {"type": "node", "id": 2012156368, "lat": -35.383896, "lon": 149.0581918}, {"type": "node", "id": 2012165939, "lat": -35.3749772, "lon": 149.0566549}, {"type": "node", "id": 2012165942, "lat": -35.380207, "lon": 149.0563712}, {"type": "node", "id": 2012182165, "lat": -35.3803187, "lon": 149.0567983}, {"type": "node", "id": 2158544108, "lat": -35.3793513, "lon": 149.0566033, "tags": {"button_operated": "yes", "crossing": "traffic_signals", "highway": "crossing", "tactile_paving": "no", "traffic_signals:sound": "yes"}}, {"type": "node", "id": 2246052858, "lat": -35.3772966, "lon": 149.0565322, "tags": {"bus": "yes", "gtfs_id": "1342", "name": "Drakeford Drive after Sulwood Drive", "network": "Transport Canberra", "public_transport": "stop_position", "ref": "1342"}}, {"type": "node", "id": 2246052862, "lat": -35.377695, "lon": 149.0565067}, {"type": "node", "id": 2246052867, "lat": -35.3777251, "lon": 149.0562125}, {"type": "node", "id": 2246052868, "lat": -35.3777381, "lon": 149.0565058}, {"type": "node", "id": 5193578094, "lat": -35.37305, "lon": 149.0569777, "tags": {"bus": "yes", "gtfs_id": "1417", "name": "Tuggeranong Pky after Sulwood Drive", "network": "Transport Canberra", "public_transport": "stop_position", "ref": "1417"}}, {"type": "node", "id": 5193578443, "lat": -35.3773196, "lon": 149.0562571, "tags": {"bus": "yes", "gtfs_id": "1341", "name": "Drakeford Drive after Boddington Crescent", "network": "Transport Canberra", "public_transport": "stop_position", "ref": "1341"}}, {"type": "node", "id": 5910498733, "lat": -35.3799689, "lon": 149.0567093}, {"type": "node", "id": 5910498734, "lat": -35.3807565, "lon": 149.0569295}, {"type": "node", "id": 5910498735, "lat": -35.3820846, "lon": 149.0574802}, {"type": "node", "id": 5910498736, "lat": -35.3829513, "lon": 149.05799}, {"type": "node", "id": 5910498737, "lat": -35.3836306, "lon": 149.058509}, {"type": "node", "id": 5910498744, "lat": -35.3815826, "lon": 149.0567757}, {"type": "node", "id": 5910498745, "lat": -35.3781883, "lon": 149.0561901}, {"type": "node", "id": 5910498750, "lat": -35.3791278, "lon": 149.0562212, "tags": {"button_operated": "yes", "crossing": "traffic_signals", "highway": "crossing", "tactile_paving": "no", "traffic_signals:sound": "yes"}}, {"type": "node", "id": 5910498754, "lat": -35.3805642, "lon": 149.0564521}, {"type": "node", "id": 5910498755, "lat": -35.3822484, "lon": 149.05707}, {"type": "node", "id": 7082334182, "lat": -35.3790737, "lon": 149.0565679, "tags": {"button_operated": "yes", "crossing": "traffic_signals", "highway": "crossing", "tactile_paving": "no", "traffic_signals:sound": "yes"}}, {"type": "node", "id": 7083242261, "lat": -35.3794524, "lon": 149.0562625, "tags": {"highway": "traffic_signals", "traffic_signals": "traffic_lights", "traffic_signals:direction": "forward"}}, {"type": "node", "id": 7083242263, "lat": -35.3789425, "lon": 149.0561977}, {"type": "node", "id": 7083242264, "lat": -35.3796035, "lon": 149.0562816}, {"type": "node", "id": 7083242265, "lat": -35.3788801, "lon": 149.0565475, "tags": {"highway": "speed_camera", "maxspeed": "80"}}, {"type": "node", "id": 7083242266, "lat": -35.3796494, "lon": 149.0562875}, {"type": "node", "id": 7083242280, "lat": -35.3734659, "lon": 149.0571587}, {"type": "node", "id": 7083242281, "lat": -35.3743369, "lon": 149.0567609}, {"type": "node", "id": 7083242282, "lat": -35.3737591, "lon": 149.0571053, "tags": {"highway": "traffic_signals", "traffic_signals": "traffic_lights", "traffic_signals:direction": "forward"}}, {"type": "node", "id": 8634972675, "lat": -35.3734103, "lon": 149.0569247}, {"type": "node", "id": 8893843950, "lat": -35.3738988, "lon": 149.0568387}, {"type": "node", "id": 8893843951, "lat": -35.3738723, "lon": 149.0568434}, {"type": "way", "id": 5578080, "nodes": [1548665544, 21294155, 21294110, 2246052858, 2246052862], "tags": {"highway": "trunk", "lanes": "3", "maxspeed": "80", "name": "Drakeford Drive", "oneway": "yes", "source:geometry": "ACT2018", "surface": "asphalt"}}, {"type": "way", "id": 51196256, "nodes": [938966327, 21437080, 5910498754, 2012165942], "tags": {"highway": "trunk", "lanes": "3", "maxspeed": "80", "name": "Drakeford Drive", "oneway": "yes", "source:geometry": "ACT2018", "surface": "asphalt"}}, {"type": "way", "id": 72554521, "nodes": [1548665532, 21294082], "tags": {"highway": "trunk", "lanes": "4", "maxspeed": "80", "oneway": "yes", "source:geometry": "ACT2018", "source:lanes": "ACTmapi Imagery 2018", "surface": "asphalt", "turn:lanes": "|||right"}}, {"type": "way", "id": 80485511, "nodes": [938966336, 21437134, 5910498735, 21437146, 5910498736, 597051849, 5910498737, 1584457093], "tags": {"highway": "trunk", "lanes": "3", "maxspeed": "80", "name": "Drakeford Drive", "oneway": "yes", "source:geometry": "ACT2018", "surface": "asphalt"}}, {"type": "way", "id": 80485513, "nodes": [938966326, 938966336], "tags": {"bridge": "yes", "bridge_number": "4089", "highway": "trunk", "lanes": "3", "layer": "1", "maxspeed": "80", "name": "Drakeford Drive", "oneway": "yes", "source:geometry": "ACT2018", "surface": "asphalt"}}, {"type": "way", "id": 80485517, "nodes": [938966328, 938966327], "tags": {"bridge": "yes", "bridge_number": "4089", "highway": "trunk", "lanes": "3", "layer": "1", "maxspeed": "80", "name": "Drakeford Drive", "oneway": "yes", "source:geometry": "ACT2018", "surface": "asphalt"}}, {"type": "way", "id": 144971950, "nodes": [21437260, 2012156368, 21437234, 2012156364, 21437174, 5910498755, 21437093, 5910498744, 938966328], "tags": {"highway": "trunk", "lanes": "3", "maxspeed": "80", "name": "Drakeford Drive", "oneway": "yes", "source:geometry": "ACT2018", "surface": "asphalt"}}, {"type": "way", "id": 190571460, "nodes": [1548665545, 7083242281, 678846776, 1610611636, 21294085], "tags": {"highway": "trunk", "lanes": "4", "maxspeed": "80", "name": "Drakeford Drive", "oneway": "yes", "source:geometry": "ACT2018", "surface": "asphalt", "turn:lanes": "|||right"}}, {"type": "way", "id": 190571461, "nodes": [2012165942, 21437066], "tags": {"cycleway:left": "lane", "cycleway:left:lane": "exclusive", "highway": "trunk", "lanes": "5", "maxspeed": "80", "name": "Drakeford Drive", "oneway": "yes", "source:geometry": "ACT2018", "source:lanes": "ACTmapi Imagery 2018", "surface": "asphalt", "turn:lanes": "left||||right"}}, {"type": "way", "id": 190571462, "nodes": [21437052, 36394752, 5910498750, 7083242263, 1832031775, 5910498745, 2246052867], "tags": {"highway": "trunk", "lanes": "3", "maxspeed": "80", "name": "Drakeford Drive", "oneway": "yes", "source:geometry": "ACT2018", "surface": "asphalt"}}, {"type": "way", "id": 190571463, "nodes": [2012165939, 1548665545], "tags": {"cycleway:left": "lane", "cycleway:left:lane": "exclusive", "highway": "trunk", "lanes": "5", "maxspeed": "80", "name": "Drakeford Drive", "oneway": "yes", "source:geometry": "ACT2018", "source:lanes": "ACTmapi Imagery 2018", "surface": "asphalt", "turn:lanes": "left||||right"}}, {"type": "way", "id": 190571464, "nodes": [21437066, 7083242266, 7083242264, 7083242261, 678846771, 21437052], "tags": {"highway": "trunk", "lanes": "4", "maxspeed": "80", "name": "Drakeford Drive", "oneway": "yes", "source:geometry": "ACT2018", "surface": "asphalt", "turn:lanes": "|||right"}}, {"type": "way", "id": 190573191, "nodes": [1548665513, 7083242280, 7083242282, 678846779, 1548665532], "tags": {"highway": "motorway", "lanes": "4", "maxspeed": "80", "name": "Tuggeranong Parkway", "noref": "yes", "oneway": "yes", "source:geometry": "ACTMapi Imagery January 2020", "source:lanes": "ACTmapi Imagery 2018", "surface": "paved", "turn:lanes": "|||right"}}, {"type": "way", "id": 190573192, "nodes": [1832025252, 1832025255], "tags": {"cycleway:left": "no", "highway": "trunk", "lanes": "4", "maxspeed": "80", "name": "Drakeford Drive", "oneway": "yes", "source:geometry": "ACT2018", "surface": "asphalt"}}, {"type": "way", "id": 190573193, "nodes": [277675873, 2158544108, 1832031798, 5910498733, 2012182165, 5910498734, 938966326], "tags": {"highway": "trunk", "lanes": "3", "maxspeed": "80", "name": "Drakeford Drive", "oneway": "yes", "source:geometry": "ACT2018", "surface": "asphalt"}}, {"type": "way", "id": 190573195, "nodes": [1832025255, 7083242265, 1832025258, 7082334182, 678846774], "tags": {"cycleway:left": "no", "highway": "trunk", "lanes": "4", "maxspeed": "80", "name": "Drakeford Drive", "oneway": "yes", "source:geometry": "ACT2018", "surface": "asphalt", "turn:lanes": "|||right"}}, {"type": "way", "id": 215195740, "nodes": [2246052868, 1832025252], "tags": {"highway": "trunk", "lanes": "3", "maxspeed": "80", "name": "Drakeford Drive", "oneway": "yes", "source:geometry": "ACT2018", "surface": "asphalt"}}, {"type": "way", "id": 215195742, "nodes": [2246052862, 2246052868], "tags": {"bridge": "yes", "bridge_number": "4094", "highway": "trunk", "lanes": "3", "layer": "1", "maxspeed": "80", "name": "Drakeford Drive", "oneway": "yes", "source:geometry": "ACT2018", "surface": "asphalt"}}, {"type": "way", "id": 215195744, "nodes": [2246052867, 1831965989], "tags": {"bridge": "yes", "highway": "trunk", "lanes": "3", "layer": "1", "maxspeed": "80", "name": "Drakeford Drive", "note": "might be 4093 - needs resurvey", "oneway": "yes", "source:geometry": "ACT2018", "surface": "asphalt"}}, {"type": "way", "id": 215195745, "nodes": [1831965989, 5193578443, 678846775, 2012165939], "tags": {"highway": "trunk", "lanes": "3", "maxspeed": "80", "name": "Drakeford Drive", "oneway": "yes", "source:geometry": "ACT2018", "surface": "asphalt"}}, {"type": "way", "id": 252567800, "nodes": [1548665516, 8634972675, 5193578094, 895497775, 658995222, 21294120, 895497776, 21294157, 21294203], "tags": {"highway": "motorway", "lanes": "3", "maxspeed": "80", "name": "Tuggeranong Parkway", "noref": "yes", "oneway": "yes", "source:geometry": "ACTMapi Imagery January 2020", "surface": "paved"}}, {"type": "way", "id": 353794950, "nodes": [21294085, 8893843950, 8893843951, 1548665529], "tags": {"highway": "trunk", "lanes": "4", "maxspeed": "80", "oneway": "yes", "source:geometry": "ACT2018", "surface": "asphalt", "turn:lanes": "|||right"}}, {"type": "way", "id": 546709048, "nodes": [1548665529, 1548665525, 1548665516], "tags": {"highway": "motorway", "lanes": "3", "maxspeed": "80", "name": "Tuggeranong Parkway", "noref": "yes", "oneway": "yes", "source:geometry": "ACTMapi Imagery January 2020", "surface": "paved"}}, {"type": "way", "id": 733100295, "nodes": [678846774, 277675873], "tags": {"highway": "trunk", "lanes": "3", "maxspeed": "80", "name": "Drakeford Drive", "oneway": "yes", "source:geometry": "ACT2018", "surface": "asphalt"}}, {"type": "way", "id": 782245880, "nodes": [21294082, 1610611639, 1548665544], "tags": {"highway": "trunk", "lanes": "3", "maxspeed": "80", "name": "Drakeford Drive", "oneway": "yes", "source:geometry": "ACT2018", "surface": "asphalt"}}]}