{"version": 0.6, "generator": "Overpass API 0.7.61.5 4133829e", "osm3s": {"timestamp_osm_base": "2023-12-06T10:31:59Z", "copyright": "The data included in this document is from www.openstreetmap.org. The data is made available under ODbL."}, "elements": [{"type": "node", "id": 12235423, "lat": -34.8849272, "lon": 150.6036528}, {"type": "node", "id": 12235447, "lat": -34.8921862, "lon": 150.6036294}, {"type": "node", "id": 12347503, "lat": -34.8876139, "lon": 150.6045086, "tags": {"highway": "traffic_signals"}}, {"type": "node", "id": 1818905027, "lat": -34.8851158, "lon": 150.6036974}, {"type": "node", "id": 1818905029, "lat": -34.8854295, "lon": 150.6038146}, {"type": "node", "id": 1818905039, "lat": -34.8861082, "lon": 150.604185}, {"type": "node", "id": 1818905040, "lat": -34.8864802, "lon": 150.604363}, {"type": "node", "id": 1818905041, "lat": -34.8867123, "lon": 150.6044419}, {"type": "node", "id": 1818905042, "lat": -34.8870358, "lon": 150.6044846}, {"type": "node", "id": 1818905043, "lat": -34.8887845, "lon": 150.6043991}, {"type": "node", "id": 1818905044, "lat": -34.8914528, "lon": 150.6038307}, {"type": "node", "id": 1818905045, "lat": -34.8943368, "lon": 150.6030813}, {"type": "node", "id": 1818905050, "lat": -34.896581, "lon": 150.6025}, {"type": "node", "id": 1841464333, "lat": -34.8879113, "lon": 150.6044858}, {"type": "node", "id": 2877404551, "lat": -34.8958792, "lon": 150.6026669}, {"type": "node", "id": 2877404597, "lat": -34.8921111, "lon": 150.603651}, {"type": "node", "id": 2877405303, "lat": -34.8926412, "lon": 150.6034928}, {"type": "node", "id": 2877405322, "lat": -34.8947034, "lon": 150.6029478, "tags": {"button_operated": "yes", "crossing": "traffic_signals", "highway": "crossing", "tactile_paving": "no", "traffic_signals:sound": "yes", "traffic_signals:vibration": "yes"}}, {"type": "node", "id": 2877405324, "lat": -34.8943737, "lon": 150.6030268}, {"type": "node", "id": 2877405360, "lat": -34.8930641, "lon": 150.6033828}, {"type": "node", "id": 3953351299, "lat": -34.8870086, "lon": 150.6045697}, {"type": "node", "id": 3953351301, "lat": -34.8876034, "lon": 150.6046296, "tags": {"highway": "traffic_signals"}}, {"type": "node", "id": 3953351304, "lat": -34.8876583, "lon": 150.6046291, "tags": {"highway": "traffic_signals"}}, {"type": "node", "id": 3953351553, "lat": -34.8879226, "lon": 150.6046135}, {"type": "node", "id": 3953351919, "lat": -34.8886337, "lon": 150.6043845}, {"type": "node", "id": 3953351920, "lat": -34.8886481, "lon": 150.6044651}, {"type": "node", "id": 3953352225, "lat": -34.8943831, "lon": 150.6031162}, {"type": "node", "id": 3953352469, "lat": -34.8959064, "lon": 150.602752}, {"type": "node", "id": 3953352470, "lat": -34.8965285, "lon": 150.6026031}, {"type": "node", "id": 7903823280, "lat": -34.8853162, "lon": 150.6037667}, {"type": "node", "id": 7903823281, "lat": -34.8856631, "lon": 150.6039329}, {"type": "node", "id": 7903823282, "lat": -34.8863154, "lon": 150.6042926}, {"type": "node", "id": 7903866887, "lat": -34.8871856, "lon": 150.6045994}, {"type": "node", "id": 7903866888, "lat": -34.8873295, "lon": 150.6046206}, {"type": "node", "id": 7903866889, "lat": -34.8877819, "lon": 150.6046262}, {"type": "node", "id": 7903866890, "lat": -34.8877814, "lon": 150.6045001}, {"type": "node", "id": 8427547338, "lat": -34.8947155, "lon": 150.6030354, "tags": {"button_operated": "yes", "crossing": "traffic_signals", "highway": "crossing", "tactile_paving": "no", "traffic_signals:sound": "yes", "traffic_signals:vibration": "yes"}}, {"type": "node", "id": 9333085453, "lat": -34.8906585, "lon": 150.6040025}, {"type": "node", "id": 10869918878, "lat": -34.8852005, "lon": 150.6037245}, {"type": "way", "id": 170745102, "nodes": [1818905045, 2877405360, 2877405303], "tags": {"alt_name": "Princes Highway", "highway": "trunk", "lanes": "4", "maxspeed": "70", "name": "Hollands Road", "network": "AU:NSW", "ref": "A1", "source:name": "NSW LPI Base Map", "source:name:date": "2016-03", "surface": "asphalt"}}, {"type": "way", "id": 170745199, "nodes": [1818905050, 2877404551, 2877405322, 2877405324, 1818905045], "tags": {"alt_name": "Princes Highway", "highway": "trunk", "lanes": "2", "maxspeed": "70", "maxspeed:conditional": "40 @ (Mo-Fr 08:00-09:30,14:30-16:00; PH off; SH off)", "name": "Hollands Road", "network": "AU:NSW", "oneway": "yes", "ref": "A1", "source:name": "NSW LPI Base Map", "source:name:date": "2016-03", "surface": "asphalt"}}, {"type": "way", "id": 283933423, "nodes": [2877405303, 12235447], "tags": {"alt_name": "Princes Highway", "highway": "trunk", "lanes": "4", "maxspeed": "70", "name": "Hollands Road", "network": "AU:NSW", "ref": "A1", "source:name": "NSW LPI Base Map", "source:name:date": "2016-03", "surface": "asphalt"}}, {"type": "way", "id": 283933426, "nodes": [1818905043, 3953351919, 1841464333, 7903866890, 12347503], "tags": {"alt_name": "Princes Highway", "highway": "trunk", "lanes": "2", "maxspeed": "70", "name": "Hollands Road", "network": "AU:NSW", "oneway": "yes", "ref": "A1", "source:name": "NSW LPI Base Map", "source:name:date": "2016-03", "surface": "asphalt"}}, {"type": "way", "id": 283933439, "nodes": [12235447, 2877404597], "tags": {"alt_name": "Princes Highway", "highway": "trunk", "lanes": "4", "maxspeed": "70", "name": "Hollands Road", "network": "AU:NSW", "ref": "A1", "source:name": "NSW LPI Base Map", "source:name:date": "2016-03", "surface": "asphalt"}}, {"type": "way", "id": 287246606, "nodes": [1818905041, 1818905040, 7903823282, 1818905039, 7903823281, 1818905029, 7903823280, 10869918878, 1818905027, 12235423], "tags": {"alt_name": "Princes Highway", "highway": "trunk", "lanes": "4", "maxspeed": "70", "name": "East Street", "network": "AU:NSW", "ref": "A1", "source:name": "NSW LPI Base Map", "source:name:date": "2016-03", "surface": "asphalt"}}, {"type": "way", "id": 318470025, "nodes": [2877404597, 1818905044], "tags": {"alt_name": "Princes Highway", "highway": "trunk", "lanes": "4", "maxspeed": "70", "name": "Hollands Road", "network": "AU:NSW", "ref": "A1", "source:name": "NSW LPI Base Map", "source:name:date": "2016-03", "surface": "asphalt"}}, {"type": "way", "id": 392061639, "nodes": [1818905044, 9333085453, 1818905043], "tags": {"alt_name": "Princes Highway", "highway": "trunk", "lanes": "4", "maxspeed": "70", "name": "Hollands Road", "network": "AU:NSW", "ref": "A1", "source:name": "NSW LPI Base Map", "source:name:date": "2016-03", "surface": "asphalt"}}, {"type": "way", "id": 392061657, "nodes": [1818905045, 3953352225, 8427547338, 3953352469, 3953352470], "tags": {"alt_name": "Princes Highway", "highway": "trunk", "lanes": "2", "maxspeed": "70", "maxspeed:conditional": "40 @ (Mo-Fr 08:00-09:30,14:30-16:00; PH off; SH off)", "name": "Hollands Road", "network": "AU:NSW", "oneway": "yes", "ref": "A1", "source:name": "NSW LPI Base Map", "source:name:date": "2016-03", "surface": "asphalt"}}, {"type": "way", "id": 392061707, "nodes": [3953351301, 3953351304, 7903866889, 3953351553, 3953351920, 1818905043], "tags": {"alt_name": "Princes Highway", "highway": "trunk", "lanes": "2", "maxspeed": "70", "name": "Hollands Road", "network": "AU:NSW", "oneway": "yes", "ref": "A1", "source:name": "NSW LPI Base Map", "source:name:date": "2016-03", "surface": "asphalt"}}, {"type": "way", "id": 403711765, "nodes": [12347503, 1818905042, 1818905041], "tags": {"alt_name": "Princes Highway", "highway": "trunk", "lanes": "2", "maxspeed": "70", "name": "East Street", "network": "AU:NSW", "oneway": "yes", "ref": "A1", "source:name": "NSW LPI Base Map", "source:name:date": "2016-03", "surface": "asphalt"}}, {"type": "way", "id": 403711766, "nodes": [1818905041, 3953351299], "tags": {"alt_name": "Princes Highway", "highway": "trunk", "lanes": "2", "maxspeed": "70", "name": "East Street", "network": "AU:NSW", "oneway": "yes", "ref": "A1", "source:name": "NSW LPI Base Map", "source:name:date": "2016-03", "surface": "asphalt"}}, {"type": "way", "id": 762975472, "nodes": [3953351299, 7903866887, 7903866888, 3953351301], "tags": {"alt_name": "Princes Highway", "highway": "trunk", "lanes": "2", "maxspeed": "70", "name": "East Street", "network": "AU:NSW", "oneway": "yes", "ref": "A1", "source:name": "NSW LPI Base Map", "source:name:date": "2016-03", "surface": "asphalt"}}]}