{"version": 0.6, "generator": "Overpass API 0.7.61.5 4133829e", "osm3s": {"timestamp_osm_base": "2023-12-06T09:40:00Z", "copyright": "The data included in this document is from www.openstreetmap.org. The data is made available under ODbL."}, "elements": [{"type": "node", "id": 76424937, "lat": -33.7035622, "lon": 150.9300123}, {"type": "node", "id": 76424942, "lat": -33.6967904, "lon": 150.9273616}, {"type": "node", "id": 76426134, "lat": -33.6967332, "lon": 150.927548}, {"type": "node", "id": 76426135, "lat": -33.6981827, "lon": 150.9281102}, {"type": "node", "id": 76426136, "lat": -33.7014751, "lon": 150.9293114}, {"type": "node", "id": 76426137, "lat": -33.7035197, "lon": 150.9301753}, {"type": "node", "id": 79505728, "lat": -33.6954934, "lon": 150.9266094}, {"type": "node", "id": 79505729, "lat": -33.6961413, "lon": 150.9271535}, {"type": "node", "id": 429673803, "lat": -33.6968482, "lon": 150.9275992}, {"type": "node", "id": 429673812, "lat": -33.6969006, "lon": 150.9274234}, {"type": "node", "id": 557689496, "lat": -33.6946579, "lon": 150.9259142}, {"type": "node", "id": 1837058324, "lat": -33.6937461, "lon": 150.9251662, "tags": {"crossing": "traffic_signals", "highway": "crossing"}}, {"type": "node", "id": 1837058325, "lat": -33.6938535, "lon": 150.9250309, "tags": {"highway": "traffic_signals", "traffic_signals:direction": "forward"}}, {"type": "node", "id": 1837058326, "lat": -33.6949393, "lon": 150.9259383}, {"type": "node", "id": 1837058327, "lat": -33.6951704, "lon": 150.9263353}, {"type": "node", "id": 1837058328, "lat": -33.6955493, "lon": 150.9264473}, {"type": "node", "id": 1837058329, "lat": -33.6957053, "lon": 150.926796}, {"type": "node", "id": 1837058330, "lat": -33.6957053, "lon": 150.9265746}, {"type": "node", "id": 1837058331, "lat": -33.6965646, "lon": 150.9272263}, {"type": "node", "id": 1837058332, "lat": -33.6969575, "lon": 150.9276419, "tags": {"crossing": "traffic_signals", "highway": "crossing"}}, {"type": "node", "id": 1837058333, "lat": -33.6970364, "lon": 150.9274867, "tags": {"highway": "traffic_signals", "traffic_signals:direction": "forward"}}, {"type": "node", "id": 1837058334, "lat": -33.6974069, "lon": 150.9278389}, {"type": "node", "id": 1837058335, "lat": -33.6975038, "lon": 150.927674}, {"type": "node", "id": 1837058336, "lat": -33.6992245, "lon": 150.9284773}, {"type": "node", "id": 1837058337, "lat": -33.7009895, "lon": 150.9291455}, {"type": "node", "id": 1837058338, "lat": -33.7021002, "lon": 150.9295697}, {"type": "node", "id": 1837058339, "lat": -33.7022745, "lon": 150.9294924}, {"type": "node", "id": 1837058341, "lat": -33.7037911, "lon": 150.9302701}, {"type": "node", "id": 1849922107, "lat": -33.7040991, "lon": 150.9302082}, {"type": "node", "id": 2433621608, "lat": -33.7005151, "lon": 150.9287787}, {"type": "node", "id": 2433645648, "lat": -33.6992007, "lon": 150.9282913}, {"type": "node", "id": 2433645654, "lat": -33.6995754, "lon": 150.9284275}, {"type": "node", "id": 4003819840, "lat": -33.704075, "lon": 150.9303639, "tags": {"highway": "traffic_signals", "traffic_signals:direction": "forward"}}, {"type": "node", "id": 4394223951, "lat": -33.6938376, "lon": 150.9250162, "tags": {"crossing": "traffic_signals", "highway": "crossing"}}, {"type": "node", "id": 4797470479, "lat": -33.6966576, "lon": 150.9275116, "tags": {"highway": "traffic_signals", "traffic_signals:direction": "forward"}}, {"type": "node", "id": 6040645027, "lat": -33.6963466, "lon": 150.9273121}, {"type": "node", "id": 7104852374, "lat": -33.7024696, "lon": 150.9295712, "tags": {"maxspeed": "80", "traffic_sign": "maxspeed", "traffic_sign:direction": "forward"}}, {"type": "node", "id": 7104852375, "lat": -33.6984706, "lon": 150.9280257, "tags": {"maxspeed": "80", "traffic_sign": "maxspeed", "traffic_sign:direction": "forward"}}, {"type": "node", "id": 7104852376, "lat": -33.6964139, "lon": 150.9271159, "tags": {"maxspeed": "80", "traffic_sign": "maxspeed", "traffic_sign:direction": "forward"}}, {"type": "node", "id": 9028439669, "lat": -33.6938265, "lon": 150.9252322}, {"type": "node", "id": 10052464973, "lat": -33.7000227, "lon": 150.9285905}, {"type": "node", "id": 10052464974, "lat": -33.699962, "lon": 150.9287711}, {"type": "node", "id": 11237345179, "lat": -33.6970165, "lon": 150.9274787, "tags": {"crossing": "traffic_signals", "highway": "crossing"}}, {"type": "node", "id": 11237345205, "lat": -33.7001372, "lon": 150.9286322}, {"type": "node", "id": 11237345206, "lat": -33.7002287, "lon": 150.9286688, "tags": {"highway": "traffic_signals", "traffic_signals": "signal", "traffic_signals:direction": "forward"}}, {"type": "node", "id": 11237345207, "lat": -33.6999328, "lon": 150.9287595, "tags": {"highway": "traffic_signals", "traffic_signals": "signal", "traffic_signals:direction": "forward"}}, {"type": "node", "id": 11237345208, "lat": -33.7000733, "lon": 150.9288155}, {"type": "node", "id": 11276651049, "lat": -33.6976692, "lon": 150.9277342}, {"type": "node", "id": 11276651050, "lat": -33.7011829, "lon": 150.9290285}, {"type": "node", "id": 11276651051, "lat": -33.7028141, "lon": 150.9298926}, {"type": "node", "id": 11276651052, "lat": -33.7014159, "lon": 150.9291146}, {"type": "way", "id": 186586640, "nodes": [76424937, 7104852374, 1837058339, 11276651052, 11276651050], "tags": {"highway": "trunk", "lanes": "3", "maxspeed": "80", "name": "Windsor Road", "network": "AU:NSW", "oneway": "yes", "ref": "A2", "source:maxspeed": "sign", "surface": "asphalt"}}, {"type": "way", "id": 255379504, "nodes": [11237345205, 11237345208], "tags": {"cycleway:left": "track", "cycleway:left:segregated": "no", "cycleway:right": "no", "highway": "trunk", "maxspeed": "50", "name": "Merriville Road", "sidewalk": "left", "source:maxspeed": "bing", "source:name": "sign (eastern end)", "surface": "asphalt"}}, {"type": "way", "id": 255379932, "nodes": [11237345205, 10052464973, 2433645654, 2433645648, 7104852375, 11276651049], "tags": {"highway": "trunk", "lanes": "3", "maxspeed": "80", "name": "Windsor Road", "network": "AU:NSW", "oneway": "yes", "ref": "A2", "source:maxspeed": "sign", "surface": "asphalt"}}, {"type": "way", "id": 377239276, "nodes": [11237345208, 1837058337, 76426136], "tags": {"highway": "trunk", "lanes": "3", "maxspeed": "80", "name": "Windsor Road", "network": "AU:NSW", "oneway": "yes", "ref": "A2", "surface": "asphalt"}}, {"type": "way", "id": 569388311, "nodes": [429673812, 76424942], "tags": {"highway": "trunk", "lanes": "3", "maxspeed": "80", "name": "Windsor Road", "network": "AU:NSW", "oneway": "yes", "ref": "A2", "source:maxspeed": "sign", "surface": "asphalt"}}, {"type": "way", "id": 569388313, "nodes": [1837058324, 9028439669, 557689496, 1837058327, 79505728, 1837058329, 79505729], "tags": {"highway": "trunk", "lanes": "3", "maxspeed": "80", "name": "Windsor Road", "network": "AU:NSW", "oneway": "yes", "ref": "A2", "surface": "asphalt"}}, {"type": "way", "id": 578970797, "nodes": [76426134, 429673803], "tags": {"highway": "trunk", "lanes": "3", "maxspeed": "80", "name": "Windsor Road", "network": "AU:NSW", "oneway": "yes", "ref": "A2", "surface": "asphalt"}}, {"type": "way", "id": 578970802, "nodes": [1837058336, 11237345207, 10052464974, 11237345208], "tags": {"highway": "trunk", "lanes": "4", "maxspeed": "80", "name": "Windsor Road", "network": "AU:NSW", "oneway": "yes", "placement": "middle_of:2", "ref": "A2", "surface": "asphalt", "turn:lanes": "none|none|none|right"}}, {"type": "way", "id": 580184103, "nodes": [1837058330, 1837058328, 1837058326, 1837058325, 4394223951], "tags": {"highway": "trunk", "lanes": "5", "lit": "yes", "maxspeed": "80", "name": "Windsor Road", "network": "AU:NSW", "oneway": "yes", "placement": "middle_of:2", "ref": "A2", "surface": "asphalt", "turn:lanes": "none|none|none|right|right"}}, {"type": "way", "id": 786028180, "nodes": [1849922107, 76424937], "tags": {"highway": "trunk", "lanes": "3", "maxspeed": "80", "name": "Windsor Road", "network": "AU:NSW", "oneway": "yes", "ref": "A2", "source:maxspeed": "sign", "surface": "asphalt"}}, {"type": "way", "id": 786028182, "nodes": [76426137, 1837058341, 4003819840], "tags": {"highway": "trunk", "lanes": "5", "maxspeed": "80", "name": "Windsor Road", "network": "AU:NSW", "oneway": "yes", "placement": "middle_of:4", "ref": "A2", "surface": "asphalt", "turn:lanes": "left|left|none|none|none"}}, {"type": "way", "id": 975629446, "nodes": [76424942, 1837058331, 7104852376, 1837058330], "tags": {"highway": "trunk", "lanes": "3", "lit": "yes", "maxspeed": "80", "name": "Windsor Road", "network": "AU:NSW", "oneway": "yes", "ref": "A2", "surface": "asphalt"}}, {"type": "way", "id": 1217011392, "nodes": [79505729, 6040645027, 4797470479, 76426134], "tags": {"cycleway": "lane", "highway": "trunk", "lanes": "4", "maxspeed": "80", "name": "Windsor Road", "network": "AU:NSW", "oneway": "yes", "placement": "middle_of:3", "ref": "A2", "surface": "asphalt", "turn:lanes": "left|none|none|none"}}, {"type": "way", "id": 1217011393, "nodes": [11276651049, 1837058335, 1837058333, 11237345179, 429673812], "tags": {"highway": "trunk", "lanes": "5", "maxspeed": "80", "name": "Windsor Road", "network": "AU:NSW", "oneway": "yes", "placement": "middle_of:2", "ref": "A2", "source:maxspeed": "sign", "surface": "asphalt", "turn:lanes": "none|none|none|right|right"}}, {"type": "way", "id": 1217011394, "nodes": [429673803, 1837058332, 1837058334, 76426135, 1837058336], "tags": {"highway": "trunk", "lanes": "3", "maxspeed": "80", "name": "Windsor Road", "network": "AU:NSW", "oneway": "yes", "ref": "A2", "surface": "asphalt"}}, {"type": "way", "id": 1217011395, "nodes": [11276651050, 2433621608], "tags": {"highway": "trunk", "lanes": "4", "maxspeed": "80", "name": "Windsor Road", "network": "AU:NSW", "oneway": "yes", "placement": "middle_of:3", "ref": "A2", "source:maxspeed": "sign", "surface": "asphalt", "turn:bus:lanes": "left;through|none|none|none", "turn:lanes": "left|none|none|none"}}, {"type": "way", "id": 1217011396, "nodes": [2433621608, 11237345206, 11237345205], "tags": {"access:lanes": "no|yes|yes|yes", "bus:lanes": "designated|yes|yes|yes", "highway": "trunk", "lanes": "4", "maxspeed": "80", "name": "Windsor Road", "network": "AU:NSW", "oneway": "yes", "placement": "middle_of:3", "ref": "A2", "source:maxspeed": "sign", "surface": "asphalt"}}, {"type": "way", "id": 1217011397, "nodes": [76426136, 1837058338, 11276651051, 76426137], "tags": {"highway": "trunk", "lanes": "4", "maxspeed": "80", "name": "Windsor Road", "network": "AU:NSW", "oneway": "yes", "placement": "middle_of:3", "ref": "A2", "surface": "asphalt", "turn:lanes": "left|none|none|none"}}]}